sigla,iata,nombre,municipio,departamento,categoria,latitud,longitud,propietario,explotador,longitud_pista,ancho_pista,pbmo,elevacion,resolucion,fecha_construccion,fecha_vigencia,clase,tipo,numero_vuelos_origen,gcd_departamento,gcd_municipio,Ano
7FO,,LA ISLA,Puerto Gaitán,Meta,Aeródromo,4.4211,-71.6271,LA ISLA Y EL ROSARIO S.A.,LA CEIBA S.A.,1079.0,19.0,3000.0,538.0," 1325,000",2015-06-05,2018-06-11,1A,Fumigación,2.0,50,50568,2015
7FO,,LA ISLA,Puerto Gaitán,Meta,Aeródromo,4.4211,-71.6271,LA ISLA Y EL ROSARIO S.A.,LA CEIBA S.A.,1321.0,38.0,3000.0,538.0," 1325,000",2015-06-05,2018-06-11,1A,Fumigación,2.0,50,50568,2016
7FU,,LA ESCONDIDA,Puerto Gaitán,Meta,Aeródromo,4.6108,-71.1935,PALMAS SICARARE S.A.S.,COSARGO S.A.S.,2141.0,17.0,5000.0,564.0," 1843,000",2013-04-26,2016-05-07,1A,Aerocivil,24.0,50,50568,2014
7FU,,LA ESCONDIDA,Puerto Gaitán,Meta,Aeródromo,4.6108,-71.1935,PALMAS SICARARE S.A.S.,COSARGO S.A.S.,3853.0,5.0,5000.0,564.0," 1843,000",2013-04-26,2016-05-07,1A,Aerocivil,24.0,50,50568,2015
7FU,,LA ESCONDIDA,Puerto Gaitán,Meta,Aeródromo,4.6108,-71.1935,PALMAS SICARARE S.A.S.,COSARGO S.A.S.,6667.0,5.0,5000.0,564.0," 1843,000",2013-04-26,2016-05-07,1A,Público,12.0,50,50568,2016
7FW,,MORICHITO,Hato Corozal,Casanare,Aeródromo,5.9188,-71.7932,CARMEN NARANJO,ROBERTO C. RIAÑO P.,1361.0,14.0,3500.0,720.0," 2220,000",2009-05-07,,1A,Privado,0.0,85,85125,2014
7FW,,MORICHITO,Hato Corozal,Casanare,Aeródromo,5.9188,-71.7932,CARMEN NARANJO,ROBERTO C. RIAÑO P.,1442.0,4.0,3500.0,720.0," 2220,000",2009-05-07,,1A,Fumigación,0.0,85,85125,2015
7FW,,MORICHITO,Hato Corozal,Casanare,Aeródromo,5.9188,-71.7932,CARMEN NARANJO,ROBERTO C. RIAÑO P.,2411.0,1.0,3500.0,720.0," 2220,000",2009-05-07,,1A,Aerocivil,0.0,85,85125,2016
7FX,,CAROLINA DEL PRINCIPE,Carolina,Antioquia,Aeródromo,6.7248,-75.2909,MUNICIPIO,MUNICIPIO,452.0,0.0,1000.0,6004.0," 6470,000",2013-11-19,,1A,Público,0.0,5,5150,2014
7FX,,CAROLINA DEL PRINCIPE,Carolina,Antioquia,Aeródromo,6.7248,-75.2909,MUNICIPIO,MUNICIPIO,518.0,0.0,1000.0,6004.0," 6470,000",2013-11-19,,1A,Fumigación,0.0,5,5150,2015
7FX,,CAROLINA DEL PRINCIPE,Carolina,Antioquia,Aeródromo,6.7248,-75.2909,MUNICIPIO,MUNICIPIO,982.0,0.0,1000.0,6004.0," 6470,000",2013-11-19,,1A,Público,0.0,5,5150,2016
7FY,,DUBAI,Ayapel,Córdoba,Aeródromo,8.296,-75.0307,ANDRES D. LONDOÑO T.,ANDRES D. LONDOÑO T.,426.0,15.0,500.0,82.0," 1212,000",2013-03-20,,1A,Fumigación,0.0,23,23068,2014
7FY,,DUBAI,Ayapel,Córdoba,Aeródromo,8.296,-75.0307,ANDRES D. LONDOÑO T.,ANDRES D. LONDOÑO T.,814.0,15.0,500.0,82.0," 1212,000",2013-03-20,,1A,Aerocivil,0.0,23,23068,2015
7FY,,DUBAI,Ayapel,Córdoba,Aeródromo,8.296,-75.0307,ANDRES D. LONDOÑO T.,ANDRES D. LONDOÑO T.,1592.0,21.0,500.0,82.0," 1212,000",2013-03-20,,1A,Privado,0.0,23,23068,2016
7FZ,,EL TRIUNFO,Orocué,Casanare,Aeródromo,4.8095,-71.667,ERNESTO J. PEREZ VILLAMIZAR,EL MISMO,630.0,25.0,3000.0,475.0," 5532,000",2014-11-11,,1A,Privado,2.0,85,85230,2014
7FZ,,EL TRIUNFO,Orocué,Casanare,Aeródromo,4.8095,-71.667,ERNESTO J. PEREZ VILLAMIZAR,EL MISMO,363.0,42.0,3000.0,475.0," 5532,000",2014-11-11,,1A,Público,2.0,85,85230,2015
7FZ,,EL TRIUNFO,Orocué,Casanare,Aeródromo,4.8095,-71.667,ERNESTO J. PEREZ VILLAMIZAR,EL MISMO,5.0,66.0,3000.0,475.0," 5532,000",2014-11-11,,1A,Aerocivil,2.0,85,85230,2016
7GA,,BARU - HIDROPUERTO,Cartagena de Indias,Bolívar,Aeródromo,10.2321,-75.5877,MAURICIO E. VASQUEZ M.,EL MISMO,269.0,27.0,500.0,0.0," 6067,000",2012-10-25,2015-11-07,1A,Público,0.0,13,13001,2014
7GA,,BARU - HIDROPUERTO,Cartagena de Indias,Bolívar,Aeródromo,10.2321,-75.5877,MAURICIO E. VASQUEZ M.,EL MISMO,204.0,46.0,500.0,0.0," 6067,000",2012-10-25,2015-11-07,1A,Público,0.0,13,13001,2015
7GA,,BARU - HIDROPUERTO,Cartagena de Indias,Bolívar,Aeródromo,10.2321,-75.5877,MAURICIO E. VASQUEZ M.,EL MISMO,106.0,69.0,500.0,0.0," 6067,000",2012-10-25,2015-11-07,1A,Público,0.0,13,13001,2016
7GB,,LA CAROLINA,El Paso,Cesar,Aeródromo,9.528,-73.7866,JORGE AGUDELO RESTREPO,JORGE AGUDELO REST.,249.0,8.0,500.0,690.0," 5474,000",2009-10-06,,UL,Público,0.0,20,20250,2014
7GB,,LA CAROLINA,El Paso,Cesar,Aeródromo,9.528,-73.7866,JORGE AGUDELO RESTREPO,JORGE AGUDELO REST.,189.0,5.0,500.0,690.0," 5474,000",2009-10-06,,UL,Aerocivil,0.0,20,20250,2015
7GB,,LA CAROLINA,El Paso,Cesar,Aeródromo,9.528,-73.7866,JORGE AGUDELO RESTREPO,JORGE AGUDELO REST.,46.0,4.0,500.0,690.0," 5474,000",2009-10-06,,UL,Aerocivil,0.0,20,20250,2016
7GC,,SAN FELIPE DEL PAUTO,Trinidad,Casanare,Aeródromo,5.2032,-70.8951,AGRAS S.A.S,AGRAS S.A.S,939.0,4.0,3000.0,3125.0," 4505,000",2012-08-16,,1A,Privado,275.0,85,85430,2014
7GC,,SAN FELIPE DEL PAUTO,Trinidad,Casanare,Aeródromo,5.2032,-70.8951,AGRAS S.A.S,AGRAS S.A.S,1368.0,2.0,3000.0,3125.0," 4505,000",2012-08-16,,1A,Fumigación,412.0,85,85430,2015
7GC,,SAN FELIPE DEL PAUTO,Trinidad,Casanare,Aeródromo,5.2032,-70.8951,AGRAS S.A.S,AGRAS S.A.S,1783.0,0.0,3000.0,3125.0," 4505,000",2012-08-16,,1A,Fumigación,578.0,85,85430,2016
7GD,,VELASQUEZ,Puerto Boyacá,Boyacá,Aeródromo,5.9482,-74.4575,FAC,MANSAROVAR,1057.0,24.0,10000.0,617.0," 2135,000",2013-05-16,,3C,Aerocivil,790.0,15,15572,2014
7GD,,VELASQUEZ,Puerto Boyacá,Boyacá,Aeródromo,5.9482,-74.4575,FAC,MANSAROVAR,890.0,32.0,10000.0,617.0," 2135,000",2013-05-16,,3C,Aerocivil,733.0,15,15572,2015
7GD,,VELASQUEZ,Puerto Boyacá,Boyacá,Aeródromo,5.9482,-74.4575,FAC,MANSAROVAR,496.0,47.0,10000.0,617.0," 2135,000",2013-05-16,,3C,Público,46.0,15,15572,2016
7GE,,LUCITANIA,Orocué,Casanare,Aeródromo,4.6954,-71.589,AGROPECUARIA CRAVO SUR,AGROPECUARIA CRAVO SUR,1266.0,6.0,3000.0,443.0," 1051,000",2014-02-28,2017-03-03,1A,Aerocivil,0.0,85,85230,2014
7GE,,LUCITANIA,Orocué,Casanare,Aeródromo,4.6954,-71.589,AGROPECUARIA CRAVO SUR,AGROPECUARIA CRAVO SUR,1691.0,2.0,3000.0,443.0," 1051,000",2014-02-28,2017-03-03,1A,Fumigación,0.0,85,85230,2015
7GE,,LUCITANIA,Orocué,Casanare,Aeródromo,4.6954,-71.589,AGROPECUARIA CRAVO SUR,AGROPECUARIA CRAVO SUR,2677.0,2.0,3000.0,443.0," 1051,000",2014-02-28,2017-03-03,1A,Privado,0.0,85,85230,2016
7GF,,LA UNION,Paz de Ariporo,Casanare,Aeródromo,5.6283,-70.7032,MARTHA Y. VARGAS DE R.,GEOPARK CUERVA,757.0,14.0,3500.0,335.0," 2136,000",2013-05-16,,1A,Fumigación,48.0,85,85250,2014
7GF,,LA UNION,Paz de Ariporo,Casanare,Aeródromo,5.6283,-70.7032,MARTHA Y. VARGAS DE R.,GEOPARK CUERVA,829.0,11.0,3500.0,335.0," 2136,000",2013-05-16,,1A,Aerocivil,19.0,85,85250,2015
7GF,,LA UNION,Paz de Ariporo,Casanare,Aeródromo,5.6283,-70.7032,MARTHA Y. VARGAS DE R.,GEOPARK CUERVA,1092.0,3.0,3500.0,335.0," 2136,000",2013-05-16,,1A,Fumigación,0.0,85,85250,2016
7GG,,LA ILUSION,Maní,Casanare,Aeródromo,4.5805,-72.4282,SIGRA S.A.,SIGRA S.A.,418.0,22.0,3500.0,574.0," 1944,000",2013-05-03,2016-05-10,1A,Aerocivil,3.0,85,85139,2014
7GG,,LA ILUSION,Maní,Casanare,Aeródromo,4.5805,-72.4282,SIGRA S.A.,SIGRA S.A.,131.0,30.0,3500.0,574.0," 1944,000",2013-05-03,2016-05-10,1A,Fumigación,4.0,85,85139,2015
7GG,,LA ILUSION,Maní,Casanare,Aeródromo,4.5805,-72.4282,SIGRA S.A.,SIGRA S.A.,4.0,51.0,3500.0,574.0," 1944,000",2013-05-03,2016-05-10,1A,Público,6.0,85,85139,2016
7GH,,LA VENTUROSA,Puerto Carreño,Vichada,Aeródromo,6.1391,-68.7779,MUNICIPIO,GOBERNACION,1543.0,22.0,9500.0,246.0," 6782,000",2013-12-05,,1A,Público,41.0,99,99001,2014
7GH,,LA VENTUROSA,Puerto Carreño,Vichada,Aeródromo,6.1391,-68.7779,MUNICIPIO,GOBERNACION,1968.0,39.0,9500.0,246.0," 6782,000",2013-12-05,,1A,Público,14.0,99,99001,2015
7GH,,LA VENTUROSA,Puerto Carreño,Vichada,Aeródromo,6.1391,-68.7779,MUNICIPIO,GOBERNACION,2723.0,77.0,9500.0,246.0," 6782,000",2013-12-05,,1A,Fumigación,0.0,99,99001,2016
7GI,,GUAYABAL DEL CRAVO,Orocué,Casanare,Aeródromo,4.7223,-71.5943,KLAUS PUTH ARANGUREN,KLAUS PUTH ARANGUREN,326.0,12.0,2500.0,442.0," 3710,000",2013-07-24,2016-08-01,1A,Público,1.0,85,85230,2014
7GI,,GUAYABAL DEL CRAVO,Orocué,Casanare,Aeródromo,4.7223,-71.5943,KLAUS PUTH ARANGUREN,KLAUS PUTH ARANGUREN,89.0,20.0,2500.0,442.0," 3710,000",2013-07-24,2016-08-01,1A,Público,1.0,85,85230,2015
7GI,,GUAYABAL DEL CRAVO,Orocué,Casanare,Aeródromo,4.7223,-71.5943,KLAUS PUTH ARANGUREN,KLAUS PUTH ARANGUREN,58.0,21.0,2500.0,442.0," 3710,000",2013-07-24,2016-08-01,1A,Privado,2.0,85,85230,2016
7GK,,LAS VIOLETAS- CA,Castilla la Nueva,Meta,Aeródromo,3.8519,-73.7286,FRANCELINA CADENA,AEROCLUB DEL META,464.0,7.0,500.0,609.0," 4132,000",2010-08-19,,UL,Fumigación,0.0,50,50150,2014
7GK,,LAS VIOLETAS- CA,Castilla la Nueva,Meta,Aeródromo,3.8519,-73.7286,FRANCELINA CADENA,AEROCLUB DEL META,539.0,7.0,500.0,609.0," 4132,000",2010-08-19,,UL,Fumigación,0.0,50,50150,2015
7GK,,LAS VIOLETAS- CA,Castilla la Nueva,Meta,Aeródromo,3.8519,-73.7286,FRANCELINA CADENA,AEROCLUB DEL META,921.0,7.0,500.0,609.0," 4132,000",2010-08-19,,UL,Privado,0.0,50,50150,2016
7GL,,LA JAGUA,La Jagua de Ibirico,Cesar,Aeródromo,9.5905,-73.2886,CARBONES DE LA JAGUA S.A.,CARBO. DE LA JAGUA S.A.,842.0,17.0,7500.0,787.0,"  171,000",2015-01-27,2018-02-06,2A,Fumigación,1070.0,20,20400,2015
7GL,,LA JAGUA,La Jagua de Ibirico,Cesar,Aeródromo,9.5905,-73.2886,CARBONES DE LA JAGUA S.A.,CARBO. DE LA JAGUA S.A.,564.0,15.0,7500.0,787.0,"  171,000",2015-01-27,2018-02-06,2A,Público,1070.0,20,20400,2016
7GN,,LOS MANGOS,Ayapel,Córdoba,Aeródromo,8.2956,-75.0987,MANUEL LOPEZ ORTEGA,MANUEL LOPEZ ORTEGA,179.0,12.0,500.0,90.0," 5190,000",2013-09-24,,UL,Aerocivil,0.0,23,23068,2014
7GN,,LOS MANGOS,Ayapel,Córdoba,Aeródromo,8.2956,-75.0987,MANUEL LOPEZ ORTEGA,MANUEL LOPEZ ORTEGA,122.0,22.0,500.0,90.0," 5190,000",2013-09-24,,UL,Fumigación,0.0,23,23068,2015
7GN,,LOS MANGOS,Ayapel,Córdoba,Aeródromo,8.2956,-75.0987,MANUEL LOPEZ ORTEGA,MANUEL LOPEZ ORTEGA,82.0,40.0,500.0,90.0," 5190,000",2013-09-24,,UL,Público,0.0,23,23068,2016
7GO,,MATABRAVA,San Luis de Palenque,Casanare,Aeródromo,5.2132,-71.6915,FRANCISCA REYES DIAZ,FRANCISCA REYES DIAZ,561.0,11.0,2000.0,524.0," 5966,000",2014-12-15,,1A,Fumigación,1.0,85,85325,2014
7GO,,MATABRAVA,San Luis de Palenque,Casanare,Aeródromo,5.2132,-71.6915,FRANCISCA REYES DIAZ,FRANCISCA REYES DIAZ,35.0,14.0,2000.0,524.0," 5966,000",2014-12-15,,1A,Fumigación,1.0,85,85325,2015
7GO,,MATABRAVA,San Luis de Palenque,Casanare,Aeródromo,5.2132,-71.6915,FRANCISCA REYES DIAZ,FRANCISCA REYES DIAZ,31.0,15.0,2000.0,524.0," 5966,000",2014-12-15,,1A,Público,1.0,85,85325,2016
7GP,,EL PORVENIR - CA,Pijiño del Carmen,Magdalena,Aeródromo,9.491,-74.1909,LA CEIBA S.A.,LA CEIBA S.A.,280.0,17.0,500.0,176.0,"  236,000",2014-01-21,,UL,Fumigación,0.0,47,47545,2014
7GP,,EL PORVENIR - CA,Pijiño del Carmen,Magdalena,Aeródromo,9.491,-74.1909,LA CEIBA S.A.,LA CEIBA S.A.,68.0,22.0,500.0,176.0,"  236,000",2014-01-21,,UL,Aerocivil,0.0,47,47545,2015
7GP,,EL PORVENIR - CA,Pijiño del Carmen,Magdalena,Aeródromo,9.491,-74.1909,LA CEIBA S.A.,LA CEIBA S.A.,25.0,36.0,500.0,176.0,"  236,000",2014-01-21,,UL,Público,0.0,47,47545,2016
7GQ,,LA PROVINCIA,Paz de Ariporo,Casanare,Aeródromo,5.6918,-70.11,CARLOS H. MONTENEGRO,CARLOS H. MONTENEGRO,592.0,14.0,2500.0,430.0,"  399,000",2014-01-31,,1A,Aerocivil,0.0,85,85250,2014
7GQ,,LA PROVINCIA,Paz de Ariporo,Casanare,Aeródromo,5.6918,-70.11,CARLOS H. MONTENEGRO,CARLOS H. MONTENEGRO,46.0,10.0,2500.0,430.0,"  399,000",2014-01-31,,1A,Aerocivil,0.0,85,85250,2015
7GQ,,LA PROVINCIA,Paz de Ariporo,Casanare,Aeródromo,5.6918,-70.11,CARLOS H. MONTENEGRO,CARLOS H. MONTENEGRO,37.0,7.0,2500.0,430.0,"  399,000",2014-01-31,,1A,Público,0.0,85,85250,2016
7GS,,EL ENCANTO,Cumaribo,Vichada,Aeródromo,4.6934,-70.9078,JUAN AQUILINO PEREZ P.,EL ENCANTO 1 S.A.S.,792.0,10.0,5000.0,544.0," 5964,000",2014-12-15,,1A,Fumigación,376.0,99,99773,2014
7GS,,EL ENCANTO,Cumaribo,Vichada,Aeródromo,4.6934,-70.9078,JUAN AQUILINO PEREZ P.,EL ENCANTO 1 S.A.S.,442.0,3.0,5000.0,544.0," 5964,000",2014-12-15,,1A,Fumigación,376.0,99,99773,2015
7GS,,EL ENCANTO,Cumaribo,Vichada,Aeródromo,4.6934,-70.9078,JUAN AQUILINO PEREZ P.,EL ENCANTO 1 S.A.S.,253.0,1.0,5000.0,544.0," 5964,000",2014-12-15,,1A,Público,376.0,99,99773,2016
7GU,,HATO GARIBAY,Maní,Casanare,Aeródromo,4.4656,-72.3273,AGROPECUARIA LA TAGUA,ROBERTO HERRERA OBREGON,739.0,18.0,5500.0,482.0," 4212,000",2014-08-06,,1A,Fumigación,0.0,85,85139,2014
7GU,,HATO GARIBAY,Maní,Casanare,Aeródromo,4.4656,-72.3273,AGROPECUARIA LA TAGUA,ROBERTO HERRERA OBREGON,368.0,35.0,5500.0,482.0," 4212,000",2014-08-06,,1A,Público,0.0,85,85139,2015
7GU,,HATO GARIBAY,Maní,Casanare,Aeródromo,4.4656,-72.3273,AGROPECUARIA LA TAGUA,ROBERTO HERRERA OBREGON,331.0,35.0,5500.0,482.0," 4212,000",2014-08-06,,1A,Privado,0.0,85,85139,2016
7GV,,REPRESA DE LAS CANARIAS,Paz de Ariporo,Casanare,Aeródromo,5.7658,-71.2503,OLGA BRAVO DE CANTOR,OLGA BRAVO DE CANTOR,12.0,6.0,3500.0,652.0," 5236,000",2014-10-14,2017-12-01,1A,Privado,6.0,85,85250,2014
7GV,,REPRESA DE LAS CANARIAS,Paz de Ariporo,Casanare,Aeródromo,5.7658,-71.2503,OLGA BRAVO DE CANTOR,OLGA BRAVO DE CANTOR,1.0,5.0,3500.0,652.0," 5236,000",2014-10-14,2017-12-01,1A,Público,6.0,85,85250,2015
7GV,,REPRESA DE LAS CANARIAS,Paz de Ariporo,Casanare,Aeródromo,5.7658,-71.2503,OLGA BRAVO DE CANTOR,OLGA BRAVO DE CANTOR,0.0,2.0,3500.0,652.0," 5236,000",2014-10-14,2017-12-01,1A,Público,6.0,85,85250,2016
7GX,,LA ATARRAYA - CA.,Ayapel,Córdoba,Aeródromo,8.2857,-75.0963,FELIPE BRAVO BOTERO,FELIPE BRAVO BOTERO,82.0,18.0,500.0,91.0," 5714,000",2014-11-25,,UL,Privado,0.0,23,23068,2014
7GX,,LA ATARRAYA - CA.,Ayapel,Córdoba,Aeródromo,8.2857,-75.0963,FELIPE BRAVO BOTERO,FELIPE BRAVO BOTERO,57.0,34.0,500.0,91.0," 5714,000",2014-11-25,,UL,Público,0.0,23,23068,2015
7GX,,LA ATARRAYA - CA.,Ayapel,Córdoba,Aeródromo,8.2857,-75.0963,FELIPE BRAVO BOTERO,FELIPE BRAVO BOTERO,5.0,49.0,500.0,91.0," 5714,000",2014-11-25,,UL,Público,0.0,23,23068,2016
7GY,,LAS ACACIAS,Nemocón,Cundinamarca,Aeródromo,5.0949,-73.9054,JUAN BERNANDO SANINT G,EL MISMO,1345.0,17.0,10000.0,8431.0,"  439,000",2015-02-27,2018-03-05,3A,Fumigación,0.0,25,25486,2015
7GY,,LAS ACACIAS,Nemocón,Cundinamarca,Aeródromo,5.0949,-73.9054,JUAN BERNANDO SANINT G,EL MISMO,1289.0,14.0,10000.0,8431.0,"  439,000",2015-02-27,2018-03-05,3A,Público,0.0,25,25486,2016
7GZ,,COROZITO,Maní,Casanare,Aeródromo,4.6701,-72.0994,INVERSIONES LA PALMERA DE COROZITO,INV.LA PALMERA DE COROZITO,995.0,9.0,,497.0,"  832,000",2015-04-14,,2A,Fumigación,161.0,85,85139,2015
7GZ,,COROZITO,Maní,Casanare,Aeródromo,4.6701,-72.0994,INVERSIONES LA PALMERA DE COROZITO,INV.LA PALMERA DE COROZITO,37.0,9.0,,497.0,"  832,000",2015-04-14,,2A,Público,161.0,85,85139,2016
7HA,,EL CONDOR,Flandes,Tolima,Aeródromo,4.2595,-74.8308,AEROTURBO DE COLOMBIA,LUIS FDO. BARRETO CAVIEDES,235.0,0.0,500.0,992.0," 5730,000",2012-10-09,2015-12-03,UL,Aerocivil,0.0,73,73275,2014
7HA,,EL CONDOR,Flandes,Tolima,Aeródromo,4.2595,-74.8308,AEROTURBO DE COLOMBIA,LUIS FDO. BARRETO CAVIEDES,11.0,0.0,500.0,992.0," 5730,000",2012-10-09,2015-12-03,UL,Aerocivil,0.0,73,73275,2015
7HA,,EL CONDOR,Flandes,Tolima,Aeródromo,4.2595,-74.8308,AEROTURBO DE COLOMBIA,LUIS FDO. BARRETO CAVIEDES,8.0,0.0,500.0,992.0," 5730,000",2012-10-09,2015-12-03,UL,Fumigación,0.0,73,73275,2016
7HB,,HOTEL SAN DIEGO,Puerto Gaitán,Meta,Aeródromo,3.7693,-71.8179,MADYGAN S.A.S.,MADYGAN S.A.S.,440.0,4.0,4000.0,725.0," 6730,000",2012-11-26,2015-12-03,2A,Privado,150.0,50,50568,2014
7HB,,HOTEL SAN DIEGO,Puerto Gaitán,Meta,Aeródromo,3.7693,-71.8179,MADYGAN S.A.S.,MADYGAN S.A.S.,7.0,4.0,4000.0,725.0," 6730,000",2012-11-26,2015-12-03,2A,Aerocivil,209.0,50,50568,2015
7HB,,HOTEL SAN DIEGO,Puerto Gaitán,Meta,Aeródromo,3.7693,-71.8179,MADYGAN S.A.S.,MADYGAN S.A.S.,4.0,4.0,4000.0,725.0," 6730,000",2012-11-26,2015-12-03,2A,Privado,301.0,50,50568,2016
7HC,,EL CAFUCHE,La Primavera,Vichada,Aeródromo,5.3152,-70.0184,ANDRES CARVAJAL MOLINA,ANDRES CARVAJAL MOLINA,917.0,17.0,4000.0,384.0," 3826,000",2013-07-30,2016-08-01,1A,Aerocivil,1.0,99,99524,2014
7HC,,EL CAFUCHE,La Primavera,Vichada,Aeródromo,5.3152,-70.0184,ANDRES CARVAJAL MOLINA,ANDRES CARVAJAL MOLINA,1632.0,10.0,4000.0,384.0," 3826,000",2013-07-30,2016-08-01,1A,Fumigación,1.0,99,99524,2015
7HC,,EL CAFUCHE,La Primavera,Vichada,Aeródromo,5.3152,-70.0184,ANDRES CARVAJAL MOLINA,ANDRES CARVAJAL MOLINA,2098.0,8.0,4000.0,384.0," 3826,000",2013-07-30,2016-08-01,1A,Fumigación,2.0,99,99524,2016
7HD,,BOSQUES DE LA PRIMAVERA,La Primavera,Vichada,Aeródromo,5.3489,-69.7467,MARIA A. RIVERA AGUDELO,MARIA A. RIVERA AGUDELO,1305.0,24.0,3000.0,396.0," 1444,000",2015-06-17,,1A,Público,0.0,99,99524,2015
7HD,,BOSQUES DE LA PRIMAVERA,La Primavera,Vichada,Aeródromo,5.3489,-69.7467,MARIA A. RIVERA AGUDELO,MARIA A. RIVERA AGUDELO,1426.0,44.0,3000.0,396.0," 1444,000",2015-06-17,,1A,Fumigación,0.0,99,99524,2016
7HE,,GUACHARACAS (COLOMBAIMA),Beltrán,Cundinamarca,Aeródromo,4.7371,-74.8021,EMPRESA GUACHARACAS,CCA. LTDA,28.0,10.0,3000.0,797.0," 5920,000",2012-10-19,,1A,Aerocivil,0.0,25,25086,2014
7HE,,GUACHARACAS (COLOMBAIMA),Beltrán,Cundinamarca,Aeródromo,4.7371,-74.8021,EMPRESA GUACHARACAS,CCA. LTDA,27.0,0.0,3000.0,797.0," 5920,000",2012-10-19,,1A,Aerocivil,0.0,25,25086,2015
7HE,,GUACHARACAS (COLOMBAIMA),Beltrán,Cundinamarca,Aeródromo,4.7371,-74.8021,EMPRESA GUACHARACAS,CCA. LTDA,3.0,0.0,3000.0,797.0," 5920,000",2012-10-19,,1A,Aerocivil,0.0,25,25086,2016
7HF,,GAVILAN DE LA PASCUA,La Primavera,Vichada,Aeródromo,5.1166,-70.3806,RESGUARDO INDIGENA ORIPGA,RES. INDIGENA ORIPGA,312.0,25.0,3500.0,419.0," 7257,000",2012-12-20,,1A,Aerocivil,45.0,99,99524,2014
7HF,,GAVILAN DE LA PASCUA,La Primavera,Vichada,Aeródromo,5.1166,-70.3806,RESGUARDO INDIGENA ORIPGA,RES. INDIGENA ORIPGA,16.0,35.0,3500.0,419.0," 7257,000",2012-12-20,,1A,Aerocivil,45.0,99,99524,2015
7HF,,GAVILAN DE LA PASCUA,La Primavera,Vichada,Aeródromo,5.1166,-70.3806,RESGUARDO INDIGENA ORIPGA,RES. INDIGENA ORIPGA,10.0,44.0,3500.0,419.0," 7257,000",2012-12-20,,1A,Aerocivil,28.0,99,99524,2016
7HG,,DOROTEA B1,Paz de Ariporo,Casanare,Aeródromo,5.5122,-71.0248,NEW GRANADA ENERGY,NEW GRANADA ENERGY,85.0,3.0,,404.0," 2362,000",2013-05-27,,2A,Fumigación,428.0,85,85250,2014
7HG,,DOROTEA B1,Paz de Ariporo,Casanare,Aeródromo,5.5122,-71.0248,NEW GRANADA ENERGY,NEW GRANADA ENERGY,11.0,2.0,,404.0," 2362,000",2013-05-27,,2A,Público,239.0,85,85250,2015
7HG,,DOROTEA B1,Paz de Ariporo,Casanare,Aeródromo,5.5122,-71.0248,NEW GRANADA ENERGY,NEW GRANADA ENERGY,1.0,1.0,,404.0," 2362,000",2013-05-27,,2A,Público,61.0,85,85250,2016
7HH,,HORIZONTES,Piedecuesta,Santander,Aeródromo,7.0017,-73.1037,DESARROLLOS METROPOLITANOS,DESARROLLOS METROPOLITANOS,810.0,5.0,3500.0,4195.0," 5186,000",2013-09-24,,1A,Privado,0.0,68,68547,2014
7HH,,HORIZONTES,Piedecuesta,Santander,Aeródromo,7.0017,-73.1037,DESARROLLOS METROPOLITANOS,DESARROLLOS METROPOLITANOS,949.0,1.0,3500.0,4195.0," 5186,000",2013-09-24,,1A,Privado,0.0,68,68547,2015
7HH,,HORIZONTES,Piedecuesta,Santander,Aeródromo,7.0017,-73.1037,DESARROLLOS METROPOLITANOS,DESARROLLOS METROPOLITANOS,1439.0,0.0,3500.0,4195.0," 5186,000",2013-09-24,,1A,Público,0.0,68,68547,2016
7HJ,,MACOLLA,Maní,Casanare,Aeródromo,4.7713,-72.0714,GRAMERCY S.A.S.,AGROPECUARIA CACOLLA S.A.S.,694.0,13.0,5000.0,548.0," 2134,000",2013-05-16,,1A,Fumigación,6.0,85,85139,2014
7HJ,,MACOLLA,Maní,Casanare,Aeródromo,4.7713,-72.0714,GRAMERCY S.A.S.,AGROPECUARIA CACOLLA S.A.S.,386.0,0.0,5000.0,548.0," 2134,000",2013-05-16,,1A,Aerocivil,2.0,85,85139,2015
7HJ,,MACOLLA,Maní,Casanare,Aeródromo,4.7713,-72.0714,GRAMERCY S.A.S.,AGROPECUARIA CACOLLA S.A.S.,211.0,0.0,5000.0,548.0," 2134,000",2013-05-16,,1A,Fumigación,1.0,85,85139,2016
7HK,,MULETOS- CA,Maní,Casanare,Aeródromo,4.5549,-72.1753,MULETOS S.A.S.,MULETOS S.A.S.,589.0,3.0,500.0,790.0," 2142,000",2013-05-16,,UL,Aerocivil,0.0,85,85139,2014
7HK,,MULETOS- CA,Maní,Casanare,Aeródromo,4.5549,-72.1753,MULETOS S.A.S.,MULETOS S.A.S.,822.0,2.0,500.0,790.0," 2142,000",2013-05-16,,UL,Privado,0.0,85,85139,2015
7HK,,MULETOS- CA,Maní,Casanare,Aeródromo,4.5549,-72.1753,MULETOS S.A.S.,MULETOS S.A.S.,1038.0,0.0,500.0,790.0," 2142,000",2013-05-16,,UL,Aerocivil,0.0,85,85139,2016
7HL,,LA MAPORA,Pore,Casanare,Aeródromo,5.6459,-71.9887,PAULA ANDREA CANO A.,PAULA ANDREA CANO,214.0,13.0,500.0,497.0," 2199,000",2013-05-17,,1A,Privado,0.0,85,85263,2014
7HL,,LA MAPORA,Pore,Casanare,Aeródromo,5.6459,-71.9887,PAULA ANDREA CANO A.,PAULA ANDREA CANO,209.0,18.0,500.0,497.0," 2199,000",2013-05-17,,1A,Público,0.0,85,85263,2015
7HL,,LA MAPORA,Pore,Casanare,Aeródromo,5.6459,-71.9887,PAULA ANDREA CANO A.,PAULA ANDREA CANO,71.0,19.0,500.0,497.0," 2199,000",2013-05-17,,1A,Aerocivil,0.0,85,85263,2016
7HM,,LLANO CAUCHO,Cumaribo,Vichada,Aeródromo,4.4355,-70.6954,AGROINDUSTRIALES DEL ORIENTE,AGROINVERSIONES DEL ORIENTE S.A.S,299.0,12.0,12000.0,434.0," 5189,000",2013-09-24,,1A,Público,15.0,99,99773,2014
7HM,,LLANO CAUCHO,Cumaribo,Vichada,Aeródromo,4.4355,-70.6954,AGROINDUSTRIALES DEL ORIENTE,AGROINVERSIONES DEL ORIENTE S.A.S,176.0,11.0,12000.0,434.0," 5189,000",2013-09-24,,1A,Aerocivil,25.0,99,99773,2015
7HM,,LLANO CAUCHO,Cumaribo,Vichada,Aeródromo,4.4355,-70.6954,AGROINDUSTRIALES DEL ORIENTE,AGROINVERSIONES DEL ORIENTE S.A.S,96.0,1.0,12000.0,434.0," 5189,000",2013-09-24,,1A,Privado,50.0,99,99773,2016
7HN,,ARMENIA,Paz de Ariporo,Casanare,Aeródromo,5.787,-70.1835,LUIS JOSE CALA LOPEZ,LUIS JOSE CALA LOPEZ,736.0,0.0,3000.0,380.0," 4734,000",2013-09-06,,1A,Aerocivil,0.0,85,85250,2014
7HN,,ARMENIA,Paz de Ariporo,Casanare,Aeródromo,5.787,-70.1835,LUIS JOSE CALA LOPEZ,LUIS JOSE CALA LOPEZ,361.0,0.0,3000.0,380.0," 4734,000",2013-09-06,,1A,Privado,0.0,85,85250,2015
7HN,,ARMENIA,Paz de Ariporo,Casanare,Aeródromo,5.787,-70.1835,LUIS JOSE CALA LOPEZ,LUIS JOSE CALA LOPEZ,125.0,0.0,3000.0,380.0," 4734,000",2013-09-06,,1A,Privado,0.0,85,85250,2016
7HO,,EDGAR CALDAS POTES-CA,Calima,Valle del Cauca,Aeródromo,3.9159,-76.4813,ALEJANDRO A. CALDAS V.,ALEJANDRO A. CALDAS V.,511.0,10.0,400.0,1462.0," 1311,000",2014-03-13,,1A,Aerocivil,0.0,76,76126,2014
7HO,,EDGAR CALDAS POTES-CA,Calima,Valle del Cauca,Aeródromo,3.9159,-76.4813,ALEJANDRO A. CALDAS V.,ALEJANDRO A. CALDAS V.,861.0,14.0,400.0,1462.0," 1311,000",2014-03-13,,1A,Fumigación,0.0,76,76126,2015
7HO,,EDGAR CALDAS POTES-CA,Calima,Valle del Cauca,Aeródromo,3.9159,-76.4813,ALEJANDRO A. CALDAS V.,ALEJANDRO A. CALDAS V.,1645.0,20.0,400.0,1462.0," 1311,000",2014-03-13,,1A,Privado,0.0,76,76126,2016
7HQ,,GENERAL ADELMO RUIZ M.,Ricaurte,Cundinamarca,Aeródromo,4.35,-74.7511,EDUARDO A. VIVEROS,ACAF,200.0,30.0,500.0,987.0,"   46,000",2014-01-08,,1A,Privado,0.0,25,25612,2014
7HQ,,GENERAL ADELMO RUIZ M.,Ricaurte,Cundinamarca,Aeródromo,4.35,-74.7511,EDUARDO A. VIVEROS,ACAF,124.0,53.0,500.0,987.0,"   46,000",2014-01-08,,1A,Fumigación,0.0,25,25612,2015
7HQ,,GENERAL ADELMO RUIZ M.,Ricaurte,Cundinamarca,Aeródromo,4.35,-74.7511,EDUARDO A. VIVEROS,ACAF,69.0,71.0,500.0,987.0,"   46,000",2014-01-08,,1A,Aerocivil,0.0,25,25612,2016
7HR,,RANCHO COLIBRI - CA,Roldanillo,Valle del Cauca,Aeródromo,4.4586,-76.1258,HENRY D. F. ORTIZ SILVA,HENRY D. F. ORTIZ SILVA,46.0,0.0,500.0,3083.0," 7091,000",2013-12-19,2017-01-09,1A,Público,0.0,76,76622,2014
7HR,,RANCHO COLIBRI - CA,Roldanillo,Valle del Cauca,Aeródromo,4.4586,-76.1258,HENRY D. F. ORTIZ SILVA,HENRY D. F. ORTIZ SILVA,27.0,0.0,500.0,3083.0," 7091,000",2013-12-19,2017-01-09,1A,Aerocivil,0.0,76,76622,2015
7HR,,RANCHO COLIBRI - CA,Roldanillo,Valle del Cauca,Aeródromo,4.4586,-76.1258,HENRY D. F. ORTIZ SILVA,HENRY D. F. ORTIZ SILVA,7.0,0.0,500.0,3083.0," 7091,000",2013-12-19,2017-01-09,1A,Fumigación,0.0,76,76622,2016
7HS,,CASTILLO - CA,Manatí,Atlántico,Aeródromo,10.4089,-74.9963,DIANA MARIA SOLANO D.,DIANA MARIA SOLANO D.,46.0,20.0,500.0,20.0,"  706,000",2014-02-12,,1A,Público,0.0,8,8436,2014
7HS,,CASTILLO - CA,Manatí,Atlántico,Aeródromo,10.4089,-74.9963,DIANA MARIA SOLANO D.,DIANA MARIA SOLANO D.,15.0,28.0,500.0,20.0,"  706,000",2014-02-12,,1A,Privado,0.0,8,8436,2015
7HS,,CASTILLO - CA,Manatí,Atlántico,Aeródromo,10.4089,-74.9963,DIANA MARIA SOLANO D.,DIANA MARIA SOLANO D.,5.0,41.0,500.0,20.0,"  706,000",2014-02-12,,1A,Fumigación,0.0,8,8436,2016
7HT,,MANARE,Paz de Ariporo,Casanare,Aeródromo,5.9761,-70.1575,HERNAN GOMEZ NIÑO,HERNAN GOMEZ NIÑO,906.0,36.0,4000.0,334.0," 1577,000",2014-03-26,,1A,Público,19.0,85,85250,2014
7HT,,MANARE,Paz de Ariporo,Casanare,Aeródromo,5.9761,-70.1575,HERNAN GOMEZ NIÑO,HERNAN GOMEZ NIÑO,302.0,65.0,4000.0,334.0," 1577,000",2014-03-26,,1A,Privado,19.0,85,85250,2015
7HT,,MANARE,Paz de Ariporo,Casanare,Aeródromo,5.9761,-70.1575,HERNAN GOMEZ NIÑO,HERNAN GOMEZ NIÑO,61.0,69.0,4000.0,334.0," 1577,000",2014-03-26,,1A,Público,19.0,85,85250,2016
7HU,,GUANAGUANARE,La Primavera,Vichada,Aeródromo,5.4739,-69.9014,INVERSIONES GUANAGUANARE,INV. GUANAGUANARE,625.0,10.0,5000.0,400.0," 2132,000",2014-04-25,,1A,Público,0.0,99,99524,2014
7HU,,GUANAGUANARE,La Primavera,Vichada,Aeródromo,5.4739,-69.9014,INVERSIONES GUANAGUANARE,INV. GUANAGUANARE,504.0,10.0,5000.0,400.0," 2132,000",2014-04-25,,1A,Aerocivil,0.0,99,99524,2015
7HU,,GUANAGUANARE,La Primavera,Vichada,Aeródromo,5.4739,-69.9014,INVERSIONES GUANAGUANARE,INV. GUANAGUANARE,325.0,17.0,5000.0,400.0," 2132,000",2014-04-25,,1A,Público,0.0,99,99524,2016
7HV,,LA BENDICION,La Primavera,Vichada,Aeródromo,6.0627,-69.1783,SERGIO ANDRES ESPINOSA F.,SERGIO A. ESPINOSA FLOREZ,2071.0,26.0,5000.0,360.0," 2498,000",2014-05-12,,1A,Privado,47.0,99,99524,2014
7HV,,LA BENDICION,La Primavera,Vichada,Aeródromo,6.0627,-69.1783,SERGIO ANDRES ESPINOSA F.,SERGIO A. ESPINOSA FLOREZ,3312.0,41.0,5000.0,360.0," 2498,000",2014-05-12,,1A,Fumigación,47.0,99,99524,2015
7HV,,LA BENDICION,La Primavera,Vichada,Aeródromo,6.0627,-69.1783,SERGIO ANDRES ESPINOSA F.,SERGIO A. ESPINOSA FLOREZ,5059.0,46.0,5000.0,360.0," 2498,000",2014-05-12,,1A,Privado,47.0,99,99524,2016
7HW,,CABARALEZ,Puerto Wilches,Santander,Aeródromo,7.3283,-73.7965,RICARDO FIGUEREDO M.,RICARDO FOGUEREDO M.,711.0,1.0,3500.0,324.0," 3060,000",2014-06-10,,1A,Público,0.0,68,68575,2014
7HW,,CABARALEZ,Puerto Wilches,Santander,Aeródromo,7.3283,-73.7965,RICARDO FIGUEREDO M.,RICARDO FOGUEREDO M.,811.0,0.0,3500.0,324.0," 3060,000",2014-06-10,,1A,Privado,0.0,68,68575,2015
7HW,,CABARALEZ,Puerto Wilches,Santander,Aeródromo,7.3283,-73.7965,RICARDO FIGUEREDO M.,RICARDO FOGUEREDO M.,1002.0,0.0,3500.0,324.0," 3060,000",2014-06-10,,1A,Aerocivil,0.0,68,68575,2016
7HX,,PIVIJAY,La Primavera,Vichada,Aeródromo,5.1288,-69.9716,FERNANDO CUSTAS PATACON,FERNANDO CUSTAS P.,19.0,7.0,3500.0,426.0," 3063,000",2014-06-10,,1A,Público,8.0,99,99524,2014
7HX,,PIVIJAY,La Primavera,Vichada,Aeródromo,5.1288,-69.9716,FERNANDO CUSTAS PATACON,FERNANDO CUSTAS P.,16.0,3.0,3500.0,426.0," 3063,000",2014-06-10,,1A,Público,8.0,99,99524,2015
7HX,,PIVIJAY,La Primavera,Vichada,Aeródromo,5.1288,-69.9716,FERNANDO CUSTAS PATACON,FERNANDO CUSTAS P.,8.0,0.0,3500.0,426.0," 3063,000",2014-06-10,,1A,Privado,8.0,99,99524,2016
7HY,,HOTEL DEL CAMPO - CA,Quimbaya,Quindío,Aeródromo,4.6123,-75.8132,JUAN B. URIBE S.,LUIS BERRENECHE RIVERA,168.0,6.0,500.0,3828.0," 2492,000",2014-05-12,2017-07-09,1A,Público,0.0,63,63594,2014
7HY,,HOTEL DEL CAMPO - CA,Quimbaya,Quindío,Aeródromo,4.6123,-75.8132,JUAN B. URIBE S.,LUIS BERRENECHE RIVERA,119.0,6.0,500.0,3828.0," 2492,000",2014-05-12,2017-07-09,1A,Fumigación,0.0,63,63594,2015
7HY,,HOTEL DEL CAMPO - CA,Quimbaya,Quindío,Aeródromo,4.6123,-75.8132,JUAN B. URIBE S.,LUIS BERRENECHE RIVERA,60.0,5.0,500.0,3828.0," 2492,000",2014-05-12,2017-07-09,1A,Fumigación,0.0,63,63594,2016
7HZ,,MAXIMENA,Maní,Casanare,Aeródromo,4.4723,-72.1094,PALMERAS MAXIMENA S.A.S,PALMERAS MAXIMENA,1696.0,11.0,5000.0,426.0," 4213,000",2014-08-06,,1A,Aerocivil,0.0,85,85139,2014
7HZ,,MAXIMENA,Maní,Casanare,Aeródromo,4.4723,-72.1094,PALMERAS MAXIMENA S.A.S,PALMERAS MAXIMENA,2193.0,1.0,5000.0,426.0," 4213,000",2014-08-06,,1A,Aerocivil,0.0,85,85139,2015
7HZ,,MAXIMENA,Maní,Casanare,Aeródromo,4.4723,-72.1094,PALMERAS MAXIMENA S.A.S,PALMERAS MAXIMENA,2753.0,1.0,5000.0,426.0," 4213,000",2014-08-06,,1A,Fumigación,0.0,85,85139,2016
7IA,,MURIBA,Maní,Casanare,Aeródromo,4.5809,-72.2551,VITIS OLEI S.A.S.,VITIS OLEI S.A.S.,726.0,30.0,5000.0,432.0," 4214,000",2014-08-06,,1A,Fumigación,0.0,85,85139,2014
7IA,,MURIBA,Maní,Casanare,Aeródromo,4.5809,-72.2551,VITIS OLEI S.A.S.,VITIS OLEI S.A.S.,704.0,51.0,5000.0,432.0," 4214,000",2014-08-06,,1A,Aerocivil,0.0,85,85139,2015
7IA,,MURIBA,Maní,Casanare,Aeródromo,4.5809,-72.2551,VITIS OLEI S.A.S.,VITIS OLEI S.A.S.,65.0,102.0,5000.0,432.0," 4214,000",2014-08-06,,1A,Privado,0.0,85,85139,2016
7IB,,MAJAGUILLO,Orocué,Casanare,Aeródromo,4.832,-71.6902,FELIPE GOMEZ H. y CIA.,FELIPE GOMEZ H. y CIA.,804.0,18.0,4800.0,499.0," 5386,000",2014-10-28,2017-11-05,1A,Aerocivil,0.0,85,85230,2014
7IB,,MAJAGUILLO,Orocué,Casanare,Aeródromo,4.832,-71.6902,FELIPE GOMEZ H. y CIA.,FELIPE GOMEZ H. y CIA.,593.0,11.0,4800.0,499.0," 5386,000",2014-10-28,2017-11-05,1A,Aerocivil,0.0,85,85230,2015
7IB,,MAJAGUILLO,Orocué,Casanare,Aeródromo,4.832,-71.6902,FELIPE GOMEZ H. y CIA.,FELIPE GOMEZ H. y CIA.,31.0,0.0,4800.0,499.0," 5386,000",2014-10-28,2017-11-05,1A,Público,0.0,85,85230,2016
7IC,,VOLAR COLOMBIA,La Pintada,Antioquia,Aeródromo,5.7735,-75.603,CRISTIAN CAMILO MONCADA A.,CRISTIAN C. MONCADA A.,32.0,4.0,500.0,2559.0,"   11,000",2015-01-05,,1A,Público,0.0,5,5390,2015
7IC,,VOLAR COLOMBIA,La Pintada,Antioquia,Aeródromo,5.7735,-75.603,CRISTIAN CAMILO MONCADA A.,CRISTIAN C. MONCADA A.,12.0,0.0,500.0,2559.0,"   11,000",2015-01-05,,1A,Público,0.0,5,5390,2016
7ID,,LA MACOYA,Yopal,Casanare,Aeródromo,5.2262,-72.1478,ELSON HERNANDO SIERRA,ELSON H. SIERRA QUICENO,717.0,11.0,3000.0,474.0,"    9,000",2015-01-05,,1A,Privado,0.0,85,85001,2015
7ID,,LA MACOYA,Yopal,Casanare,Aeródromo,5.2262,-72.1478,ELSON HERNANDO SIERRA,ELSON H. SIERRA QUICENO,1137.0,11.0,3000.0,474.0,"    9,000",2015-01-05,,1A,Público,0.0,85,85001,2016
7IE,,LIMA,Fundación,Magdalena,Aeródromo,10.3794,-74.1114,JORGE SOLANO RECIO,JORGE SOLANO RECIO,20.0,29.0,3500.0,395.0,"   10,000",2015-01-05,,1A,Aerocivil,0.0,47,47288,2015
7IE,,LIMA,Fundación,Magdalena,Aeródromo,10.3794,-74.1114,JORGE SOLANO RECIO,JORGE SOLANO RECIO,13.0,49.0,3500.0,395.0,"   10,000",2015-01-05,,1A,Público,0.0,47,47288,2016
7IF,,LOS VENADOS,La Primavera,Vichada,Aeródromo,5.0666,-69.9988,GUILLERMO FRANCO RESTREPO,GUILLERMO FRANCO R.,764.0,10.0,6500.0,475.0,"  515,000",2015-03-10,,2A,Público,0.0,99,99524,2015
7IF,,LOS VENADOS,La Primavera,Vichada,Aeródromo,5.0666,-69.9988,GUILLERMO FRANCO RESTREPO,GUILLERMO FRANCO R.,61.0,2.0,6500.0,475.0,"  515,000",2015-03-10,,2A,Privado,0.0,99,99524,2016
7IG,,LA FORTUNA 1,San Martín,Meta,Aeródromo,3.611,-72.3412,LUIS C. CASTRO M.,RAFAEL FDO. GAVIRIA A.,1289.0,31.0,4000.0,482.0,"  640,000",2015-03-20,,1A,Fumigación,0.0,50,50689,2015
7IG,,LA FORTUNA 1,San Martín,Meta,Aeródromo,3.611,-72.3412,LUIS C. CASTRO M.,RAFAEL FDO. GAVIRIA A.,1659.0,35.0,4000.0,482.0,"  640,000",2015-03-20,,1A,Fumigación,0.0,50,50689,2016
7IH,,LOS KIOSCOS,Puerto Gaitán,Meta,Aeródromo,3.4747,-72.2349,MARTHA I. PABON PADILLA,MARTHA I. PABON PADILLA,1361.0,21.0,5000.0,770.0,"  690,000",2015-03-31,,1A,Aerocivil,0.0,50,50568,2015
7IH,,LOS KIOSCOS,Puerto Gaitán,Meta,Aeródromo,3.4747,-72.2349,MARTHA I. PABON PADILLA,MARTHA I. PABON PADILLA,2028.0,25.0,5000.0,770.0,"  690,000",2015-03-31,,1A,Público,0.0,50,50568,2016
7II,ECO,EL ENCANTO,El Encanto,Amazonas,Aeródromo,-1.7525,-73.2058,GOBERNACION,GOBERNACION,54.0,34.0,5000.0,406.0,"  830,000",2015-04-15,,1A,Privado,0.0,91,91263,2015
7II,ECO,EL ENCANTO,El Encanto,Amazonas,Aeródromo,-1.7525,-73.2058,GOBERNACION,GOBERNACION,49.0,61.0,5000.0,406.0,"  830,000",2015-04-15,,1A,Público,0.0,91,91263,2016
7IJ,,LA LORENA,Paz de Ariporo,Casanare,Aeródromo,5.6092,-70.421,BUSHIRO TAKEMOTO,BUSHIRO TAKEMOTO,1264.0,1.0,3000.0,347.0," 1443,000",2015-06-17,,1A,Privado,0.0,85,85250,2015
7IJ,,LA LORENA,Paz de Ariporo,Casanare,Aeródromo,5.6092,-70.421,BUSHIRO TAKEMOTO,BUSHIRO TAKEMOTO,1899.0,0.0,3000.0,347.0," 1443,000",2015-06-17,,1A,Aerocivil,0.0,85,85250,2016
7NP,,EL CAIRANO,Santa Catalina,Bolívar,Aeródromo,10.7124,-75.2649,CARLOS E. GUERRERO,ENRIQUE MORALES NUÑEZ,0.0,20.0,400.0,30.0,"  998,000",2012-03-01,,UL,Privado,0.0,13,13673,2014
7NP,,EL CAIRANO,Santa Catalina,Bolívar,Aeródromo,10.7124,-75.2649,CARLOS E. GUERRERO,ENRIQUE MORALES NUÑEZ,0.0,36.0,400.0,30.0,"  998,000",2012-03-01,,UL,Aerocivil,0.0,13,13673,2015
7NP,,EL CAIRANO,Santa Catalina,Bolívar,Aeródromo,10.7124,-75.2649,CARLOS E. GUERRERO,ENRIQUE MORALES NUÑEZ,0.0,44.0,400.0,30.0,"  998,000",2012-03-01,,UL,Privado,0.0,13,13673,2016
7NQ,,EL PARAISO,La Primavera,Vichada,Aeródromo,5.1826,-69.6303,RUBEN D. VELASQUEZ,RUBEN D. VELASQUEZ,291.0,26.0,3000.0,387.0," 5533,000",2014-11-11,2017-12-02,1A,Fumigación,2.0,99,99524,2014
7NQ,,EL PARAISO,La Primavera,Vichada,Aeródromo,5.1826,-69.6303,RUBEN D. VELASQUEZ,RUBEN D. VELASQUEZ,11.0,43.0,3000.0,387.0," 5533,000",2014-11-11,2017-12-02,1A,Fumigación,2.0,99,99524,2015
7NQ,,EL PARAISO,La Primavera,Vichada,Aeródromo,5.1826,-69.6303,RUBEN D. VELASQUEZ,RUBEN D. VELASQUEZ,6.0,58.0,3000.0,387.0," 5533,000",2014-11-11,2017-12-02,1A,Fumigación,2.0,99,99524,2016
7NR,,NUEVA ROMA,Plato,Magdalena,Aeródromo,9.968,-74.3303,JORGE SOLANO RECIO,JORGE SOLANO RECIO,608.0,14.0,3000.0,462.0," 4503,000",2012-08-16,,1A,Fumigación,2.0,47,47555,2014
7NR,,NUEVA ROMA,Plato,Magdalena,Aeródromo,9.968,-74.3303,JORGE SOLANO RECIO,JORGE SOLANO RECIO,620.0,20.0,3000.0,462.0," 4503,000",2012-08-16,,1A,Aerocivil,4.0,47,47555,2015
7NR,,NUEVA ROMA,Plato,Magdalena,Aeródromo,9.968,-74.3303,JORGE SOLANO RECIO,JORGE SOLANO RECIO,711.0,20.0,3000.0,462.0," 4503,000",2012-08-16,,1A,Privado,8.0,47,47555,2016
7NS,,JAGUAR,Puerto Gaitán,Meta,Aeródromo,4.2161,-72.0275,CEPCOLSA,CEPCOLSA,1071.0,38.0,,650.0," 4940,000",2012-09-06,2015-10-10,2B,Público,1558.0,50,50568,2014
7NS,,JAGUAR,Puerto Gaitán,Meta,Aeródromo,4.2161,-72.0275,CEPCOLSA,CEPCOLSA,923.0,50.0,,650.0," 4940,000",2012-09-06,2015-10-10,2B,Aerocivil,2589.0,50,50568,2015
7NS,,JAGUAR,Puerto Gaitán,Meta,Aeródromo,4.2161,-72.0275,CEPCOLSA,CEPCOLSA,829.0,97.0,,650.0," 4940,000",2012-09-06,2015-10-10,2B,Privado,4383.0,50,50568,2016
7NT,,OCELOTE,Puerto Gaitán,Meta,Aeródromo,4.2751,-71.6123,HOCOL S.A.,HOCOL S.A.,2003.0,29.0,,690.0," 5922,000",2012-10-19,,2B,Público,223.0,50,50568,2014
7NT,,OCELOTE,Puerto Gaitán,Meta,Aeródromo,4.2751,-71.6123,HOCOL S.A.,HOCOL S.A.,2797.0,30.0,,690.0," 5922,000",2012-10-19,,2B,Fumigación,185.0,50,50568,2015
7NT,,OCELOTE,Puerto Gaitán,Meta,Aeródromo,4.2751,-71.6123,HOCOL S.A.,HOCOL S.A.,3204.0,56.0,,690.0," 5922,000",2012-10-19,,2B,Privado,66.0,50,50568,2016
9AA,,BONAIRE  - CA,Ayapel,Córdoba,Aeródromo,8.2851,-75.0505,INDUSTRIAS DIPSA S.A.S.,INDUSTRIAS DIPSA S.A.S.,505.0,17.0,500.0,100.0,"    8,000",2015-01-05,,UL,Fumigación,0.0,23,23068,2015
9AA,,BONAIRE  - CA,Ayapel,Córdoba,Aeródromo,8.2851,-75.0505,INDUSTRIAS DIPSA S.A.S.,INDUSTRIAS DIPSA S.A.S.,538.0,24.0,500.0,100.0,"    8,000",2015-01-05,,UL,Privado,0.0,23,23068,2016
9AB,,GETSEMANI,Hato Corozal,Casanare,Aeródromo,6.1506,-70.0294,MUNICIPIO,MUNICIPIO,344.0,6.0,2000.0,304.0," 2220,000",2004-06-10,,1A,Fumigación,130.0,85,85125,2014
9AB,,GETSEMANI,Hato Corozal,Casanare,Aeródromo,6.1506,-70.0294,MUNICIPIO,MUNICIPIO,102.0,3.0,2000.0,304.0," 2220,000",2004-06-10,,1A,Aerocivil,237.0,85,85125,2015
9AB,,GETSEMANI,Hato Corozal,Casanare,Aeródromo,6.1506,-70.0294,MUNICIPIO,MUNICIPIO,63.0,1.0,2000.0,304.0," 2220,000",2004-06-10,,1A,Fumigación,368.0,85,85125,2016
9AC,,MARIA ALEJANDRA,Nunchía,Casanare,Aeródromo,5.0054,-72.3959,CIRO GUILLERMO VEGA N.,SAMBA LTDA.,954.0,6.0,2000.0,734.0," 2493,000",2014-05-12,,1A,Privado,3.0,85,85225,2014
9AC,,MARIA ALEJANDRA,Nunchía,Casanare,Aeródromo,5.0054,-72.3959,CIRO GUILLERMO VEGA N.,SAMBA LTDA.,1459.0,6.0,2000.0,734.0," 2493,000",2014-05-12,,1A,Fumigación,3.0,85,85225,2015
9AC,,MARIA ALEJANDRA,Nunchía,Casanare,Aeródromo,5.0054,-72.3959,CIRO GUILLERMO VEGA N.,SAMBA LTDA.,2175.0,5.0,2000.0,734.0," 2493,000",2014-05-12,,1A,Aerocivil,3.0,85,85225,2016
9AD,,URACA - CA.,Puerto Colombia,Atlántico,Aeródromo,11.0062,-74.9224,NORA CARVAJALINO,ALAS DEL CARIBE,322.0,10.0,800.0,204.0," 5624,000",2013-10-11,2016-11-12,UL,Aerocivil,0.0,8,8573,2014
9AD,,URACA - CA.,Puerto Colombia,Atlántico,Aeródromo,11.0062,-74.9224,NORA CARVAJALINO,ALAS DEL CARIBE,398.0,16.0,800.0,204.0," 5624,000",2013-10-11,2016-11-12,UL,Privado,0.0,8,8573,2015
9AD,,URACA - CA.,Puerto Colombia,Atlántico,Aeródromo,11.0062,-74.9224,NORA CARVAJALINO,ALAS DEL CARIBE,542.0,19.0,800.0,204.0," 5624,000",2013-10-11,2016-11-12,UL,Fumigación,0.0,8,8573,2016
9AH,,SAN ROQUE  - CA.,San Pedro,Valle del Cauca,Aeródromo,4.0039,-76.2209,IRMA HERNANDEZ DE M.,JAKOB OLIVIER,416.0,5.0,400.0,3366.0," 5622,000",2013-10-11,,UL,Privado,0.0,76,76670,2014
9AH,,SAN ROQUE  - CA.,San Pedro,Valle del Cauca,Aeródromo,4.0039,-76.2209,IRMA HERNANDEZ DE M.,JAKOB OLIVIER,693.0,3.0,400.0,3366.0," 5622,000",2013-10-11,,UL,Privado,0.0,76,76670,2015
9AH,,SAN ROQUE  - CA.,San Pedro,Valle del Cauca,Aeródromo,4.0039,-76.2209,IRMA HERNANDEZ DE M.,JAKOB OLIVIER,862.0,1.0,400.0,3366.0," 5622,000",2013-10-11,,UL,Aerocivil,0.0,76,76670,2016
9AI,,CAÑO GARZA,Paz de Ariporo,Casanare,Aeródromo,5.5917,-71.5894,PERENCO COLOMBIA LIMITED,PERENCO COLOMBIA LIMITED,508.0,27.0,12202.0,530.0,"  933,000",2015-04-24,,1A,Público,4578.0,85,85250,2015
9AI,,CAÑO GARZA,Paz de Ariporo,Casanare,Aeródromo,5.5917,-71.5894,PERENCO COLOMBIA LIMITED,PERENCO COLOMBIA LIMITED,0.0,32.0,12202.0,530.0,"  933,000",2015-04-24,,1A,Público,4578.0,85,85250,2016
9AJ,,SAN LUIS DE PACA,Mitú,Vaupés,Aeródromo,0.8744,-70.3464,RESGUARDO INDIGENA,GOBERNACION DEL VAUPES,706.0,13.0,1650.0,590.0," 3423,000",1997-09-16,,1A,Público,36.0,97,97001,2014
9AJ,,SAN LUIS DE PACA,Mitú,Vaupés,Aeródromo,0.8744,-70.3464,RESGUARDO INDIGENA,GOBERNACION DEL VAUPES,1392.0,19.0,1650.0,590.0," 3423,000",1997-09-16,,1A,Aerocivil,13.0,97,97001,2015
9AJ,,SAN LUIS DE PACA,Mitú,Vaupés,Aeródromo,0.8744,-70.3464,RESGUARDO INDIGENA,GOBERNACION DEL VAUPES,1855.0,23.0,1650.0,590.0," 3423,000",1997-09-16,,1A,Privado,10.0,97,97001,2016
9AK,,CANANARI,Mitú,Vaupés,Aeródromo,0.545,-70.9286,RESGUARDO INDIGENA,GOBERNACION DEL VAUPES,544.0,14.0,1650.0,780.0," 3423,000",1997-09-16,,1A,Fumigación,37.0,97,97001,2014
9AK,,CANANARI,Mitú,Vaupés,Aeródromo,0.545,-70.9286,RESGUARDO INDIGENA,GOBERNACION DEL VAUPES,669.0,5.0,1650.0,780.0," 3423,000",1997-09-16,,1A,Aerocivil,13.0,97,97001,2015
9AK,,CANANARI,Mitú,Vaupés,Aeródromo,0.545,-70.9286,RESGUARDO INDIGENA,GOBERNACION DEL VAUPES,798.0,5.0,1650.0,780.0," 3423,000",1997-09-16,,1A,Aerocivil,10.0,97,97001,2016
9AN,,MARAREY,Orocué,Casanare,Aeródromo,4.8281,-71.0808,JULIAN VALENCIA I. Y OTROS,JULIAN VALENCIA I. Y OTROS,98.0,2.0,4800.0,498.0," 2001,000",2013-05-08,2016-05-09,1A,Fumigación,425.0,85,85230,2014
9AN,,MARAREY,Orocué,Casanare,Aeródromo,4.8281,-71.0808,JULIAN VALENCIA I. Y OTROS,JULIAN VALENCIA I. Y OTROS,0.0,1.0,4800.0,498.0," 2001,000",2013-05-08,2016-05-09,1A,Público,722.0,85,85230,2015
9AN,,MARAREY,Orocué,Casanare,Aeródromo,4.8281,-71.0808,JULIAN VALENCIA I. Y OTROS,JULIAN VALENCIA I. Y OTROS,0.0,0.0,4800.0,498.0," 2001,000",2013-05-08,2016-05-09,1A,Público,947.0,85,85230,2016
9AO,,SANTA CLARA,Sabanalarga,Casanare,Aeródromo,4.4172,-72.7744,ARMANDO SANCHEZ M.,TAES LTDA.,699.0,9.0,2500.0,610.0," 2137,000",2013-05-16,,1A,Fumigación,46.0,85,85300,2014
9AO,,SANTA CLARA,Sabanalarga,Casanare,Aeródromo,4.4172,-72.7744,ARMANDO SANCHEZ M.,TAES LTDA.,669.0,7.0,2500.0,610.0," 2137,000",2013-05-16,,1A,Aerocivil,51.0,85,85300,2015
9AO,,SANTA CLARA,Sabanalarga,Casanare,Aeródromo,4.4172,-72.7744,ARMANDO SANCHEZ M.,TAES LTDA.,345.0,7.0,2500.0,610.0," 2137,000",2013-05-16,,1A,Fumigación,76.0,85,85300,2016
9AR,,SAN PABLO,Mitú,Vaupés,Aeródromo,-0.7831,-70.3228,RESGUARDO INDIGENA,GOBERNACION DEL VAUPES,336.0,9.0,1650.0,550.0," 3423,000",1997-09-16,,1A,Aerocivil,94.0,97,97001,2014
9AR,,SAN PABLO,Mitú,Vaupés,Aeródromo,-0.7831,-70.3228,RESGUARDO INDIGENA,GOBERNACION DEL VAUPES,273.0,6.0,1650.0,550.0," 3423,000",1997-09-16,,1A,Aerocivil,152.0,97,97001,2015
9AR,,SAN PABLO,Mitú,Vaupés,Aeródromo,-0.7831,-70.3228,RESGUARDO INDIGENA,GOBERNACION DEL VAUPES,248.0,2.0,1650.0,550.0," 3423,000",1997-09-16,,1A,Aerocivil,263.0,97,97001,2016
9AS,,SIRENAS,Trinidad,Casanare,Aeródromo,5.2541,-71.1576,PERENCO COLOMBIA LIMITED,PERENCO COLOMBIA LIMITED,442.0,17.0,5000.0,443.0," 3058,000",2014-06-10,2017-06-11,1A,Público,2498.0,85,85430,2014
9AS,,SIRENAS,Trinidad,Casanare,Aeródromo,5.2541,-71.1576,PERENCO COLOMBIA LIMITED,PERENCO COLOMBIA LIMITED,364.0,10.0,5000.0,443.0," 3058,000",2014-06-10,2017-06-11,1A,Fumigación,2498.0,85,85430,2015
9AS,,SIRENAS,Trinidad,Casanare,Aeródromo,5.2541,-71.1576,PERENCO COLOMBIA LIMITED,PERENCO COLOMBIA LIMITED,166.0,6.0,5000.0,443.0," 3058,000",2014-06-10,2017-06-11,1A,Aerocivil,2498.0,85,85430,2016
9AT,,COROCITO,Puerto López,Meta,Aeródromo,3.9507,-72.2186,AGROINVERSIONES COROCITO,AGROINVERSIONES COROCITO,1026.0,4.0,3000.0,544.0," 1838,000",2013-04-26,,1A,Público,3.0,50,50573,2014
9AT,,COROCITO,Puerto López,Meta,Aeródromo,3.9507,-72.2186,AGROINVERSIONES COROCITO,AGROINVERSIONES COROCITO,1156.0,3.0,3000.0,544.0," 1838,000",2013-04-26,,1A,Fumigación,2.0,50,50573,2015
9AT,,COROCITO,Puerto López,Meta,Aeródromo,3.9507,-72.2186,AGROINVERSIONES COROCITO,AGROINVERSIONES COROCITO,1434.0,2.0,3000.0,544.0," 1838,000",2013-04-26,,1A,Privado,1.0,50,50573,2016
9AU,,LAS FURIAS,Nunchía,Casanare,Aeródromo,5.4039,-72.1228,MAURICIO CALA PEREZ,SFA LTDA.,508.0,3.0,2000.0,688.0," 5611,000",2012-10-04,2015-10-09,1A,Público,0.0,85,85225,2014
9AU,,LAS FURIAS,Nunchía,Casanare,Aeródromo,5.4039,-72.1228,MAURICIO CALA PEREZ,SFA LTDA.,325.0,2.0,2000.0,688.0," 5611,000",2012-10-04,2015-10-09,1A,Aerocivil,0.0,85,85225,2015
9AU,,LAS FURIAS,Nunchía,Casanare,Aeródromo,5.4039,-72.1228,MAURICIO CALA PEREZ,SFA LTDA.,167.0,2.0,2000.0,688.0," 5611,000",2012-10-04,2015-10-09,1A,Fumigación,0.0,85,85225,2016
9AV,,EL NOGAL,Villavicencio,Meta,Aeródromo,3.9883,-73.2994,GLORIA L.TIUSO,AEROTEC LTDA.,822.0,9.0,2000.0,817.0," 4739,000",2012-08-29,,1A,Aerocivil,0.0,50,50001,2014
9AV,,EL NOGAL,Villavicencio,Meta,Aeródromo,3.9883,-73.2994,GLORIA L.TIUSO,AEROTEC LTDA.,1264.0,5.0,2000.0,817.0," 4739,000",2012-08-29,,1A,Fumigación,0.0,50,50001,2015
9AV,,EL NOGAL,Villavicencio,Meta,Aeródromo,3.9883,-73.2994,GLORIA L.TIUSO,AEROTEC LTDA.,2309.0,2.0,2000.0,817.0," 4739,000",2012-08-29,,1A,Aerocivil,0.0,50,50001,2016
9AX,,SANTA CRUZ,Puerto López,Meta,Aeródromo,4.1318,-73.1814,JULIO STRAUCH D.,COMERCIALIZADORA ECO,237.0,5.0,2000.0,659.0," 2685,000",2011-05-25,,1A,Público,0.0,50,50573,2014
9AX,,SANTA CRUZ,Puerto López,Meta,Aeródromo,4.1318,-73.1814,JULIO STRAUCH D.,COMERCIALIZADORA ECO,84.0,4.0,2000.0,659.0," 2685,000",2011-05-25,,1A,Público,0.0,50,50573,2015
9AX,,SANTA CRUZ,Puerto López,Meta,Aeródromo,4.1318,-73.1814,JULIO STRAUCH D.,COMERCIALIZADORA ECO,58.0,4.0,2000.0,659.0," 2685,000",2011-05-25,,1A,Aerocivil,0.0,50,50573,2016
9AZ,,REMACHE SUR,San Luis de Palenque,Casanare,Aeródromo,5.0832,-71.1525,DESIDERIO CHAPARRO,PERENCO COLOMBIA LIMITED,294.0,28.0,5000.0,459.0," 3058,000",2014-06-10,2017-06-11,1A,Aerocivil,3353.0,85,85325,2014
9AZ,,REMACHE SUR,San Luis de Palenque,Casanare,Aeródromo,5.0832,-71.1525,DESIDERIO CHAPARRO,PERENCO COLOMBIA LIMITED,103.0,47.0,5000.0,459.0," 3058,000",2014-06-10,2017-06-11,1A,Fumigación,3353.0,85,85325,2015
9AZ,,REMACHE SUR,San Luis de Palenque,Casanare,Aeródromo,5.0832,-71.1525,DESIDERIO CHAPARRO,PERENCO COLOMBIA LIMITED,72.0,72.0,5000.0,459.0," 3058,000",2014-06-10,2017-06-11,1A,Fumigación,3353.0,85,85325,2016
9BA,,CURUMANI,Curumaní,Cesar,Aeródromo,9.2222,-73.5722,MUNICIPIO,FADELCE,529.0,8.0,2000.0,164.0," 2989,000",2008-07-02,,2A,Público,0.0,20,20228,2014
9BA,,CURUMANI,Curumaní,Cesar,Aeródromo,9.2222,-73.5722,MUNICIPIO,FADELCE,148.0,1.0,2000.0,164.0," 2989,000",2008-07-02,,2A,Privado,0.0,20,20228,2015
9BA,,CURUMANI,Curumaní,Cesar,Aeródromo,9.2222,-73.5722,MUNICIPIO,FADELCE,34.0,0.0,2000.0,164.0," 2989,000",2008-07-02,,2A,Público,0.0,20,20228,2016
9BB,,SAN MIGUEL,Puerto López,Meta,Aeródromo,4.1069,-72.89,ELIZABETH CRUZ BULLA,SAAC S.A.S,187.0,18.0,2000.0,803.0,"  251,000",2012-02-01,2015-02-09,1A,Fumigación,20.0,50,50573,2014
9BB,,SAN MIGUEL,Puerto López,Meta,Aeródromo,4.1069,-72.89,ELIZABETH CRUZ BULLA,SAAC S.A.S,0.0,35.0,2000.0,803.0,"  251,000",2012-02-01,2015-02-09,1A,Fumigación,12.0,50,50573,2015
9BB,,SAN MIGUEL,Puerto López,Meta,Aeródromo,4.1069,-72.89,ELIZABETH CRUZ BULLA,SAAC S.A.S,0.0,36.0,2000.0,803.0,"  251,000",2012-02-01,2015-02-09,1A,Privado,9.0,50,50573,2016
9BC,,CANTADELICIAS,Alpujarra,Tolima,Aeródromo,3.3873,-74.9338,MUNICIPIO,MUNICIPIO,424.0,9.0,12200.0,4213.0," 4541,000",2005-10-13,,1A,Aerocivil,0.0,73,73024,2014
9BC,,CANTADELICIAS,Alpujarra,Tolima,Aeródromo,3.3873,-74.9338,MUNICIPIO,MUNICIPIO,395.0,5.0,12200.0,4213.0," 4541,000",2005-10-13,,1A,Aerocivil,0.0,73,73024,2015
9BC,,CANTADELICIAS,Alpujarra,Tolima,Aeródromo,3.3873,-74.9338,MUNICIPIO,MUNICIPIO,265.0,2.0,12200.0,4213.0," 4541,000",2005-10-13,,1A,Público,0.0,73,73024,2016
9BE,,LAS VEGAS,Paz de Ariporo,Casanare,Aeródromo,6.0072,-71.2842,ALEIDA JERONIMO NAVAS,ALEIDA JERONIMO NAVAS,425.0,9.0,3500.0,430.0," 1657,000",2012-04-03,,1A,Privado,19.0,85,85250,2014
9BE,,LAS VEGAS,Paz de Ariporo,Casanare,Aeródromo,6.0072,-71.2842,ALEIDA JERONIMO NAVAS,ALEIDA JERONIMO NAVAS,211.0,6.0,3500.0,430.0," 1657,000",2012-04-03,,1A,Aerocivil,26.0,85,85250,2015
9BE,,LAS VEGAS,Paz de Ariporo,Casanare,Aeródromo,6.0072,-71.2842,ALEIDA JERONIMO NAVAS,ALEIDA JERONIMO NAVAS,82.0,0.0,3500.0,430.0," 1657,000",2012-04-03,,1A,Privado,29.0,85,85250,2016
9BF,,LA FRANCIA,El Paso,Cesar,Aeródromo,9.6394,-73.5282,SOCIEDAD COLOMBIAN NATURAL RESOURCES,EL MISMO,1937.0,14.0,,213.0,"  962,000",2011-03-02,,1B,Privado,264.0,20,20250,2014
9BF,,LA FRANCIA,El Paso,Cesar,Aeródromo,9.6394,-73.5282,SOCIEDAD COLOMBIAN NATURAL RESOURCES,EL MISMO,2068.0,3.0,,213.0,"  962,000",2011-03-02,,1B,Aerocivil,381.0,20,20250,2015
9BF,,LA FRANCIA,El Paso,Cesar,Aeródromo,9.6394,-73.5282,SOCIEDAD COLOMBIAN NATURAL RESOURCES,EL MISMO,2671.0,2.0,,213.0,"  962,000",2011-03-02,,1B,Público,464.0,20,20250,2016
9BG,,AGUAS BLANCAS,San Alberto,Cesar,Aeródromo,7.8197,-73.5719,PALMAS BELLAVISTA S.A.,CELTA LTDA.,1440.0,5.0,3000.0,174.0," 4942,000",2014-09-22,,1A,Privado,0.0,20,20710,2014
9BG,,AGUAS BLANCAS,San Alberto,Cesar,Aeródromo,7.8197,-73.5719,PALMAS BELLAVISTA S.A.,CELTA LTDA.,2035.0,5.0,3000.0,174.0," 4942,000",2014-09-22,,1A,Privado,0.0,20,20710,2015
9BG,,AGUAS BLANCAS,San Alberto,Cesar,Aeródromo,7.8197,-73.5719,PALMAS BELLAVISTA S.A.,CELTA LTDA.,3088.0,2.0,3000.0,174.0," 4942,000",2014-09-22,,1A,Público,0.0,20,20710,2016
9BI,,SAN FELIPE,Orocué,Casanare,Aeródromo,5.1037,-71.8425,MARIA LUCILA REYES ORDOÑEZ,MARIA LUCILA REYES O.,299.0,11.0,2000.0,554.0,"  800,000",2010-02-18,,1A,Aerocivil,11.0,85,85230,2014
9BI,,SAN FELIPE,Orocué,Casanare,Aeródromo,5.1037,-71.8425,MARIA LUCILA REYES ORDOÑEZ,MARIA LUCILA REYES O.,272.0,6.0,2000.0,554.0,"  800,000",2010-02-18,,1A,Fumigación,18.0,85,85230,2015
9BI,,SAN FELIPE,Orocué,Casanare,Aeródromo,5.1037,-71.8425,MARIA LUCILA REYES ORDOÑEZ,MARIA LUCILA REYES O.,149.0,3.0,2000.0,554.0,"  800,000",2010-02-18,,1A,Privado,31.0,85,85230,2016
9BK,,JULIAN,Cabuyaro,Meta,Aeródromo,4.2711,-72.9869,HERNANDO JIMENEZ,ASAM LTDA,582.0,14.0,2500.0,735.0," 3181,000",2009-06-24,2012-07-06,1A,Privado,0.0,50,50124,2014
9BK,,JULIAN,Cabuyaro,Meta,Aeródromo,4.2711,-72.9869,HERNANDO JIMENEZ,ASAM LTDA,124.0,24.0,2500.0,735.0," 3181,000",2009-06-24,2012-07-06,1A,Público,0.0,50,50124,2015
9BK,,JULIAN,Cabuyaro,Meta,Aeródromo,4.2711,-72.9869,HERNANDO JIMENEZ,ASAM LTDA,41.0,42.0,2500.0,735.0," 3181,000",2009-06-24,2012-07-06,1A,Público,0.0,50,50124,2016
9BL,,LOS HALCONES,Bugalagrande,Valle del Cauca,Aeródromo,3.9178,-76.3206,DIEGO TORRES NUÑEZ,DIEGO TORRES NUÑEZ,431.0,14.0,500.0,3232.0," 6678,000",2012-11-22,2016-01-04,1A,Privado,4.0,76,76113,2014
9BL,,LOS HALCONES,Bugalagrande,Valle del Cauca,Aeródromo,3.9178,-76.3206,DIEGO TORRES NUÑEZ,DIEGO TORRES NUÑEZ,810.0,27.0,500.0,3232.0," 6678,000",2012-11-22,2016-01-04,1A,Aerocivil,4.0,76,76113,2015
9BL,,LOS HALCONES,Bugalagrande,Valle del Cauca,Aeródromo,3.9178,-76.3206,DIEGO TORRES NUÑEZ,DIEGO TORRES NUÑEZ,1146.0,39.0,500.0,3232.0," 6678,000",2012-11-22,2016-01-04,1A,Fumigación,2.0,76,76113,2016
9BN,,EL SOÑADOR,Aguazul,Casanare,Aeródromo,5.2299,-72.4528,GLORIA M. ALVIRA R.,CELTA LTDA.,282.0,9.0,2000.0,865.0,"  304,000",2010-01-27,2013-02-09,1A,Público,0.0,85,85010,2014
9BN,,EL SOÑADOR,Aguazul,Casanare,Aeródromo,5.2299,-72.4528,GLORIA M. ALVIRA R.,CELTA LTDA.,256.0,2.0,2000.0,865.0,"  304,000",2010-01-27,2013-02-09,1A,Privado,0.0,85,85010,2015
9BN,,EL SOÑADOR,Aguazul,Casanare,Aeródromo,5.2299,-72.4528,GLORIA M. ALVIRA R.,CELTA LTDA.,33.0,1.0,2000.0,865.0,"  304,000",2010-01-27,2013-02-09,1A,Público,0.0,85,85010,2016
9BO,,VENECIA DE GUANAPALO,San Luis de Palenque,Casanare,Aeródromo,5.3079,-71.9204,COLCONSTRUC LTDA,COLCONSTRUC LTDA.,1201.0,28.0,5500.0,623.0," 4873,000",2014-09-16,,1A,Privado,38.0,85,85325,2014
9BO,,VENECIA DE GUANAPALO,San Luis de Palenque,Casanare,Aeródromo,5.3079,-71.9204,COLCONSTRUC LTDA,COLCONSTRUC LTDA.,1482.0,37.0,5500.0,623.0," 4873,000",2014-09-16,,1A,Público,38.0,85,85325,2015
9BO,,VENECIA DE GUANAPALO,San Luis de Palenque,Casanare,Aeródromo,5.3079,-71.9204,COLCONSTRUC LTDA,COLCONSTRUC LTDA.,1858.0,40.0,5500.0,623.0," 4873,000",2014-09-16,,1A,Privado,38.0,85,85325,2016
9BP,,EL CONCHAL - CA,El Cerrito,Valle del Cauca,Aeródromo,3.7273,-76.3902,ARMANDO ARAGON NAVIA,ARMANDO ARAGON NAVIA,270.0,9.0,400.0,3139.0,"  326,000",2013-02-07,2016-04-01,1A,Privado,0.0,76,76248,2014
9BP,,EL CONCHAL - CA,El Cerrito,Valle del Cauca,Aeródromo,3.7273,-76.3902,ARMANDO ARAGON NAVIA,ARMANDO ARAGON NAVIA,292.0,9.0,400.0,3139.0,"  326,000",2013-02-07,2016-04-01,1A,Privado,0.0,76,76248,2015
9BP,,EL CONCHAL - CA,El Cerrito,Valle del Cauca,Aeródromo,3.7273,-76.3902,ARMANDO ARAGON NAVIA,ARMANDO ARAGON NAVIA,548.0,8.0,400.0,3139.0,"  326,000",2013-02-07,2016-04-01,1A,Público,0.0,76,76248,2016
9BR,,SEVILLA,Hato Corozal,Casanare,Aeródromo,5.9234,-71.7139,HELI CALA LOPEZ,HELI CALA LOPEZ,870.0,20.0,3000.0,682.0," 4729,000",2013-09-06,,1A,Privado,0.0,85,85125,2014
9BR,,SEVILLA,Hato Corozal,Casanare,Aeródromo,5.9234,-71.7139,HELI CALA LOPEZ,HELI CALA LOPEZ,1295.0,27.0,3000.0,682.0," 4729,000",2013-09-06,,1A,Aerocivil,0.0,85,85125,2015
9BR,,SEVILLA,Hato Corozal,Casanare,Aeródromo,5.9234,-71.7139,HELI CALA LOPEZ,HELI CALA LOPEZ,1596.0,47.0,3000.0,682.0," 4729,000",2013-09-06,,1A,Privado,0.0,85,85125,2016
9BT,,ASA SAN MARTIN,Riohacha,La Guajira,Aeródromo,11.2889,-73.1756,ASA S EN C,ASA S. EN C.,74.0,18.0,4500.0,49.0," 5612,000",2012-10-04,,1A,Privado,0.0,44,44001,2014
9BT,,ASA SAN MARTIN,Riohacha,La Guajira,Aeródromo,11.2889,-73.1756,ASA S EN C,ASA S. EN C.,67.0,35.0,4500.0,49.0," 5612,000",2012-10-04,,1A,Privado,0.0,44,44001,2015
9BT,,ASA SAN MARTIN,Riohacha,La Guajira,Aeródromo,11.2889,-73.1756,ASA S EN C,ASA S. EN C.,20.0,59.0,4500.0,49.0," 5612,000",2012-10-04,,1A,Privado,0.0,44,44001,2016
9BW,,LA FAZENDA,Puerto López,Meta,Aeródromo,4.3263,-72.2208,ALIAR S.A.,ALIAR S.A.,205.0,20.0,5000.0,568.0," 1941,000",2013-05-03,2016-05-07,2B,Aerocivil,52.0,50,50573,2014
9BW,,LA FAZENDA,Puerto López,Meta,Aeródromo,4.3263,-72.2208,ALIAR S.A.,ALIAR S.A.,190.0,34.0,5000.0,568.0," 1941,000",2013-05-03,2016-05-07,2B,Público,94.0,50,50573,2015
9BW,,LA FAZENDA,Puerto López,Meta,Aeródromo,4.3263,-72.2208,ALIAR S.A.,ALIAR S.A.,3.0,57.0,5000.0,568.0," 1941,000",2013-05-03,2016-05-07,2B,Fumigación,94.0,50,50573,2016
9BX,,LA ESTRELLA-CA.,San Martín,Meta,Aeródromo,3.4802,-73.3276,CLUB LA LIBELULA,CLUB LA LIBELULA,335.0,73.0,500.0,787.0,"  679,000",2011-02-15,,UL,Público,0.0,50,50689,2014
9BX,,LA ESTRELLA-CA.,San Martín,Meta,Aeródromo,3.4802,-73.3276,CLUB LA LIBELULA,CLUB LA LIBELULA,515.0,50.0,500.0,787.0,"  679,000",2011-02-15,,UL,Fumigación,0.0,50,50689,2015
9BX,,LA ESTRELLA-CA.,San Martín,Meta,Aeródromo,3.4802,-73.3276,CLUB LA LIBELULA,CLUB LA LIBELULA,836.0,36.0,500.0,787.0,"  679,000",2011-02-15,,UL,Privado,0.0,50,50689,2016
9BY,,SAN EDUARDO,Orocué,Casanare,Aeródromo,4.6422,-71.8104,EDUARDO J. GONZALEZ A.,EDUARDO J- GONZALEZ,1228.0,12.0,2500.0,580.0," 1580,000",2014-03-26,,1A,Fumigación,12.0,85,85230,2014
9BY,,SAN EDUARDO,Orocué,Casanare,Aeródromo,4.6422,-71.8104,EDUARDO J. GONZALEZ A.,EDUARDO J- GONZALEZ,1491.0,10.0,2500.0,580.0," 1580,000",2014-03-26,,1A,Público,12.0,85,85230,2015
9BY,,SAN EDUARDO,Orocué,Casanare,Aeródromo,4.6422,-71.8104,EDUARDO J. GONZALEZ A.,EDUARDO J- GONZALEZ,2869.0,1.0,2500.0,580.0," 1580,000",2014-03-26,,1A,Público,12.0,85,85230,2016
9BZ,,RIOSUCIO,Riosucio,Chocó,Aeródromo,7.4164,-77.0595,MUNICIPIO,MUNICIPIO,324.0,11.0,5670.0,72.0," 3430,000",2014-06-27,,1A,Aerocivil,7.0,27,27615,2014
9BZ,,RIOSUCIO,Riosucio,Chocó,Aeródromo,7.4164,-77.0595,MUNICIPIO,MUNICIPIO,151.0,22.0,5670.0,72.0," 3430,000",2014-06-27,,1A,Aerocivil,7.0,27,27615,2015
9BZ,,RIOSUCIO,Riosucio,Chocó,Aeródromo,7.4164,-77.0595,MUNICIPIO,MUNICIPIO,14.0,30.0,5670.0,72.0," 3430,000",2014-06-27,,1A,Aerocivil,7.0,27,27615,2016
9CA,,LAS AGUILAS -CA,Yumbo,Valle del Cauca,Aeródromo,3.5134,-76.4931,SERESTEL S.A.,CLUB DEPORT.LAS AGUILAS,158.0,5.0,500.0,3100.0," 4939,000",2012-09-06,,1A,Privado,0.0,76,76892,2014
9CA,,LAS AGUILAS -CA,Yumbo,Valle del Cauca,Aeródromo,3.5134,-76.4931,SERESTEL S.A.,CLUB DEPORT.LAS AGUILAS,96.0,4.0,500.0,3100.0," 4939,000",2012-09-06,,1A,Fumigación,0.0,76,76892,2015
9CA,,LAS AGUILAS -CA,Yumbo,Valle del Cauca,Aeródromo,3.5134,-76.4931,SERESTEL S.A.,CLUB DEPORT.LAS AGUILAS,10.0,4.0,500.0,3100.0," 4939,000",2012-09-06,,1A,Aerocivil,0.0,76,76892,2016
9CB,,CAMARUCOS,Paz de Ariporo,Casanare,Aeródromo,5.8754,-70.6583,ALCALDIA,ALCALDIA,1010.0,1.0,2000.0,367.0," 4541,000",2006-10-27,2016-11-07,1A,Privado,2.0,85,85250,2014
9CB,,CAMARUCOS,Paz de Ariporo,Casanare,Aeródromo,5.8754,-70.6583,ALCALDIA,ALCALDIA,338.0,1.0,2000.0,367.0," 4541,000",2006-10-27,2016-11-07,1A,Privado,0.0,85,85250,2015
9CB,,CAMARUCOS,Paz de Ariporo,Casanare,Aeródromo,5.8754,-70.6583,ALCALDIA,ALCALDIA,101.0,1.0,2000.0,367.0," 4541,000",2006-10-27,2016-11-07,1A,Público,0.0,85,85250,2016
9CC,,EL TOTUMO,Paz de Ariporo,Casanare,Aeródromo,5.9387,-71.2217,MUNICIPIO,MUNICIPIO,494.0,8.0,2000.0,476.0," 4541,000",2006-10-27,2016-11-07,1A,Aerocivil,5.0,85,85250,2014
9CC,,EL TOTUMO,Paz de Ariporo,Casanare,Aeródromo,5.9387,-71.2217,MUNICIPIO,MUNICIPIO,395.0,1.0,2000.0,476.0," 4541,000",2006-10-27,2016-11-07,1A,Fumigación,3.0,85,85250,2015
9CC,,EL TOTUMO,Paz de Ariporo,Casanare,Aeródromo,5.9387,-71.2217,MUNICIPIO,MUNICIPIO,2.0,0.0,2000.0,476.0," 4541,000",2006-10-27,2016-11-07,1A,Público,2.0,85,85250,2016
9CD,,VARSOVIA,Paz de Ariporo,Casanare,Aeródromo,5.849,-70.3648,MUNICIPIO,MUNICIPIO,394.0,24.0,2000.0,328.0," 4541,000",2006-10-27,2016-11-07,1A,Aerocivil,44.0,85,85250,2014
9CD,,VARSOVIA,Paz de Ariporo,Casanare,Aeródromo,5.849,-70.3648,MUNICIPIO,MUNICIPIO,43.0,44.0,2000.0,328.0," 4541,000",2006-10-27,2016-11-07,1A,Fumigación,14.0,85,85250,2015
9CD,,VARSOVIA,Paz de Ariporo,Casanare,Aeródromo,5.849,-70.3648,MUNICIPIO,MUNICIPIO,40.0,60.0,2000.0,328.0," 4541,000",2006-10-27,2016-11-07,1A,Público,2.0,85,85250,2016
9CE,,LA HERMOSA,Paz de Ariporo,Casanare,Aeródromo,5.5307,-70.4497,MUNICIPIO,MUNICIPIO,625.0,8.0,2000.0,338.0," 4541,000",2006-10-27,2016-11-07,1A,Privado,75.0,85,85250,2014
9CE,,LA HERMOSA,Paz de Ariporo,Casanare,Aeródromo,5.5307,-70.4497,MUNICIPIO,MUNICIPIO,248.0,4.0,2000.0,338.0," 4541,000",2006-10-27,2016-11-07,1A,Fumigación,12.0,85,85250,2015
9CE,,LA HERMOSA,Paz de Ariporo,Casanare,Aeródromo,5.5307,-70.4497,MUNICIPIO,MUNICIPIO,72.0,0.0,2000.0,338.0," 4541,000",2006-10-27,2016-11-07,1A,Privado,1.0,85,85250,2016
9CF,,SAN ESTEBAN,Paz de Ariporo,Casanare,Aeródromo,5.4441,-70.8352,MUNICIPIO,MUNICIPIO,553.0,25.0,2000.0,377.0," 4541,000",2006-10-27,2016-11-07,1A,Público,7.0,85,85250,2014
9CF,,SAN ESTEBAN,Paz de Ariporo,Casanare,Aeródromo,5.4441,-70.8352,MUNICIPIO,MUNICIPIO,411.0,44.0,2000.0,377.0," 4541,000",2006-10-27,2016-11-07,1A,Público,14.0,85,85250,2015
9CF,,SAN ESTEBAN,Paz de Ariporo,Casanare,Aeródromo,5.4441,-70.8352,MUNICIPIO,MUNICIPIO,40.0,63.0,2000.0,377.0," 4541,000",2006-10-27,2016-11-07,1A,Fumigación,19.0,85,85250,2016
9CG,,SAN JOSE DEL ARIPORO,Paz de Ariporo,Casanare,Aeródromo,6.0475,-70.0128,MUNICIPIO,MUNICIPIO,600.0,18.0,2000.0,318.0," 4541,000",2006-10-27,2016-11-07,1A,Aerocivil,286.0,85,85250,2014
9CG,,SAN JOSE DEL ARIPORO,Paz de Ariporo,Casanare,Aeródromo,6.0475,-70.0128,MUNICIPIO,MUNICIPIO,686.0,36.0,2000.0,318.0," 4541,000",2006-10-27,2016-11-07,1A,Público,485.0,85,85250,2015
9CG,,SAN JOSE DEL ARIPORO,Paz de Ariporo,Casanare,Aeródromo,6.0475,-70.0128,MUNICIPIO,MUNICIPIO,1142.0,50.0,2000.0,318.0," 4541,000",2006-10-27,2016-11-07,1A,Aerocivil,653.0,85,85250,2016
9CH,,COLINERAS,Paz de Ariporo,Casanare,Aeródromo,6.0713,-70.3678,MUNICIPIO,MUNICIPIO,397.0,0.0,2000.0,338.0," 4541,000",2006-10-27,2016-11-07,1A,Privado,1.0,85,85250,2014
9CH,,COLINERAS,Paz de Ariporo,Casanare,Aeródromo,6.0713,-70.3678,MUNICIPIO,MUNICIPIO,393.0,0.0,2000.0,338.0," 4541,000",2006-10-27,2016-11-07,1A,Público,1.0,85,85250,2015
9CH,,COLINERAS,Paz de Ariporo,Casanare,Aeródromo,6.0713,-70.3678,MUNICIPIO,MUNICIPIO,126.0,0.0,2000.0,338.0," 4541,000",2006-10-27,2016-11-07,1A,Público,2.0,85,85250,2016
9CI,,LA CAIMANA,Paz de Ariporo,Casanare,Aeródromo,6.052,-70.8134,MUNICIPIO,MUNICIPIO,151.0,1.0,2000.0,400.0," 4541,000",2006-10-27,2016-11-07,1A,Privado,17.0,85,85250,2014
9CI,,LA CAIMANA,Paz de Ariporo,Casanare,Aeródromo,6.052,-70.8134,MUNICIPIO,MUNICIPIO,45.0,1.0,2000.0,400.0," 4541,000",2006-10-27,2016-11-07,1A,Aerocivil,31.0,85,85250,2015
9CI,,LA CAIMANA,Paz de Ariporo,Casanare,Aeródromo,6.052,-70.8134,MUNICIPIO,MUNICIPIO,29.0,0.0,2000.0,400.0," 4541,000",2006-10-27,2016-11-07,1A,Fumigación,44.0,85,85250,2016
9CJ,,EMAUS,San Luis de Palenque,Casanare,Aeródromo,5.1483,-71.0453,LUIS F. CASTILLO SANTOS,LUIS F. CASTILLO SANTOS,1283.0,10.0,2500.0,430.0," 1945,000",2013-05-03,,1A,Privado,0.0,85,85325,2014
9CJ,,EMAUS,San Luis de Palenque,Casanare,Aeródromo,5.1483,-71.0453,LUIS F. CASTILLO SANTOS,LUIS F. CASTILLO SANTOS,1427.0,11.0,2500.0,430.0," 1945,000",2013-05-03,,1A,Público,0.0,85,85325,2015
9CJ,,EMAUS,San Luis de Palenque,Casanare,Aeródromo,5.1483,-71.0453,LUIS F. CASTILLO SANTOS,LUIS F. CASTILLO SANTOS,2672.0,21.0,2500.0,430.0," 1945,000",2013-05-03,,1A,Público,0.0,85,85325,2016
9CK,,SANTA MARIA DEL CAFÉ,Hato Corozal,Casanare,Aeródromo,6.1111,-70.9888,MUNICIPIO,EL MISMO,825.0,30.0,2000.0,427.0," 4543,000",2006-10-27,,1A,Fumigación,0.0,85,85125,2014
9CK,,SANTA MARIA DEL CAFÉ,Hato Corozal,Casanare,Aeródromo,6.1111,-70.9888,MUNICIPIO,EL MISMO,1326.0,57.0,2000.0,427.0," 4543,000",2006-10-27,,1A,Público,0.0,85,85125,2015
9CK,,SANTA MARIA DEL CAFÉ,Hato Corozal,Casanare,Aeródromo,6.1111,-70.9888,MUNICIPIO,EL MISMO,1953.0,100.0,2000.0,427.0," 4543,000",2006-10-27,,1A,Público,0.0,85,85125,2016
9CL,,LA VENTUROSA,San Luis de Palenque,Casanare,Aeródromo,5.2388,-71.3035,MUNICIPIO,EL MISMO,612.0,8.0,2000.0,459.0," 4542,000",2006-10-27,,1A,Aerocivil,1.0,85,85325,2014
9CL,,LA VENTUROSA,San Luis de Palenque,Casanare,Aeródromo,5.2388,-71.3035,MUNICIPIO,EL MISMO,97.0,8.0,2000.0,459.0," 4542,000",2006-10-27,,1A,Fumigación,0.0,85,85325,2015
9CL,,LA VENTUROSA,San Luis de Palenque,Casanare,Aeródromo,5.2388,-71.3035,MUNICIPIO,EL MISMO,44.0,3.0,2000.0,459.0," 4542,000",2006-10-27,,1A,Público,0.0,85,85325,2016
9CM,,MIRAMAR DE GUANAPALO,San Luis de Palenque,Casanare,Aeródromo,5.0541,-71.0012,MUNICIPIO,EL MISMO,770.0,21.0,2000.0,394.0," 4542,000",2006-10-27,,1A,Privado,1.0,85,85325,2014
9CM,,MIRAMAR DE GUANAPALO,San Luis de Palenque,Casanare,Aeródromo,5.0541,-71.0012,MUNICIPIO,EL MISMO,1112.0,42.0,2000.0,394.0," 4542,000",2006-10-27,,1A,Fumigación,1.0,85,85325,2015
9CM,,MIRAMAR DE GUANAPALO,San Luis de Palenque,Casanare,Aeródromo,5.0541,-71.0012,MUNICIPIO,EL MISMO,1711.0,52.0,2000.0,394.0," 4542,000",2006-10-27,,1A,Aerocivil,2.0,85,85325,2016
9CP,,LA SALVACION,Paz de Ariporo,Casanare,Aeródromo,5.9988,-70.6316,ALCALDIA,ALCALDIA,790.0,3.0,2000.0,384.0," 4807,000",2006-11-14,,1A,Público,0.0,85,85250,2014
9CP,,LA SALVACION,Paz de Ariporo,Casanare,Aeródromo,5.9988,-70.6316,ALCALDIA,ALCALDIA,1218.0,2.0,2000.0,384.0," 4807,000",2006-11-14,,1A,Fumigación,0.0,85,85250,2015
9CP,,LA SALVACION,Paz de Ariporo,Casanare,Aeródromo,5.9988,-70.6316,ALCALDIA,ALCALDIA,2383.0,0.0,2000.0,384.0," 4807,000",2006-11-14,,1A,Fumigación,0.0,85,85250,2016
9CQ,,LOMA GRANDE - CA,Ayapel,Córdoba,Aeródromo,8.2937,-75.1176,O.V. OROZCO Y CIA. S.C.A.,EL MISMO,117.0,6.0,400.0,1280.0," 3341,000",2010-06-30,,UL,Fumigación,0.0,23,23068,2014
9CQ,,LOMA GRANDE - CA,Ayapel,Córdoba,Aeródromo,8.2937,-75.1176,O.V. OROZCO Y CIA. S.C.A.,EL MISMO,4.0,6.0,400.0,1280.0," 3341,000",2010-06-30,,UL,Público,0.0,23,23068,2015
9CQ,,LOMA GRANDE - CA,Ayapel,Córdoba,Aeródromo,8.2937,-75.1176,O.V. OROZCO Y CIA. S.C.A.,EL MISMO,2.0,2.0,400.0,1280.0," 3341,000",2010-06-30,,UL,Aerocivil,0.0,23,23068,2016
9CR,,EL CAPRICHO,Puerto Gaitán,Meta,Aeródromo,4.2018,-72.1632,JORGE E. SALAZAR B.,EL MISMO,141.0,26.0,4500.0,551.0,"  329,000",2013-02-07,2016-04-05,1A,Privado,2.0,50,50568,2014
9CR,,EL CAPRICHO,Puerto Gaitán,Meta,Aeródromo,4.2018,-72.1632,JORGE E. SALAZAR B.,EL MISMO,44.0,47.0,4500.0,551.0,"  329,000",2013-02-07,2016-04-05,1A,Privado,4.0,50,50568,2015
9CR,,EL CAPRICHO,Puerto Gaitán,Meta,Aeródromo,4.2018,-72.1632,JORGE E. SALAZAR B.,EL MISMO,13.0,48.0,4500.0,551.0,"  329,000",2013-02-07,2016-04-05,1A,Aerocivil,7.0,50,50568,2016
9CU,,COROCORA,Trinidad,Casanare,Aeródromo,5.3751,-70.969,DORA AVELLA VDA.DE PAN,PERENCO COLOMBIA LIMITED,13.0,2.0,5000.0,430.0," 1000,000",2012-03-01,,1A,Aerocivil,890.0,85,85430,2014
9CU,,COROCORA,Trinidad,Casanare,Aeródromo,5.3751,-70.969,DORA AVELLA VDA.DE PAN,PERENCO COLOMBIA LIMITED,5.0,2.0,5000.0,430.0," 1000,000",2012-03-01,,1A,Privado,698.0,85,85430,2015
9CU,,COROCORA,Trinidad,Casanare,Aeródromo,5.3751,-70.969,DORA AVELLA VDA.DE PAN,PERENCO COLOMBIA LIMITED,0.0,0.0,5000.0,430.0," 1000,000",2012-03-01,,1A,Fumigación,559.0,85,85430,2016
9CX,,SAN JUAN,Maní,Casanare,Aeródromo,4.8437,-72.3006,MARIA ILSE BERRIO,AGIL LTDA.,1327.0,20.0,2000.0,591.0," 1055,000",2014-02-28,2017-03-11,1A,Aerocivil,2.0,85,85139,2014
9CX,,SAN JUAN,Maní,Casanare,Aeródromo,4.8437,-72.3006,MARIA ILSE BERRIO,AGIL LTDA.,1769.0,30.0,2000.0,591.0," 1055,000",2014-02-28,2017-03-11,1A,Fumigación,2.0,85,85139,2015
9CX,,SAN JUAN,Maní,Casanare,Aeródromo,4.8437,-72.3006,MARIA ILSE BERRIO,AGIL LTDA.,2774.0,44.0,2000.0,591.0," 1055,000",2014-02-28,2017-03-11,1A,Aerocivil,2.0,85,85139,2016
9CY,,LA MEJOR,Restrepo,Meta,Aeródromo,4.1538,-73.3205,JOSE A. REINA P.,SADELL S.A.S.,1139.0,11.0,2000.0,844.0," 1125,000",2015-05-14,,1A,Fumigación,1.0,50,50606,2015
9CY,,LA MEJOR,Restrepo,Meta,Aeródromo,4.1538,-73.3205,JOSE A. REINA P.,SADELL S.A.S.,1590.0,14.0,2000.0,844.0," 1125,000",2015-05-14,,1A,Fumigación,1.0,50,50606,2016
9CZ,,GRISMANIA,Aguazul,Casanare,Aeródromo,4.989,-72.5099,LUZ MARINA VARGAS,SFA LTDA.,481.0,8.0,2000.0,669.0," 6670,000",2010-12-07,,1A,Privado,0.0,85,85010,2014
9CZ,,GRISMANIA,Aguazul,Casanare,Aeródromo,4.989,-72.5099,LUZ MARINA VARGAS,SFA LTDA.,393.0,4.0,2000.0,669.0," 6670,000",2010-12-07,,1A,Privado,0.0,85,85010,2015
9CZ,,GRISMANIA,Aguazul,Casanare,Aeródromo,4.989,-72.5099,LUZ MARINA VARGAS,SFA LTDA.,169.0,3.0,2000.0,669.0," 6670,000",2010-12-07,,1A,Público,0.0,85,85010,2016
9DA,,BALMORAL,Maní,Casanare,Aeródromo,4.8864,-72.3439,MELIDA OVALLE Y OTROS,AEROTEC LTDA.,904.0,9.0,2000.0,652.0,"  694,000",2015-03-31,2017-04-08,1A,Aerocivil,1.0,85,85139,2015
9DA,,BALMORAL,Maní,Casanare,Aeródromo,4.8864,-72.3439,MELIDA OVALLE Y OTROS,AEROTEC LTDA.,1313.0,9.0,2000.0,652.0,"  694,000",2015-03-31,2017-04-08,1A,Público,1.0,85,85139,2016
9DB,,PALMAS DE TUMACO  -CA,San Andrés de Tumaco,Nariño,Aeródromo,1.496,-78.765,PALMAS DE TUMACO S.A.,PALMAS DE TUMACO S.A.,418.0,11.0,500.0,136.0," 1897,000",2011-04-11,2014-06-08,UL,Privado,0.0,52,52835,2014
9DB,,PALMAS DE TUMACO  -CA,San Andrés de Tumaco,Nariño,Aeródromo,1.496,-78.765,PALMAS DE TUMACO S.A.,PALMAS DE TUMACO S.A.,575.0,19.0,500.0,136.0," 1897,000",2011-04-11,2014-06-08,UL,Público,0.0,52,52835,2015
9DB,,PALMAS DE TUMACO  -CA,San Andrés de Tumaco,Nariño,Aeródromo,1.496,-78.765,PALMAS DE TUMACO S.A.,PALMAS DE TUMACO S.A.,950.0,22.0,500.0,136.0," 1897,000",2011-04-11,2014-06-08,UL,Fumigación,0.0,52,52835,2016
9DC,,INGENIO LA CARMELITA,Riofrío,Valle del Cauca,Aeródromo,4.0727,-76.316,SOCIEDAD GARRIDO,ING. LA CARMELITA,153.0,8.0,500.0,3087.0," 2961,000",2013-06-20,2015-08-05,1A,Aerocivil,0.0,76,76616,2014
9DC,,INGENIO LA CARMELITA,Riofrío,Valle del Cauca,Aeródromo,4.0727,-76.316,SOCIEDAD GARRIDO,ING. LA CARMELITA,89.0,3.0,500.0,3087.0," 2961,000",2013-06-20,2015-08-05,1A,Fumigación,0.0,76,76616,2015
9DC,,INGENIO LA CARMELITA,Riofrío,Valle del Cauca,Aeródromo,4.0727,-76.316,SOCIEDAD GARRIDO,ING. LA CARMELITA,66.0,0.0,500.0,3087.0," 2961,000",2013-06-20,2015-08-05,1A,Aerocivil,0.0,76,76616,2016
9DE,,LUNA PARK,La Primavera,Vichada,Aeródromo,5.128,-70.4931,DAVID ALFONSO MATTOS L.,DAVID ALFONSO MATTOS,2080.0,12.0,12000.0,410.0," 1056,000",2014-02-28,2017-03-06,1A,Privado,97.0,99,99524,2014
9DE,,LUNA PARK,La Primavera,Vichada,Aeródromo,5.128,-70.4931,DAVID ALFONSO MATTOS L.,DAVID ALFONSO MATTOS,3472.0,1.0,12000.0,410.0," 1056,000",2014-02-28,2017-03-06,1A,Público,97.0,99,99524,2015
9DE,,LUNA PARK,La Primavera,Vichada,Aeródromo,5.128,-70.4931,DAVID ALFONSO MATTOS L.,DAVID ALFONSO MATTOS,6604.0,1.0,12000.0,410.0," 1056,000",2014-02-28,2017-03-06,1A,Fumigación,97.0,99,99524,2016
9DG,,EL LAGO - CA,Piedras,Tolima,Aeródromo,4.5575,-74.9003,BERNEY RODRIGUEZ,OSMANI RODRIGUEZ CARDOZO,357.0,2.0,500.0,1050.0," 6744,000",2010-12-13,,UL,Aerocivil,0.0,73,73547,2014
9DG,,EL LAGO - CA,Piedras,Tolima,Aeródromo,4.5575,-74.9003,BERNEY RODRIGUEZ,OSMANI RODRIGUEZ CARDOZO,669.0,1.0,500.0,1050.0," 6744,000",2010-12-13,,UL,Privado,0.0,73,73547,2015
9DG,,EL LAGO - CA,Piedras,Tolima,Aeródromo,4.5575,-74.9003,BERNEY RODRIGUEZ,OSMANI RODRIGUEZ CARDOZO,784.0,0.0,500.0,1050.0," 6744,000",2010-12-13,,UL,Privado,0.0,73,73547,2016
9DH,,HACIENDA LA JOYA,Córdoba,Bolívar,Aeródromo,9.6179,-74.8367,TRIPENTA S.A.,AGROTEMPO LTDA.,89.0,12.0,2000.0,82.0,"    9,000",2013-01-03,2016-01-09,1A,Privado,0.0,13,13212,2014
9DH,,HACIENDA LA JOYA,Córdoba,Bolívar,Aeródromo,9.6179,-74.8367,TRIPENTA S.A.,AGROTEMPO LTDA.,42.0,23.0,2000.0,82.0,"    9,000",2013-01-03,2016-01-09,1A,Fumigación,0.0,13,13212,2015
9DH,,HACIENDA LA JOYA,Córdoba,Bolívar,Aeródromo,9.6179,-74.8367,TRIPENTA S.A.,AGROTEMPO LTDA.,12.0,32.0,2000.0,82.0,"    9,000",2013-01-03,2016-01-09,1A,Privado,0.0,13,13212,2016
9DI,,SAN FELIPE,San Felipe,Guainía,Aeródromo,1.915,-67.0776,GOBERNACION,GOBERNACION,1164.0,31.0,25000.0,312.0,"  545,000",2008-02-13,,1A,Privado,60.0,94,94883,2014
9DI,,SAN FELIPE,San Felipe,Guainía,Aeródromo,1.915,-67.0776,GOBERNACION,GOBERNACION,2101.0,39.0,25000.0,312.0,"  545,000",2008-02-13,,1A,Fumigación,38.0,94,94883,2015
9DI,,SAN FELIPE,San Felipe,Guainía,Aeródromo,1.915,-67.0776,GOBERNACION,GOBERNACION,3701.0,59.0,25000.0,312.0,"  545,000",2008-02-13,,1A,Aerocivil,7.0,94,94883,2016
9DJ,,LA PAULINA,La Paz,Cesar,Aeródromo,9.9129,-73.4795,AMA LTDA.,AMA LTDA.,1387.0,27.0,2000.0,210.0," 3939,000",2014-07-25,,1A,Privado,0.0,20,20621,2014
9DJ,,LA PAULINA,La Paz,Cesar,Aeródromo,9.9129,-73.4795,AMA LTDA.,AMA LTDA.,1891.0,40.0,2000.0,210.0," 3939,000",2014-07-25,,1A,Público,0.0,20,20621,2015
9DJ,,LA PAULINA,La Paz,Cesar,Aeródromo,9.9129,-73.4795,AMA LTDA.,AMA LTDA.,3729.0,45.0,2000.0,210.0," 3939,000",2014-07-25,,1A,Público,0.0,20,20621,2016
9DK,,EL VATICANO,Paratebueno,Cundinamarca,Aeródromo,4.287,-73.1876,ROMULO PINEDA GARCIA,HELICE LTDA.,790.0,12.0,2000.0,738.0,"  999,000",2015-05-05,2018-06-02,1A,Fumigación,0.0,25,25530,2015
9DK,,EL VATICANO,Paratebueno,Cundinamarca,Aeródromo,4.287,-73.1876,ROMULO PINEDA GARCIA,HELICE LTDA.,68.0,20.0,2000.0,738.0,"  999,000",2015-05-05,2018-06-02,1A,Privado,0.0,25,25530,2016
9DL,,LA PASTORA,Arauca,Arauca,Aeródromo,6.798,-70.9777,SAO E.U,SAO E.U.,1128.0,17.0,2000.0,600.0," 2139,000",2013-05-16,,1A,Fumigación,0.0,81,81001,2014
9DL,,LA PASTORA,Arauca,Arauca,Aeródromo,6.798,-70.9777,SAO E.U,SAO E.U.,2134.0,34.0,2000.0,600.0," 2139,000",2013-05-16,,1A,Aerocivil,0.0,81,81001,2015
9DL,,LA PASTORA,Arauca,Arauca,Aeródromo,6.798,-70.9777,SAO E.U,SAO E.U.,3135.0,47.0,2000.0,600.0," 2139,000",2013-05-16,,1A,Privado,0.0,81,81001,2016
9DM,,LA VEREMOS,San Luis de Palenque,Casanare,Aeródromo,5.338,-71.6004,ALVARO PEREZ,HELICE LTDA.,767.0,27.0,2000.0,574.0,"  119,000",2015-01-21,2018-03-09,1A,Aerocivil,0.0,85,85325,2015
9DM,,LA VEREMOS,San Luis de Palenque,Casanare,Aeródromo,5.338,-71.6004,ALVARO PEREZ,HELICE LTDA.,737.0,27.0,2000.0,574.0,"  119,000",2015-01-21,2018-03-09,1A,Fumigación,0.0,85,85325,2016
9DN,,SAN FRANCISCO,Puerto Gaitán,Meta,Aeródromo,4.26,-71.9146,PROYECTOS LA FAZENDA,AGROPECUARIA ALIAR S.A.,585.0,10.0,5000.0,712.0," 5521,000",2014-11-11,2017-11-12,2A,Aerocivil,3.0,50,50568,2014
9DN,,SAN FRANCISCO,Puerto Gaitán,Meta,Aeródromo,4.26,-71.9146,PROYECTOS LA FAZENDA,AGROPECUARIA ALIAR S.A.,582.0,9.0,5000.0,712.0," 5521,000",2014-11-11,2017-11-12,2A,Aerocivil,3.0,50,50568,2015
9DN,,SAN FRANCISCO,Puerto Gaitán,Meta,Aeródromo,4.26,-71.9146,PROYECTOS LA FAZENDA,AGROPECUARIA ALIAR S.A.,527.0,4.0,5000.0,712.0," 5521,000",2014-11-11,2017-11-12,2A,Fumigación,3.0,50,50568,2016
9DO,,TALANQUERA,Puerto López,Meta,Aeródromo,4.141,-73.032,FERNANDO TOVAR TAMAYO,COMERCIALIZADORA ECO,37.0,7.0,2000.0,179.0," 6016,000",2012-10-23,,1A,Fumigación,0.0,50,50573,2014
9DO,,TALANQUERA,Puerto López,Meta,Aeródromo,4.141,-73.032,FERNANDO TOVAR TAMAYO,COMERCIALIZADORA ECO,28.0,2.0,2000.0,179.0," 6016,000",2012-10-23,,1A,Aerocivil,0.0,50,50573,2015
9DO,,TALANQUERA,Puerto López,Meta,Aeródromo,4.141,-73.032,FERNANDO TOVAR TAMAYO,COMERCIALIZADORA ECO,4.0,1.0,2000.0,179.0," 6016,000",2012-10-23,,1A,Público,0.0,50,50573,2016
9LD,,LA LUCHA,Ciénaga,Magdalena,Aeródromo,10.97,-74.1833,FUMIGARAY S.A.,FUMIGARAY S.A.,384.0,19.0,3600.0,567.0," 5967,000",2014-12-15,,1A,Aerocivil,0.0,47,47189,2014
9LD,,LA LUCHA,Ciénaga,Magdalena,Aeródromo,10.97,-74.1833,FUMIGARAY S.A.,FUMIGARAY S.A.,110.0,29.0,3600.0,567.0," 5967,000",2014-12-15,,1A,Fumigación,0.0,47,47189,2015
9LD,,LA LUCHA,Ciénaga,Magdalena,Aeródromo,10.97,-74.1833,FUMIGARAY S.A.,FUMIGARAY S.A.,85.0,30.0,3600.0,567.0," 5967,000",2014-12-15,,1A,Público,0.0,47,47189,2016
9LG,,VILLA GEORGINA,Tauramena,Casanare,Aeródromo,4.3625,-74.3214,SANTIAGO PULIDO NIÑO,COMERCIALIZAD. ECO,238.0,14.0,2000.0,594.0,,2012-10-16,,1A,Aerocivil,0.0,85,85410,2014
9LG,,VILLA GEORGINA,Tauramena,Casanare,Aeródromo,4.3625,-74.3214,SANTIAGO PULIDO NIÑO,COMERCIALIZAD. ECO,60.0,14.0,2000.0,594.0,,2012-10-16,,1A,Público,0.0,85,85410,2015
9LG,,VILLA GEORGINA,Tauramena,Casanare,Aeródromo,4.3625,-74.3214,SANTIAGO PULIDO NIÑO,COMERCIALIZAD. ECO,0.0,27.0,2000.0,594.0,,2012-10-16,,1A,Privado,0.0,85,85410,2016
9LH,,INGENIO PICHICHI,Guacarí,Valle del Cauca,Aeródromo,3.5347,-76.1653,INGENIO PICHICHI S.A.,INGENIO PICHICHI,437.0,10.0,500.0,3215.0," 2951,000",2013-06-20,2015-08-05,1A,Público,0.0,76,76318,2014
9LH,,INGENIO PICHICHI,Guacarí,Valle del Cauca,Aeródromo,3.5347,-76.1653,INGENIO PICHICHI S.A.,INGENIO PICHICHI,572.0,13.0,500.0,3215.0," 2951,000",2013-06-20,2015-08-05,1A,Público,0.0,76,76318,2015
9LH,,INGENIO PICHICHI,Guacarí,Valle del Cauca,Aeródromo,3.5347,-76.1653,INGENIO PICHICHI S.A.,INGENIO PICHICHI,1123.0,22.0,500.0,3215.0," 2951,000",2013-06-20,2015-08-05,1A,Aerocivil,0.0,76,76318,2016
9LI,,SAN SEBASTIAN,Cabuyaro,Meta,Aeródromo,4.3356,-72.7803,NELLY ZARATE,AEROTEC LTDA.,1401.0,19.0,2000.0,680.0," 4738,000",2012-08-20,,1A,Fumigación,3.0,50,50124,2014
9LI,,SAN SEBASTIAN,Cabuyaro,Meta,Aeródromo,4.3356,-72.7803,NELLY ZARATE,AEROTEC LTDA.,1598.0,35.0,2000.0,680.0," 4738,000",2012-08-20,,1A,Privado,0.0,50,50124,2015
9LI,,SAN SEBASTIAN,Cabuyaro,Meta,Aeródromo,4.3356,-72.7803,NELLY ZARATE,AEROTEC LTDA.,2808.0,44.0,2000.0,680.0," 4738,000",2012-08-20,,1A,Privado,0.0,50,50124,2016
9LJ,,EL COROZO,Arauca,Arauca,Aeródromo,6.9136,-70.8562,NEBIO ECHEVERRY,FUMIVILLA,860.0,11.0,2000.0,416.0," 2141,000",2013-05-16,,1A,Privado,0.0,81,81001,2014
9LJ,,EL COROZO,Arauca,Arauca,Aeródromo,6.9136,-70.8562,NEBIO ECHEVERRY,FUMIVILLA,1692.0,13.0,2000.0,416.0," 2141,000",2013-05-16,,1A,Público,0.0,81,81001,2015
9LJ,,EL COROZO,Arauca,Arauca,Aeródromo,6.9136,-70.8562,NEBIO ECHEVERRY,FUMIVILLA,2929.0,20.0,2000.0,416.0," 2141,000",2013-05-16,,1A,Privado,0.0,81,81001,2016
9LK,,HATO VIEJO,Arauca,Arauca,Aeródromo,6.8964,-70.7791,COMERCIALIZADORA EL PROVEEDOR LTDA.,FUMIVILLA,1457.0,2.0,2000.0,416.0," 2141,000",2013-05-16,,1A,Público,0.0,81,81001,2014
9LK,,HATO VIEJO,Arauca,Arauca,Aeródromo,6.8964,-70.7791,COMERCIALIZADORA EL PROVEEDOR LTDA.,FUMIVILLA,2802.0,1.0,2000.0,416.0," 2141,000",2013-05-16,,1A,Privado,0.0,81,81001,2015
9LK,,HATO VIEJO,Arauca,Arauca,Aeródromo,6.8964,-70.7791,COMERCIALIZADORA EL PROVEEDOR LTDA.,FUMIVILLA,5282.0,0.0,2000.0,416.0," 2141,000",2013-05-16,,1A,Privado,0.0,81,81001,2016
9LL,,CIENFUEGOS,Paz de Ariporo,Casanare,Aeródromo,5.5831,-71.7289,JAIRO GRANADOS CEIJA,SAO E.U.,39.0,1.0,2000.0,574.0," 1315,000",2014-03-13,,1A,Privado,0.0,85,85250,2014
9LL,,CIENFUEGOS,Paz de Ariporo,Casanare,Aeródromo,5.5831,-71.7289,JAIRO GRANADOS CEIJA,SAO E.U.,16.0,1.0,2000.0,574.0," 1315,000",2014-03-13,,1A,Fumigación,0.0,85,85250,2015
9LL,,CIENFUEGOS,Paz de Ariporo,Casanare,Aeródromo,5.5831,-71.7289,JAIRO GRANADOS CEIJA,SAO E.U.,15.0,0.0,2000.0,574.0," 1315,000",2014-03-13,,1A,Privado,0.0,85,85250,2016
9LN,,GUADUALITO,Nunchía,Casanare,Aeródromo,5.4593,-71.912,CUPERTINO CUEVAS D.,SANAR S.A.,453.0,16.0,3000.0,639.0," 4943,000",2012-09-06,,1A,Privado,0.0,85,85225,2014
9LN,,GUADUALITO,Nunchía,Casanare,Aeródromo,5.4593,-71.912,CUPERTINO CUEVAS D.,SANAR S.A.,419.0,19.0,3000.0,639.0," 4943,000",2012-09-06,,1A,Aerocivil,0.0,85,85225,2015
9LN,,GUADUALITO,Nunchía,Casanare,Aeródromo,5.4593,-71.912,CUPERTINO CUEVAS D.,SANAR S.A.,173.0,25.0,3000.0,639.0," 4943,000",2012-09-06,,1A,Aerocivil,0.0,85,85225,2016
9LP,,LA REDENCION,Pore,Casanare,Aeródromo,5.6618,-71.8088,MARIA DEL S. MONTOYA,FRANCISCO H. MARTINEZ,1205.0,20.0,2000.0,636.0," 3053,000",2013-06-26,,1A,Aerocivil,0.0,85,85263,2014
9LP,,LA REDENCION,Pore,Casanare,Aeródromo,5.6618,-71.8088,MARIA DEL S. MONTOYA,FRANCISCO H. MARTINEZ,2409.0,27.0,2000.0,636.0," 3053,000",2013-06-26,,1A,Fumigación,0.0,85,85263,2015
9LP,,LA REDENCION,Pore,Casanare,Aeródromo,5.6618,-71.8088,MARIA DEL S. MONTOYA,FRANCISCO H. MARTINEZ,3695.0,52.0,2000.0,636.0," 3053,000",2013-06-26,,1A,Fumigación,0.0,85,85263,2016
9LQ,,LA PONDEROSA,Puerto Gaitán,Meta,Aeródromo,4.6316,-71.2141,MONICA COLOMBIA LTDA.,MONICA COLOMBIA LTDA,671.0,14.0,3000.0,537.0," 5243,000",2012-09-19,,2A,Aerocivil,12.0,50,50568,2014
9LQ,,LA PONDEROSA,Puerto Gaitán,Meta,Aeródromo,4.6316,-71.2141,MONICA COLOMBIA LTDA.,MONICA COLOMBIA LTDA,212.0,2.0,3000.0,537.0," 5243,000",2012-09-19,,2A,Privado,0.0,50,50568,2015
9LQ,,LA PONDEROSA,Puerto Gaitán,Meta,Aeródromo,4.6316,-71.2141,MONICA COLOMBIA LTDA.,MONICA COLOMBIA LTDA,47.0,0.0,3000.0,537.0," 5243,000",2012-09-19,,2A,Público,0.0,50,50568,2016
9LR,,LOS REMANSOS,Cimitarra,Santander,Aeródromo,6.5729,-74.2195,NELLY VALENCIA,AEROPENORT LTDA.,406.0,8.0,3000.0,357.0," 4373,000",2009-08-21,2012-10-08,1A,Público,0.0,68,68190,2014
9LR,,LOS REMANSOS,Cimitarra,Santander,Aeródromo,6.5729,-74.2195,NELLY VALENCIA,AEROPENORT LTDA.,119.0,4.0,3000.0,357.0," 4373,000",2009-08-21,2012-10-08,1A,Fumigación,0.0,68,68190,2015
9LR,,LOS REMANSOS,Cimitarra,Santander,Aeródromo,6.5729,-74.2195,NELLY VALENCIA,AEROPENORT LTDA.,107.0,0.0,3000.0,357.0," 4373,000",2009-08-21,2012-10-08,1A,Público,0.0,68,68190,2016
9LS,,SAN LUIS,La Esperanza,Norte de Santander,Aeródromo,7.6382,-73.4381,CRIAGAN S.A.,AEROPENORT LTDA.,759.0,12.0,2000.0,308.0," 7389,000",2012-12-28,2016-02-12,1A,Público,0.0,54,54385,2014
9LS,,SAN LUIS,La Esperanza,Norte de Santander,Aeródromo,7.6382,-73.4381,CRIAGAN S.A.,AEROPENORT LTDA.,684.0,13.0,2000.0,308.0," 7389,000",2012-12-28,2016-02-12,1A,Aerocivil,0.0,54,54385,2015
9LS,,SAN LUIS,La Esperanza,Norte de Santander,Aeródromo,7.6382,-73.4381,CRIAGAN S.A.,AEROPENORT LTDA.,562.0,20.0,2000.0,308.0," 7389,000",2012-12-28,2016-02-12,1A,Aerocivil,0.0,54,54385,2016
9LT,,LOS GAVANES (LA MATA),Arauca,Arauca,Aeródromo,7.0093,-70.7743,FUMIGAR,FUMIVILLA,729.0,18.0,3000.0,416.0," 2141,000",2013-05-16,,1A,Público,0.0,81,81001,2014
9LT,,LOS GAVANES (LA MATA),Arauca,Arauca,Aeródromo,7.0093,-70.7743,FUMIGAR,FUMIVILLA,422.0,34.0,3000.0,416.0," 2141,000",2013-05-16,,1A,Aerocivil,0.0,81,81001,2015
9LT,,LOS GAVANES (LA MATA),Arauca,Arauca,Aeródromo,7.0093,-70.7743,FUMIGAR,FUMIVILLA,89.0,61.0,3000.0,416.0," 2141,000",2013-05-16,,1A,Fumigación,0.0,81,81001,2016
9LU,,EL RODEO,Tauramena,Casanare,Aeródromo,4.5772,-72.6914,JEREMIAS VACA RIAÑO,ASAM LTDA.,1402.0,3.0,2000.0,746.0," 6069,000",2012-10-25,,1A,Aerocivil,0.0,85,85410,2014
9LU,,EL RODEO,Tauramena,Casanare,Aeródromo,4.5772,-72.6914,JEREMIAS VACA RIAÑO,ASAM LTDA.,2100.0,3.0,2000.0,746.0," 6069,000",2012-10-25,,1A,Público,0.0,85,85410,2015
9LU,,EL RODEO,Tauramena,Casanare,Aeródromo,4.5772,-72.6914,JEREMIAS VACA RIAÑO,ASAM LTDA.,3940.0,1.0,2000.0,746.0," 6069,000",2012-10-25,,1A,Público,0.0,85,85410,2016
9LW,,EL PALMAR,Nunchía,Casanare,Aeródromo,5.396,-71.9116,MAURICIO MEDINA NIÑO,FIBA S.A.,962.0,17.0,3000.0,629.0,"  472,000",2013-02-13,,1A,Privado,8.0,85,85225,2014
9LW,,EL PALMAR,Nunchía,Casanare,Aeródromo,5.396,-71.9116,MAURICIO MEDINA NIÑO,FIBA S.A.,1451.0,30.0,3000.0,629.0,"  472,000",2013-02-13,,1A,Público,12.0,85,85225,2015
9LW,,EL PALMAR,Nunchía,Casanare,Aeródromo,5.396,-71.9116,MAURICIO MEDINA NIÑO,FIBA S.A.,1851.0,58.0,3000.0,629.0,"  472,000",2013-02-13,,1A,Privado,19.0,85,85225,2016
9LX,,LA GAITANA,Cabuyaro,Meta,Aeródromo,4.2253,-73.0298,P.VICENTE PERALES,FACOL LTDA.,737.0,18.0,4500.0,627.0," 1844,000",2013-04-26,,1A,Público,0.0,50,50124,2014
9LX,,LA GAITANA,Cabuyaro,Meta,Aeródromo,4.2253,-73.0298,P.VICENTE PERALES,FACOL LTDA.,52.0,35.0,4500.0,627.0," 1844,000",2013-04-26,,1A,Privado,0.0,50,50124,2015
9LX,,LA GAITANA,Cabuyaro,Meta,Aeródromo,4.2253,-73.0298,P.VICENTE PERALES,FACOL LTDA.,1.0,40.0,4500.0,627.0," 1844,000",2013-04-26,,1A,Fumigación,0.0,50,50124,2016
9LY,,SAN ISIDRO II,Cumaral,Meta,Aeródromo,4.1585,-73.3408,MARIA A PACHE OCHOA,MARIA A. PACHECO O.,726.0,12.0,2000.0,175.0," 4730,000",2013-09-06,,1A,Fumigación,0.0,50,50226,2014
9LY,,SAN ISIDRO II,Cumaral,Meta,Aeródromo,4.1585,-73.3408,MARIA A PACHE OCHOA,MARIA A. PACHECO O.,256.0,15.0,2000.0,175.0," 4730,000",2013-09-06,,1A,Privado,0.0,50,50226,2015
9LY,,SAN ISIDRO II,Cumaral,Meta,Aeródromo,4.1585,-73.3408,MARIA A PACHE OCHOA,MARIA A. PACHECO O.,76.0,22.0,2000.0,175.0," 4730,000",2013-09-06,,1A,Aerocivil,0.0,50,50226,2016
9LZ,,GABRIELAS,Jamundí,Valle del Cauca,Aeródromo,3.1797,-76.5507,HAROLD BENAVIDEZ,FIBA S.A.,55.0,22.0,3000.0,3215.0," 1129,000",2015-05-14,2018-07-06,1A,Aerocivil,0.0,76,76364,2015
9LZ,,GABRIELAS,Jamundí,Valle del Cauca,Aeródromo,3.1797,-76.5507,HAROLD BENAVIDEZ,FIBA S.A.,46.0,36.0,3000.0,3215.0," 1129,000",2015-05-14,2018-07-06,1A,Privado,0.0,76,76364,2016
9MA,,EL DELIRIO,Arauca,Arauca,Aeródromo,6.9831,-70.882,CARMEN A. CABEZAS PEREZ,FUMIVILLA,1158.0,3.0,3000.0,430.0," 5180,000",2011-09-20,2014-10-11,1A,Privado,0.0,81,81001,2014
9MA,,EL DELIRIO,Arauca,Arauca,Aeródromo,6.9831,-70.882,CARMEN A. CABEZAS PEREZ,FUMIVILLA,1544.0,0.0,3000.0,430.0," 5180,000",2011-09-20,2014-10-11,1A,Privado,0.0,81,81001,2015
9MA,,EL DELIRIO,Arauca,Arauca,Aeródromo,6.9831,-70.882,CARMEN A. CABEZAS PEREZ,FUMIVILLA,2474.0,0.0,3000.0,430.0," 5180,000",2011-09-20,2014-10-11,1A,Fumigación,0.0,81,81001,2016
9MB,,EL TRIANGULO,Fundación,Magdalena,Aeródromo,10.318,-74.0252,GANADERIA EL TRIANGULO,GANADERIA EL TRIANGULO,816.0,23.0,2000.0,196.0,"  172,000",2015-01-27,,1A,Aerocivil,0.0,47,47288,2015
9MB,,EL TRIANGULO,Fundación,Magdalena,Aeródromo,10.318,-74.0252,GANADERIA EL TRIANGULO,GANADERIA EL TRIANGULO,1248.0,31.0,2000.0,196.0,"  172,000",2015-01-27,,1A,Privado,0.0,47,47288,2016
9MC,,LA MONICA,Tauramena,Casanare,Aeródromo,4.6856,-72.6005,MAURICIO TORRES CUBIDES,ASAM LTDA.,1530.0,10.0,2000.0,554.0," 4896,000",2011-09-06,,1A,Público,0.0,85,85410,2014
9MC,,LA MONICA,Tauramena,Casanare,Aeródromo,4.6856,-72.6005,MAURICIO TORRES CUBIDES,ASAM LTDA.,2529.0,16.0,2000.0,554.0," 4896,000",2011-09-06,,1A,Fumigación,0.0,85,85410,2015
9MC,,LA MONICA,Tauramena,Casanare,Aeródromo,4.6856,-72.6005,MAURICIO TORRES CUBIDES,ASAM LTDA.,3163.0,21.0,2000.0,554.0," 4896,000",2011-09-06,,1A,Aerocivil,0.0,85,85410,2016
9MD,,LA ABEJITA,Monterrey,Casanare,Aeródromo,5.0095,-72.3234,JOSE A. VARGAS P.,AGIL LTDA.,441.0,12.0,2000.0,682.0," 5479,000",2011-09-30,2014-11-09,1A,Aerocivil,0.0,85,85162,2014
9MD,,LA ABEJITA,Monterrey,Casanare,Aeródromo,5.0095,-72.3234,JOSE A. VARGAS P.,AGIL LTDA.,207.0,23.0,2000.0,682.0," 5479,000",2011-09-30,2014-11-09,1A,Privado,0.0,85,85162,2015
9MD,,LA ABEJITA,Monterrey,Casanare,Aeródromo,5.0095,-72.3234,JOSE A. VARGAS P.,AGIL LTDA.,0.0,29.0,2000.0,682.0," 5479,000",2011-09-30,2014-11-09,1A,Aerocivil,0.0,85,85162,2016
9ME,,CACHIMBALITO - CA,Santander de Quilichao,Cauca,Aeródromo,3.1653,-76.4738,INCAUCA,INCAUCA.S.A. - ASOCAÑA,439.0,16.0,500.0,3241.0," 2956,000",2013-06-20,2015-08-05,1A,Fumigación,0.0,19,19698,2014
9ME,,CACHIMBALITO - CA,Santander de Quilichao,Cauca,Aeródromo,3.1653,-76.4738,INCAUCA,INCAUCA.S.A. - ASOCAÑA,540.0,29.0,500.0,3241.0," 2956,000",2013-06-20,2015-08-05,1A,Privado,0.0,19,19698,2015
9ME,,CACHIMBALITO - CA,Santander de Quilichao,Cauca,Aeródromo,3.1653,-76.4738,INCAUCA,INCAUCA.S.A. - ASOCAÑA,542.0,54.0,500.0,3241.0," 2956,000",2013-06-20,2015-08-05,1A,Privado,0.0,19,19698,2016
9MG,,MADREVIEJA,Nunchía,Casanare,Aeródromo,5.4623,-71.9584,CELMIRA BARRAGAN F.,CELMIRA BARRAGAN F.,544.0,5.0,2000.0,640.0," 4509,000",2012-08-16,,1A,Público,0.0,85,85225,2014
9MG,,MADREVIEJA,Nunchía,Casanare,Aeródromo,5.4623,-71.9584,CELMIRA BARRAGAN F.,CELMIRA BARRAGAN F.,89.0,2.0,2000.0,640.0," 4509,000",2012-08-16,,1A,Aerocivil,0.0,85,85225,2015
9MG,,MADREVIEJA,Nunchía,Casanare,Aeródromo,5.4623,-71.9584,CELMIRA BARRAGAN F.,CELMIRA BARRAGAN F.,23.0,2.0,2000.0,640.0," 4509,000",2012-08-16,,1A,Privado,0.0,85,85225,2016
9MH,,SAN JUAN,San Martín,Meta,Aeródromo,3.7017,-73.3774,RODOLFO MENDEZ,MARIA A. PACHECO O.,1068.0,1.0,2000.0,870.0," 1840,000",2013-04-26,2016-05-03,1A,Aerocivil,0.0,50,50689,2014
9MH,,SAN JUAN,San Martín,Meta,Aeródromo,3.7017,-73.3774,RODOLFO MENDEZ,MARIA A. PACHECO O.,1268.0,0.0,2000.0,870.0," 1840,000",2013-04-26,2016-05-03,1A,Fumigación,0.0,50,50689,2015
9MH,,SAN JUAN,San Martín,Meta,Aeródromo,3.7017,-73.3774,RODOLFO MENDEZ,MARIA A. PACHECO O.,2423.0,0.0,2000.0,870.0," 1840,000",2013-04-26,2016-05-03,1A,Aerocivil,0.0,50,50689,2016
9MI,,LA FORTUNA,Puerto López,Meta,Aeródromo,4.1028,-72.978,SAAC S.A.S,SAAC S.A.S,1431.0,2.0,3000.0,690.0,,2012-04-03,2012-07-03,1A,Privado,0.0,50,50573,2014
9MI,,LA FORTUNA,Puerto López,Meta,Aeródromo,4.1028,-72.978,SAAC S.A.S,SAAC S.A.S,2685.0,1.0,3000.0,690.0,,2012-04-03,2012-07-03,1A,Fumigación,0.0,50,50573,2015
9MI,,LA FORTUNA,Puerto López,Meta,Aeródromo,4.1028,-72.978,SAAC S.A.S,SAAC S.A.S,4646.0,0.0,3000.0,690.0,,2012-04-03,2012-07-03,1A,Privado,0.0,50,50573,2016
9MJ,,AGROFORESTAL MATA AZUL,Santa Rosalía,Vichada,Aeródromo,5.2897,-70.6337,,RIOPAILA CASTILLA S.A.,1489.0,29.0,6500.0,118.0," 1478,000",2012-03-23,,1A,Público,0.0,99,99624,2014
9MJ,,AGROFORESTAL MATA AZUL,Santa Rosalía,Vichada,Aeródromo,5.2897,-70.6337,,RIOPAILA CASTILLA S.A.,2162.0,43.0,6500.0,118.0," 1478,000",2012-03-23,,1A,Privado,0.0,99,99624,2015
9MJ,,AGROFORESTAL MATA AZUL,Santa Rosalía,Vichada,Aeródromo,5.2897,-70.6337,,RIOPAILA CASTILLA S.A.,2515.0,49.0,6500.0,118.0," 1478,000",2012-03-23,,1A,Fumigación,0.0,99,99624,2016
9MK,,VILLA ISABELLA,Trinidad,Casanare,Aeródromo,5.2993,-71.3434,RAFAEL QUESADA,TAES LTDA.,1265.0,3.0,2000.0,620.0," 4313,000",2012-08-08,,1A,Privado,0.0,85,85430,2014
9MK,,VILLA ISABELLA,Trinidad,Casanare,Aeródromo,5.2993,-71.3434,RAFAEL QUESADA,TAES LTDA.,1939.0,2.0,2000.0,620.0," 4313,000",2012-08-08,,1A,Privado,0.0,85,85430,2015
9MK,,VILLA ISABELLA,Trinidad,Casanare,Aeródromo,5.2993,-71.3434,RAFAEL QUESADA,TAES LTDA.,2984.0,1.0,2000.0,620.0," 4313,000",2012-08-08,,1A,Público,0.0,85,85430,2016
9ML,,MIRADOR,Trinidad,Casanare,Aeródromo,5.4326,-71.6009,ANGELICA VEGA,TAES LTDA.,914.0,13.0,2000.0,620.0," 4314,000",2012-08-08,,1A,Fumigación,0.0,85,85430,2014
9ML,,MIRADOR,Trinidad,Casanare,Aeródromo,5.4326,-71.6009,ANGELICA VEGA,TAES LTDA.,1666.0,17.0,2000.0,620.0," 4314,000",2012-08-08,,1A,Público,0.0,85,85430,2015
9ML,,MIRADOR,Trinidad,Casanare,Aeródromo,5.4326,-71.6009,ANGELICA VEGA,TAES LTDA.,2129.0,30.0,2000.0,620.0," 4314,000",2012-08-08,,1A,Fumigación,0.0,85,85430,2016
9MM,,EL CARIBE,Paz de Ariporo,Casanare,Aeródromo,5.7198,-71.4963,REGULO GAMA OJEDA,FARO LTDA.,437.0,0.0,2000.0,585.0," 1684,000",2013-04-18,2016-05-03,1A,Fumigación,0.0,85,85250,2014
9MM,,EL CARIBE,Paz de Ariporo,Casanare,Aeródromo,5.7198,-71.4963,REGULO GAMA OJEDA,FARO LTDA.,131.0,0.0,2000.0,585.0," 1684,000",2013-04-18,2016-05-03,1A,Aerocivil,0.0,85,85250,2015
9MM,,EL CARIBE,Paz de Ariporo,Casanare,Aeródromo,5.7198,-71.4963,REGULO GAMA OJEDA,FARO LTDA.,53.0,0.0,2000.0,585.0," 1684,000",2013-04-18,2016-05-03,1A,Privado,0.0,85,85250,2016
9MN,,EL PEDRAL BONANZA,Puerto Wilches,Santander,Aeródromo,7.2417,-73.8151,,AEROPENORT LTDA.,884.0,0.0,3000.0,282.0,,2012-05-07,2012-08-07,1A,Aerocivil,0.0,68,68575,2014
9MN,,EL PEDRAL BONANZA,Puerto Wilches,Santander,Aeródromo,7.2417,-73.8151,,AEROPENORT LTDA.,1146.0,0.0,3000.0,282.0,,2012-05-07,2012-08-07,1A,Privado,0.0,68,68575,2015
9MN,,EL PEDRAL BONANZA,Puerto Wilches,Santander,Aeródromo,7.2417,-73.8151,,AEROPENORT LTDA.,1150.0,0.0,3000.0,282.0,,2012-05-07,2012-08-07,1A,Público,0.0,68,68575,2016
9MO,,SAN NICOLAS,Tauramena,Casanare,Aeródromo,4.4703,-72.4575,CARLOS E. CONTRERAS,ASAM LTDA.,963.0,19.0,2000.0,585.0," 4510,000",2012-08-16,,1A,Privado,0.0,85,85410,2014
9MO,,SAN NICOLAS,Tauramena,Casanare,Aeródromo,4.4703,-72.4575,CARLOS E. CONTRERAS,ASAM LTDA.,1863.0,22.0,2000.0,585.0," 4510,000",2012-08-16,,1A,Público,0.0,85,85410,2015
9MO,,SAN NICOLAS,Tauramena,Casanare,Aeródromo,4.4703,-72.4575,CARLOS E. CONTRERAS,ASAM LTDA.,2268.0,23.0,2000.0,585.0," 4510,000",2012-08-16,,1A,Aerocivil,0.0,85,85410,2016
9MP,,LOS LOBOS,Tauramena,Casanare,Aeródromo,4.4748,-72.7478,AGROVIMART S.A.,AGIL LTDA.,561.0,13.0,3000.0,580.0," 1685,000",2013-04-18,2016-05-03,1A,Privado,0.0,85,85410,2014
9MP,,LOS LOBOS,Tauramena,Casanare,Aeródromo,4.4748,-72.7478,AGROVIMART S.A.,AGIL LTDA.,439.0,21.0,3000.0,580.0," 1685,000",2013-04-18,2016-05-03,1A,Aerocivil,0.0,85,85410,2015
9MP,,LOS LOBOS,Tauramena,Casanare,Aeródromo,4.4748,-72.7478,AGROVIMART S.A.,AGIL LTDA.,299.0,33.0,3000.0,580.0," 1685,000",2013-04-18,2016-05-03,1A,Privado,0.0,85,85410,2016
9MQ,,EL RASTRO,Cumaribo,Vichada,Aeródromo,4.7022,-70.8617,EL RASTRO 1 S.A.S.,EL RASTRO  1 S.A.S,1025.0,17.0,2000.0,545.0," 7391,000",2012-12-28,,1A,Público,0.0,99,99773,2014
9MQ,,EL RASTRO,Cumaribo,Vichada,Aeródromo,4.7022,-70.8617,EL RASTRO 1 S.A.S.,EL RASTRO  1 S.A.S,1939.0,30.0,2000.0,545.0," 7391,000",2012-12-28,,1A,Aerocivil,0.0,99,99773,2015
9MQ,,EL RASTRO,Cumaribo,Vichada,Aeródromo,4.7022,-70.8617,EL RASTRO 1 S.A.S.,EL RASTRO  1 S.A.S,3670.0,38.0,2000.0,545.0," 7391,000",2012-12-28,,1A,Aerocivil,0.0,99,99773,2016
9MR,,LOS GANSOS,Cumaribo,Vichada,Aeródromo,4.6764,-70.9997,LOS GANSOS 1 S.A.S.,LOS GANSOS 1 S.AS.,359.0,79.0,2000.0,544.0," 7390,000",2012-12-28,,1A,Fumigación,0.0,99,99773,2014
9MR,,LOS GANSOS,Cumaribo,Vichada,Aeródromo,4.6764,-70.9997,LOS GANSOS 1 S.A.S.,LOS GANSOS 1 S.AS.,284.0,113.0,2000.0,544.0," 7390,000",2012-12-28,,1A,Fumigación,0.0,99,99773,2015
9MR,,LOS GANSOS,Cumaribo,Vichada,Aeródromo,4.6764,-70.9997,LOS GANSOS 1 S.A.S.,LOS GANSOS 1 S.AS.,214.0,147.0,2000.0,544.0," 7390,000",2012-12-28,,1A,Fumigación,0.0,99,99773,2016
9MS,,BETANIA,Trinidad,Casanare,Aeródromo,5.5319,-71.6812,DIOSELINO ACOSTA,SAO E.U.,778.0,5.0,2000.0,2030.0," 1216,000",2013-03-20,,1A,Público,0.0,85,85430,2014
9MS,,BETANIA,Trinidad,Casanare,Aeródromo,5.5319,-71.6812,DIOSELINO ACOSTA,SAO E.U.,773.0,1.0,2000.0,2030.0," 1216,000",2013-03-20,,1A,Privado,0.0,85,85430,2015
9MS,,BETANIA,Trinidad,Casanare,Aeródromo,5.5319,-71.6812,DIOSELINO ACOSTA,SAO E.U.,397.0,0.0,2000.0,2030.0," 1216,000",2013-03-20,,1A,Fumigación,0.0,85,85430,2016
9MT,,AGUAS CLARAS,Sabana de Torres,Santander,Aeródromo,7.2731,-73.5626,EDGAR MEZA ORTIZ,EDGAR MEZA ORTIZ,161.0,4.0,2500.0,652.0," 1681,000",2013-04-18,,1A,Fumigación,0.0,68,68655,2014
9MT,,AGUAS CLARAS,Sabana de Torres,Santander,Aeródromo,7.2731,-73.5626,EDGAR MEZA ORTIZ,EDGAR MEZA ORTIZ,42.0,1.0,2500.0,652.0," 1681,000",2013-04-18,,1A,Privado,0.0,68,68655,2015
9MT,,AGUAS CLARAS,Sabana de Torres,Santander,Aeródromo,7.2731,-73.5626,EDGAR MEZA ORTIZ,EDGAR MEZA ORTIZ,8.0,1.0,2500.0,652.0," 1681,000",2013-04-18,,1A,Privado,0.0,68,68655,2016
9MV,,MARIA JUANA,Aguazul,Casanare,Aeródromo,5.0054,-72.3959,BLANCA E. BULLA PULIDO,SAAC S.A.S.,950.0,4.0,2000.0,1191.0," 2137,000",2014-04-25,,1A,Público,0.0,85,85010,2014
9MV,,MARIA JUANA,Aguazul,Casanare,Aeródromo,5.0054,-72.3959,BLANCA E. BULLA PULIDO,SAAC S.A.S.,1406.0,3.0,2000.0,1191.0," 2137,000",2014-04-25,,1A,Fumigación,0.0,85,85010,2015
9MV,,MARIA JUANA,Aguazul,Casanare,Aeródromo,5.0054,-72.3959,BLANCA E. BULLA PULIDO,SAAC S.A.S.,2176.0,2.0,2000.0,1191.0," 2137,000",2014-04-25,,1A,Público,0.0,85,85010,2016
9MW,,LAS NUBES,Puerto Gaitán,Meta,Aeródromo,4.2563,-71.7977,AGMO NUBES INVER.S.A.S,AGMO NUBES INVERSIONES,263.0,30.0,4500.0,1030.0," 1942,000",2013-05-03,2016-05-08,1A,Fumigación,2.0,50,50568,2014
9MW,,LAS NUBES,Puerto Gaitán,Meta,Aeródromo,4.2563,-71.7977,AGMO NUBES INVER.S.A.S,AGMO NUBES INVERSIONES,253.0,35.0,4500.0,1030.0," 1942,000",2013-05-03,2016-05-08,1A,Público,2.0,50,50568,2015
9MW,,LAS NUBES,Puerto Gaitán,Meta,Aeródromo,4.2563,-71.7977,AGMO NUBES INVER.S.A.S,AGMO NUBES INVERSIONES,201.0,43.0,4500.0,1030.0," 1942,000",2013-05-03,2016-05-08,1A,Privado,1.0,50,50568,2016
9MX,,EL SILENCIO,Paz de Ariporo,Casanare,Aeródromo,5.7555,-71.6583,PEDRO A. VARGAS BECERRA,AEROTEC LTDA.,960.0,7.0,2000.0,577.0," 2130,000",2014-04-25,,1A,Fumigación,0.0,85,85250,2014
9MX,,EL SILENCIO,Paz de Ariporo,Casanare,Aeródromo,5.7555,-71.6583,PEDRO A. VARGAS BECERRA,AEROTEC LTDA.,1394.0,6.0,2000.0,577.0," 2130,000",2014-04-25,,1A,Fumigación,0.0,85,85250,2015
9MX,,EL SILENCIO,Paz de Ariporo,Casanare,Aeródromo,5.7555,-71.6583,PEDRO A. VARGAS BECERRA,AEROTEC LTDA.,2653.0,3.0,2000.0,577.0," 2130,000",2014-04-25,,1A,Privado,0.0,85,85250,2016
9MY,,AFGANISTAN,Paz de Ariporo,Casanare,Aeródromo,5.886,-71.408,JOSE IVAN CORTES P.,SANDRA PATRICIA YATE,1700.0,14.0,2000.0,577.0," 2131,000",2014-04-25,2017-05-06,1A,Público,0.0,85,85250,2014
9MY,,AFGANISTAN,Paz de Ariporo,Casanare,Aeródromo,5.886,-71.408,JOSE IVAN CORTES P.,SANDRA PATRICIA YATE,1765.0,22.0,2000.0,577.0," 2131,000",2014-04-25,2017-05-06,1A,Fumigación,0.0,85,85250,2015
9MY,,AFGANISTAN,Paz de Ariporo,Casanare,Aeródromo,5.886,-71.408,JOSE IVAN CORTES P.,SANDRA PATRICIA YATE,2265.0,33.0,2000.0,577.0," 2131,000",2014-04-25,2017-05-06,1A,Privado,0.0,85,85250,2016
9MZ,,LA FORTALEZA,Paz de Ariporo,Casanare,Aeródromo,5.7953,-71.7571,HENRY MARTINEZ C.,FAAC S.A.S.,1594.0,1.0,2000.0,640.0," 4938,000",2014-09-22,,1A,Público,0.0,85,85250,2014
9MZ,,LA FORTALEZA,Paz de Ariporo,Casanare,Aeródromo,5.7953,-71.7571,HENRY MARTINEZ C.,FAAC S.A.S.,2439.0,1.0,2000.0,640.0," 4938,000",2014-09-22,,1A,Aerocivil,0.0,85,85250,2015
9MZ,,LA FORTALEZA,Paz de Ariporo,Casanare,Aeródromo,5.7953,-71.7571,HENRY MARTINEZ C.,FAAC S.A.S.,4291.0,1.0,2000.0,640.0," 4938,000",2014-09-22,,1A,Privado,0.0,85,85250,2016
9NA,,LOS GUIRES,Hato Corozal,Casanare,Aeródromo,6.1853,-71.521,EDISON DELGADO,FAAC S.A.S.,1091.0,18.0,2000.0,538.0," 4938,000",2014-09-22,,1A,Fumigación,0.0,85,85125,2014
9NA,,LOS GUIRES,Hato Corozal,Casanare,Aeródromo,6.1853,-71.521,EDISON DELGADO,FAAC S.A.S.,1984.0,26.0,2000.0,538.0," 4938,000",2014-09-22,,1A,Privado,0.0,85,85125,2015
9NA,,LOS GUIRES,Hato Corozal,Casanare,Aeródromo,6.1853,-71.521,EDISON DELGADO,FAAC S.A.S.,2441.0,50.0,2000.0,538.0," 4938,000",2014-09-22,,1A,Aerocivil,0.0,85,85125,2016
9NB,,LAS PALMAS,La Gloria,Cesar,Aeródromo,8.5803,-73.6619,NAVIAGRI - NAVILOG S.A.,CELTA LTDA.,861.0,20.0,2500.0,554.0," 5531,000",2014-11-11,,1A,Fumigación,0.0,20,20383,2014
9NB,,LAS PALMAS,La Gloria,Cesar,Aeródromo,8.5803,-73.6619,NAVIAGRI - NAVILOG S.A.,CELTA LTDA.,549.0,25.0,2500.0,554.0," 5531,000",2014-11-11,,1A,Aerocivil,0.0,20,20383,2015
9NB,,LAS PALMAS,La Gloria,Cesar,Aeródromo,8.5803,-73.6619,NAVIAGRI - NAVILOG S.A.,CELTA LTDA.,438.0,40.0,2500.0,554.0," 5531,000",2014-11-11,,1A,Privado,0.0,20,20383,2016
9NC,,LA DALIA,Arauca,Arauca,Aeródromo,6.9687,-70.962,HORACIO E. MARTINEZ G.,HORACIO E. MARTINEZ G.,1220.0,20.0,2500.0,390.0,"  438,000",2015-02-27,2018-03-03,1A,Privado,0.0,81,81001,2015
9NC,,LA DALIA,Arauca,Arauca,Aeródromo,6.9687,-70.962,HORACIO E. MARTINEZ G.,HORACIO E. MARTINEZ G.,1331.0,21.0,2500.0,390.0,"  438,000",2015-02-27,2018-03-03,1A,Público,0.0,81,81001,2016
9ND,,VILLA VERONICA,Trinidad,Casanare,Aeródromo,5.3884,-71.5896,CRISTINA I. GONZALEZ,TAES LTDA.,739.0,5.0,2000.0,564.0,"  120,000",2015-01-21,2018-03-06,1A,Fumigación,0.0,85,85430,2015
9ND,,VILLA VERONICA,Trinidad,Casanare,Aeródromo,5.3884,-71.5896,CRISTINA I. GONZALEZ,TAES LTDA.,2.0,2.0,2000.0,564.0,"  120,000",2015-01-21,2018-03-06,1A,Público,0.0,85,85430,2016
9NE,,SAN CARLOS - CA,Tuluá,Valle del Cauca,Aeródromo,4.0588,-76.2704,MAYAGUEZ S.A.,MAYAGUEZ S.A.,349.0,10.0,500.0,3320.0,"  620,000",2015-03-19,,1A,Privado,0.0,76,76834,2015
9NE,,SAN CARLOS - CA,Tuluá,Valle del Cauca,Aeródromo,4.0588,-76.2704,MAYAGUEZ S.A.,MAYAGUEZ S.A.,436.0,7.0,500.0,3320.0,"  620,000",2015-03-19,,1A,Aerocivil,0.0,76,76834,2016
9NF,,RENSO,Trinidad,Casanare,Aeródromo,5.2417,-71.1909,MARTHA L. PAN A.,TAES LTDA.,517.0,13.0,2000.0,432.0,"  692,000",2015-03-31,,1A,Aerocivil,0.0,85,85430,2015
9NF,,RENSO,Trinidad,Casanare,Aeródromo,5.2417,-71.1909,MARTHA L. PAN A.,TAES LTDA.,88.0,24.0,2000.0,432.0,"  692,000",2015-03-31,,1A,Privado,0.0,85,85430,2016
9NG,,REMOLINOS,Puerto López,Meta,Aeródromo,4.2053,-72.6639,BLANCA E. BULLA PULIDO,ECO LTDA.,895.0,0.0,2000.0,586.0,"  835,000",2015-04-14,,1A,Público,0.0,50,50573,2015
9NG,,REMOLINOS,Puerto López,Meta,Aeródromo,4.2053,-72.6639,BLANCA E. BULLA PULIDO,ECO LTDA.,1711.0,0.0,2000.0,586.0,"  835,000",2015-04-14,,1A,Aerocivil,0.0,50,50573,2016
9NH,,LOS ARUCOS,Maní,Casanare,Aeródromo,4.9461,-72.2181,LUIS A. SANTOS,SAAC S.A.S.,354.0,11.0,2000.0,600.0,"  693,000",2015-03-31,,1A,Privado,0.0,85,85139,2015
9NH,,LOS ARUCOS,Maní,Casanare,Aeródromo,4.9461,-72.2181,LUIS A. SANTOS,SAAC S.A.S.,69.0,11.0,2000.0,600.0,"  693,000",2015-03-31,,1A,Privado,0.0,85,85139,2016
9NI,,LA BENDICION DE ARAUCA,Arauca,Arauca,Aeródromo,6.9496,-70.7562,AGROPECUARIA MARIPANATO SAS,HORACIO E. MARTINEZ G.,857.0,10.0,2500.0,410.0," 1126,000",2015-05-14,,1A,Aerocivil,0.0,81,81001,2015
9NI,,LA BENDICION DE ARAUCA,Arauca,Arauca,Aeródromo,6.9496,-70.7562,AGROPECUARIA MARIPANATO SAS,HORACIO E. MARTINEZ G.,1386.0,14.0,2500.0,410.0," 1126,000",2015-05-14,,1A,Privado,0.0,81,81001,2016
9NJ,,BELGRADO,Maní,Casanare,Aeródromo,4.3026,-72.3026,FLORINDA ADAN GARCIA,SAAC S.A.S.,1136.0,18.0,2000.0,682.0,"  834,000",2015-04-14,,1A,Privado,0.0,85,85139,2015
9NJ,,BELGRADO,Maní,Casanare,Aeródromo,4.3026,-72.3026,FLORINDA ADAN GARCIA,SAAC S.A.S.,1600.0,24.0,2000.0,682.0,"  834,000",2015-04-14,,1A,Privado,0.0,85,85139,2016
9NK,,MEXICO,Trinidad,Casanare,Aeródromo,5.495,-71.5189,CARLOS A. ARIZA,SAO S.A.S.,439.0,7.0,2000.0,568.0,"  997,000",2015-05-05,,1A,Público,0.0,85,85430,2015
9NK,,MEXICO,Trinidad,Casanare,Aeródromo,5.495,-71.5189,CARLOS A. ARIZA,SAO S.A.S.,70.0,2.0,2000.0,568.0,"  997,000",2015-05-05,,1A,Aerocivil,0.0,85,85430,2016
9NL,,EL TESORO,Trinidad,Casanare,Aeródromo,5.3072,-71.3732,RENSO AMAYA BECERRA,SAO S.A.S.,1558.0,6.0,2000.0,516.0," 1327,000",2015-06-05,2018-07-09,1A,Aerocivil,0.0,85,85430,2015
9NL,,EL TESORO,Trinidad,Casanare,Aeródromo,5.3072,-71.3732,RENSO AMAYA BECERRA,SAO S.A.S.,2555.0,3.0,2000.0,516.0," 1327,000",2015-06-05,2018-07-09,1A,Privado,0.0,85,85430,2016
A01,,CAMPO ALEGRE,Inírida,Guainía,Aeródromo,1.8653,-69.0101,GOBERNACION,GOBERNACION,831.0,28.0,2000.0,577.0," 1333,000",2013-03-26,,1A,Público,175.0,94,94001,2014
A01,,CAMPO ALEGRE,Inírida,Guainía,Aeródromo,1.8653,-69.0101,GOBERNACION,GOBERNACION,1438.0,34.0,2000.0,577.0," 1333,000",2013-03-26,,1A,Aerocivil,101.0,94,94001,2015
A01,,CAMPO ALEGRE,Inírida,Guainía,Aeródromo,1.8653,-69.0101,GOBERNACION,GOBERNACION,2341.0,50.0,2000.0,577.0," 1333,000",2013-03-26,,1A,Fumigación,33.0,94,94001,2016
A02,,CAÑO COLORADO,Inírida,Guainía,Aeródromo,2.2774,-68.3599,GOBERNACION,GOBERNACION,603.0,22.0,12202.0,413.0," 4419,000",2013-08-23,,1C,Público,6.0,94,94001,2014
A02,,CAÑO COLORADO,Inírida,Guainía,Aeródromo,2.2774,-68.3599,GOBERNACION,GOBERNACION,522.0,36.0,12202.0,413.0," 4419,000",2013-08-23,,1C,Aerocivil,3.0,94,94001,2015
A02,,CAÑO COLORADO,Inírida,Guainía,Aeródromo,2.2774,-68.3599,GOBERNACION,GOBERNACION,212.0,43.0,12202.0,413.0," 4419,000",2013-08-23,,1C,Aerocivil,0.0,94,94001,2016
A03,,FORTUL,Fortul,Arauca,Aeródromo,6.7817,-71.7791,GOBERNACION,MUNICIPIO,1330.0,20.0,4000.0,730.0," 2036,000",2010-04-23,,1A,Aerocivil,4.0,81,81300,2014
A03,,FORTUL,Fortul,Arauca,Aeródromo,6.7817,-71.7791,GOBERNACION,MUNICIPIO,2206.0,26.0,4000.0,730.0," 2036,000",2010-04-23,,1A,Público,7.0,81,81300,2015
A03,,FORTUL,Fortul,Arauca,Aeródromo,6.7817,-71.7791,GOBERNACION,MUNICIPIO,4245.0,49.0,4000.0,730.0," 2036,000",2010-04-23,,1A,Fumigación,7.0,81,81300,2016
A04,,SANTA ROSA DEL SUR,Santa Rosa del Sur,Bolívar,Aeródromo,7.9629,-76.034,MUNICIPIO,MUNICIPIO,1389.0,23.0,5000.0,61.0," 5959,000",2014-12-15,,1A,Fumigación,258.0,13,13688,2014
A04,,SANTA ROSA DEL SUR,Santa Rosa del Sur,Bolívar,Aeródromo,7.9629,-76.034,MUNICIPIO,MUNICIPIO,2558.0,43.0,5000.0,61.0," 5959,000",2014-12-15,,1A,Público,258.0,13,13688,2015
A04,,SANTA ROSA DEL SUR,Santa Rosa del Sur,Bolívar,Aeródromo,7.9629,-76.034,MUNICIPIO,MUNICIPIO,4040.0,82.0,5000.0,61.0," 5959,000",2014-12-15,,1A,Público,258.0,13,13688,2016
ABT,,AGUA BLANCA,Piedras,Tolima,Aeródromo,4.4656,-74.9948,SOCIEDAD CULTIVOS SAN JOSE,CRUZ VERDE,636.0,16.0,2000.0,1994.0," 4508,000",2012-08-18,2015-09-03,1A,Privado,29.0,73,73547,2014
ABT,,AGUA BLANCA,Piedras,Tolima,Aeródromo,4.4656,-74.9948,SOCIEDAD CULTIVOS SAN JOSE,CRUZ VERDE,481.0,21.0,2000.0,1994.0," 4508,000",2012-08-18,2015-09-03,1A,Aerocivil,46.0,73,73547,2015
ABT,,AGUA BLANCA,Piedras,Tolima,Aeródromo,4.4656,-74.9948,SOCIEDAD CULTIVOS SAN JOSE,CRUZ VERDE,358.0,24.0,2000.0,1994.0," 4508,000",2012-08-18,2015-09-03,1A,Aerocivil,46.0,73,73547,2016
ACD,ACD,ALCIDES FERNANDEZ,Acandí,Chocó,Regional,8.4969,-77.2739,INCORA LTDA,MUNICIPIO,703.0,0.0,,50.0," 1072,000",1969-09-15,,3A,Público,3040.0,27,27006,2014
ACD,ACD,ALCIDES FERNANDEZ,Acandí,Chocó,Regional,8.4969,-77.2739,INCORA LTDA,MUNICIPIO,75.0,0.0,,50.0," 1072,000",1969-09-15,,3A,Privado,4969.0,27,27006,2015
ACD,ACD,ALCIDES FERNANDEZ,Acandí,Chocó,Regional,8.4969,-77.2739,INCORA LTDA,MUNICIPIO,62.0,0.0,,50.0," 1072,000",1969-09-15,,3A,Fumigación,8622.0,27,27006,2016
ACI,,EL MONASTERIO,Acacías,Meta,Aeródromo,3.9587,-73.4425,EFA LTDA.,EFA LTDA.,361.0,12.0,2000.0,948.0," 2634,000",2012-05-24,,1A,Privado,7.0,50,50006,2014
ACI,,EL MONASTERIO,Acacías,Meta,Aeródromo,3.9587,-73.4425,EFA LTDA.,EFA LTDA.,315.0,16.0,2000.0,948.0," 2634,000",2012-05-24,,1A,Aerocivil,12.0,50,50006,2015
ACI,,EL MONASTERIO,Acacías,Meta,Aeródromo,3.9587,-73.4425,EFA LTDA.,EFA LTDA.,123.0,16.0,2000.0,948.0," 2634,000",2012-05-24,,1A,Fumigación,13.0,50,50006,2016
ACL,ACL,AGUACLARA,Sabanalarga,Casanare,Aeródromo,4.7333,-73.0583,CORREGIMIENTO,CORREGIMIENTO,904.0,14.0,12202.0,1033.0," 3660,000",2007-08-14,,1C,Fumigación,2.0,85,85300,2014
ACL,ACL,AGUACLARA,Sabanalarga,Casanare,Aeródromo,4.7333,-73.0583,CORREGIMIENTO,CORREGIMIENTO,1614.0,3.0,12202.0,1033.0," 3660,000",2007-08-14,,1C,Fumigación,3.0,85,85300,2015
ACL,ACL,AGUACLARA,Sabanalarga,Casanare,Aeródromo,4.7333,-73.0583,CORREGIMIENTO,CORREGIMIENTO,2393.0,0.0,12202.0,1033.0," 3660,000",2007-08-14,,1C,Privado,3.0,85,85300,2016
ACP,,ACAPULCO,Nunchía,Casanare,Aeródromo,5.4086,-71.8694,YOLANDA CAMACHO V.,MARIA A. PACHECO OCHOA,84.0,15.0,2000.0,656.0," 4895,000",2011-09-06,2014-09-09,1A,Aerocivil,0.0,85,85225,2014
ACP,,ACAPULCO,Nunchía,Casanare,Aeródromo,5.4086,-71.8694,YOLANDA CAMACHO V.,MARIA A. PACHECO OCHOA,43.0,15.0,2000.0,656.0," 4895,000",2011-09-06,2014-09-09,1A,Privado,0.0,85,85225,2015
ACP,,ACAPULCO,Nunchía,Casanare,Aeródromo,5.4086,-71.8694,YOLANDA CAMACHO V.,MARIA A. PACHECO OCHOA,10.0,23.0,2000.0,656.0," 4895,000",2011-09-06,2014-09-09,1A,Público,0.0,85,85225,2016
ACR,ACR,ARARACUARA,Solano,Caquetá,Regional,-0.6008,-72.3981,GOBERNACION,GOBERNACION,777.0,43.0,27000.0,800.0,"   31,000",1958-02-05,,3C,Privado,2878.0,18,18756,2014
ACR,ACR,ARARACUARA,Solano,Caquetá,Regional,-0.6008,-72.3981,GOBERNACION,GOBERNACION,503.0,86.0,27000.0,800.0,"   31,000",1958-02-05,,3C,Fumigación,3646.0,18,18756,2015
ACR,ACR,ARARACUARA,Solano,Caquetá,Regional,-0.6008,-72.3981,GOBERNACION,GOBERNACION,312.0,111.0,27000.0,800.0,"   31,000",1958-02-05,,3C,Público,4387.0,18,18756,2016
ADZ,ADZ,GUSTAVO ROJAS PINILLA,San Andrés,San Andrés islas,Internacional,12.5837,-81.7113,AEROCIVIL,AEROCIVIL,4341.0,24.0,,18.0,"  352,000",1968-05-17,,4D,Público,15001.0,88,88001,2014
ADZ,ADZ,GUSTAVO ROJAS PINILLA,San Andrés,San Andrés islas,Internacional,12.5837,-81.7113,AEROCIVIL,AEROCIVIL,6370.0,16.0,,18.0,"  352,000",1968-05-17,,4D,Público,3918.0,88,88001,2015
ADZ,ADZ,GUSTAVO ROJAS PINILLA,San Andrés,San Andrés islas,Internacional,12.5837,-81.7113,AEROCIVIL,AEROCIVIL,12279.0,4.0,,18.0,"  352,000",1968-05-17,,4D,Fumigación,2347.0,88,88001,2016
AER,,AEROFLANDES - C.A.,Flandes,Tolima,Aeródromo,4.2171,-74.8454,AEROFLANDES,CLUB.ULTR-LA LIBELULA,417.0,17.0,500.0,1049.0," 1211,000",2013-03-20,2016-04-10,UL,Fumigación,0.0,73,73275,2014
AER,,AEROFLANDES - C.A.,Flandes,Tolima,Aeródromo,4.2171,-74.8454,AEROFLANDES,CLUB.ULTR-LA LIBELULA,526.0,29.0,500.0,1049.0," 1211,000",2013-03-20,2016-04-10,UL,Público,0.0,73,73275,2015
AER,,AEROFLANDES - C.A.,Flandes,Tolima,Aeródromo,4.2171,-74.8454,AEROFLANDES,CLUB.ULTR-LA LIBELULA,726.0,54.0,500.0,1049.0," 1211,000",2013-03-20,2016-04-10,UL,Público,0.0,73,73275,2016
AFI,AFI,EL RIO,Amalfi,Antioquia,Aeródromo,6.8954,-75.0475,AEROCIVIL,AEROCIVIL,1864.0,26.0,3500.0,4831.0,"  551,000",1968-10-07,,2A,Privado,214.0,5,5031,2014
AFI,AFI,EL RIO,Amalfi,Antioquia,Aeródromo,6.8954,-75.0475,AEROCIVIL,AEROCIVIL,3643.0,35.0,3500.0,4831.0,"  551,000",1968-10-07,,2A,Privado,125.0,5,5031,2015
AFI,AFI,EL RIO,Amalfi,Antioquia,Aeródromo,6.8954,-75.0475,AEROCIVIL,AEROCIVIL,5058.0,67.0,3500.0,4831.0,"  551,000",1968-10-07,,2A,Fumigación,88.0,5,5031,2016
AGB,,AGUA BLANCA,Espinal,Tolima,Aeródromo,4.1839,-74.8931,FARCA S.A. - COMODATO,SANIDAD VEGETAL CRUZ,186.0,3.0,2000.0,1095.0," 7095,000",2013-12-19,,1A,Privado,4.0,73,73268,2014
AGB,,AGUA BLANCA,Espinal,Tolima,Aeródromo,4.1839,-74.8931,FARCA S.A. - COMODATO,SANIDAD VEGETAL CRUZ,57.0,0.0,2000.0,1095.0," 7095,000",2013-12-19,,1A,Público,6.0,73,73268,2015
AGB,,AGUA BLANCA,Espinal,Tolima,Aeródromo,4.1839,-74.8931,FARCA S.A. - COMODATO,SANIDAD VEGETAL CRUZ,25.0,0.0,2000.0,1095.0," 7095,000",2013-12-19,,1A,Público,9.0,73,73268,2016
AGH,,HACARITAMA,Aguachica,Cesar,Aeródromo,8.2473,-73.5821,AEROCIVIL,AEROCIVIL,274.0,8.0,12202.0,700.0," 9248,000",1987-07-27,,2C,Fumigación,1808.0,20,20011,2014
AGH,,HACARITAMA,Aguachica,Cesar,Aeródromo,8.2473,-73.5821,AEROCIVIL,AEROCIVIL,84.0,1.0,12202.0,700.0," 9248,000",1987-07-27,,2C,Aerocivil,2839.0,20,20011,2015
AGH,,HACARITAMA,Aguachica,Cesar,Aeródromo,8.2473,-73.5821,AEROCIVIL,AEROCIVIL,8.0,1.0,12202.0,700.0," 9248,000",1987-07-27,,2C,Fumigación,3352.0,20,20011,2016
AGI,,EL PARAISO,Aguachica,Cesar,Aeródromo,8.1258,-73.5806,SOCIEDAD CHARRY NARVAEZ,CELTA LTDA.,576.0,15.0,2500.0,328.0," 1127,000",2015-05-14,2018-06-11,1A,Privado,6.0,20,20011,2015
AGI,,EL PARAISO,Aguachica,Cesar,Aeródromo,8.1258,-73.5806,SOCIEDAD CHARRY NARVAEZ,CELTA LTDA.,550.0,17.0,2500.0,328.0," 1127,000",2015-05-14,2018-06-11,1A,Aerocivil,6.0,20,20011,2016
AGJ,,JAMAICA,Aguazul,Casanare,Aeródromo,5.0905,-72.4462,VICTOR H-TORRES Z.,AVIOCOL LTDA.,167.0,16.0,2000.0,781.0," 1054,000",2014-02-28,2017-04-08,1A,Fumigación,2.0,85,85010,2014
AGJ,,JAMAICA,Aguazul,Casanare,Aeródromo,5.0905,-72.4462,VICTOR H-TORRES Z.,AVIOCOL LTDA.,62.0,28.0,2000.0,781.0," 1054,000",2014-02-28,2017-04-08,1A,Privado,2.0,85,85010,2015
AGJ,,JAMAICA,Aguazul,Casanare,Aeródromo,5.0905,-72.4462,VICTOR H-TORRES Z.,AVIOCOL LTDA.,24.0,50.0,2000.0,781.0," 1054,000",2014-02-28,2017-04-08,1A,Fumigación,2.0,85,85010,2016
AGU,,MARIA ANGELICA,Aguazul,Casanare,Aeródromo,5.0546,-72.4471,GERMAN ERAZO,CELTA LTDA.,285.0,4.0,2000.0,720.0," 4736,000",2013-09-06,,1A,Aerocivil,2.0,85,85010,2014
AGU,,MARIA ANGELICA,Aguazul,Casanare,Aeródromo,5.0546,-72.4471,GERMAN ERAZO,CELTA LTDA.,228.0,0.0,2000.0,720.0," 4736,000",2013-09-06,,1A,Privado,1.0,85,85010,2015
AGU,,MARIA ANGELICA,Aguazul,Casanare,Aeródromo,5.0546,-72.4471,GERMAN ERAZO,CELTA LTDA.,74.0,0.0,2000.0,720.0," 4736,000",2013-09-06,,1A,Privado,1.0,85,85010,2016
AGY,,BASE PRINCIPAL CELTA,Aguachica,Cesar,Aeródromo,8.2002,-73.6313,CIA. EN LABORES TEC Y A,CELTA LTDA.,1179.0,10.0,2500.0,305.0," 5318,000",2014-10-21,2017-11-12,1A,Público,543.0,20,20011,2014
AGY,,BASE PRINCIPAL CELTA,Aguachica,Cesar,Aeródromo,8.2002,-73.6313,CIA. EN LABORES TEC Y A,CELTA LTDA.,1550.0,7.0,2500.0,305.0," 5318,000",2014-10-21,2017-11-12,1A,Aerocivil,543.0,20,20011,2015
AGY,,BASE PRINCIPAL CELTA,Aguachica,Cesar,Aeródromo,8.2002,-73.6313,CIA. EN LABORES TEC Y A,CELTA LTDA.,1603.0,3.0,2500.0,305.0," 5318,000",2014-10-21,2017-11-12,1A,Público,543.0,20,20011,2016
ALT,,ALTAMIRA,Orocué,Casanare,Aeródromo,4.7586,-71.6386,PALMAR DE ALTAMIRA S.A.S.,PALMAR DE ALTAMIRA S.A.A,803.0,16.0,5000.0,492.0," 6124,000",2014-12-24,,1A,Público,208.0,85,85230,2014
ALT,,ALTAMIRA,Orocué,Casanare,Aeródromo,4.7586,-71.6386,PALMAR DE ALTAMIRA S.A.S.,PALMAR DE ALTAMIRA S.A.A,179.0,23.0,5000.0,492.0," 6124,000",2014-12-24,,1A,Público,208.0,85,85230,2015
ALT,,ALTAMIRA,Orocué,Casanare,Aeródromo,4.7586,-71.6386,PALMAR DE ALTAMIRA S.A.S.,PALMAR DE ALTAMIRA S.A.A,50.0,42.0,5000.0,492.0," 6124,000",2014-12-24,,1A,Público,208.0,85,85230,2016
ALV,,EL DIAMANTE,Alvarado,Tolima,Aeródromo,4.5694,-74.9337,ELIAS ACOSTA Y CIA LTDA,CRUZ VERDE,1167.0,6.0,2000.0,1312.0," 4728,000",2013-09-06,,1A,Público,0.0,73,73026,2014
ALV,,EL DIAMANTE,Alvarado,Tolima,Aeródromo,4.5694,-74.9337,ELIAS ACOSTA Y CIA LTDA,CRUZ VERDE,2194.0,1.0,2000.0,1312.0," 4728,000",2013-09-06,,1A,Aerocivil,0.0,73,73026,2015
ALV,,EL DIAMANTE,Alvarado,Tolima,Aeródromo,4.5694,-74.9337,ELIAS ACOSTA Y CIA LTDA,CRUZ VERDE,3695.0,1.0,2000.0,1312.0," 4728,000",2013-09-06,,1A,Público,0.0,73,73026,2016
AMA,,LA AMALIA,Ciénaga,Magdalena,Aeródromo,10.867,-74.1458,ADMINISTRACIONES Y SERVICIOS AEREOS S.A.S.,ASA S.A.S.,648.0,13.0,3000.0,482.0," 5716,000",2014-11-25,2017-12-02,1A,Aerocivil,0.0,47,47189,2014
AMA,,LA AMALIA,Ciénaga,Magdalena,Aeródromo,10.867,-74.1458,ADMINISTRACIONES Y SERVICIOS AEREOS S.A.S.,ASA S.A.S.,76.0,21.0,3000.0,482.0," 5716,000",2014-11-25,2017-12-02,1A,Privado,0.0,47,47189,2015
AMA,,LA AMALIA,Ciénaga,Magdalena,Aeródromo,10.867,-74.1458,ADMINISTRACIONES Y SERVICIOS AEREOS S.A.S.,ASA S.A.S.,62.0,36.0,3000.0,482.0," 5716,000",2014-11-25,2017-12-02,1A,Fumigación,0.0,47,47189,2016
AMB,,EL SANTUARIO,Ambalema,Tolima,Aeródromo,4.9029,-74.7797,HACIENDA ZAPAYAN S.A.,HACIENDA ZAPAYAN S.A.,506.0,18.0,2800.0,830.0,,2015-06-04,2015-07-04,1A,Público,2.0,73,73030,2015
AMB,,EL SANTUARIO,Ambalema,Tolima,Aeródromo,4.9029,-74.7797,HACIENDA ZAPAYAN S.A.,HACIENDA ZAPAYAN S.A.,319.0,22.0,2800.0,830.0,,2015-06-04,2015-07-04,1A,Aerocivil,2.0,73,73030,2016
APO,APO,ANTONIO ROLDAN BETANCOURT,Carepa,Antioquia,Nacional,7.8118,-76.7164,AEROCIVIL,EN CONCESION- SOACN(Sociedad Operadora de Aeropuertos Centro Norte,3700.0,28.0,,46.0," 1590,000",1969-06-10,,4C,Público,79531.0,5,5147,2014
APO,APO,ANTONIO ROLDAN BETANCOURT,Carepa,Antioquia,Nacional,7.8118,-76.7164,AEROCIVIL,EN CONCESION- SOACN(Sociedad Operadora de Aeropuertos Centro Norte,5215.0,28.0,,46.0," 1590,000",1969-06-10,,4C,Público,113821.0,5,5147,2015
APO,APO,ANTONIO ROLDAN BETANCOURT,Carepa,Antioquia,Nacional,7.8118,-76.7164,AEROCIVIL,EN CONCESION- SOACN(Sociedad Operadora de Aeropuertos Centro Norte,7708.0,9.0,,46.0," 1590,000",1969-06-10,,4C,Público,151067.0,5,5147,2016
ARG,,ARAGUANEY,Yopal,Casanare,Aeródromo,5.413,-72.285,SANAR S.A.S,SANAR S.A.S.,250.0,17.0,4000.0,796.0,"  705,000",2014-02-12,,1A,Privado,10.0,85,85001,2014
ARG,,ARAGUANEY,Yopal,Casanare,Aeródromo,5.413,-72.285,SANAR S.A.S,SANAR S.A.S.,219.0,26.0,4000.0,796.0,"  705,000",2014-02-12,,1A,Aerocivil,10.0,85,85001,2015
ARG,,ARAGUANEY,Yopal,Casanare,Aeródromo,5.413,-72.285,SANAR S.A.S,SANAR S.A.S.,49.0,37.0,4000.0,796.0,"  705,000",2014-02-12,,1A,Público,10.0,85,85001,2016
ARO,ARO,ARBOLETES,Arboletes,Antioquia,Aeródromo,8.8394,-76.43,MUNICIPIO,MUNICIPIO,1620.0,20.0,6000.0,13.0," 4381,000",2002-09-04,,2B,Fumigación,5.0,5,5051,2014
ARO,ARO,ARBOLETES,Arboletes,Antioquia,Aeródromo,8.8394,-76.43,MUNICIPIO,MUNICIPIO,3118.0,37.0,6000.0,13.0," 4381,000",2002-09-04,,2B,Fumigación,5.0,5,5051,2015
ARO,ARO,ARBOLETES,Arboletes,Antioquia,Aeródromo,8.8394,-76.43,MUNICIPIO,MUNICIPIO,4705.0,73.0,6000.0,13.0," 4381,000",2002-09-04,,2B,Público,5.0,5,5051,2016
ARQ,ARQ,EL TRONCAL,Arauquita,Arauca,Aeródromo,7.0211,-71.3889,AEROCIVIL,AEROCIVIL,497.0,21.0,12202.0,509.0," 1073,000",1969-09-15,,2C,Privado,27.0,81,81065,2014
ARQ,ARQ,EL TRONCAL,Arauquita,Arauca,Aeródromo,7.0211,-71.3889,AEROCIVIL,AEROCIVIL,408.0,39.0,12202.0,509.0," 1073,000",1969-09-15,,2C,Público,18.0,81,81065,2015
ARQ,ARQ,EL TRONCAL,Arauquita,Arauca,Aeródromo,7.0211,-71.3889,AEROCIVIL,AEROCIVIL,335.0,57.0,12202.0,509.0," 1073,000",1969-09-15,,2C,Aerocivil,3.0,81,81065,2016
ATC,,ATACO,Ataco,Tolima,Aeródromo,3.5837,-75.3891,MUNICIPIO,MUNICIPIO,1420.0,18.0,4000.0,1519.0,"  156,000",1957-07-23,,2A,Privado,1.0,73,73067,2014
ATC,,ATACO,Ataco,Tolima,Aeródromo,3.5837,-75.3891,MUNICIPIO,MUNICIPIO,2170.0,35.0,4000.0,1519.0,"  156,000",1957-07-23,,2A,Aerocivil,1.0,73,73067,2015
ATC,,ATACO,Ataco,Tolima,Aeródromo,3.5837,-75.3891,MUNICIPIO,MUNICIPIO,2607.0,55.0,4000.0,1519.0,"  156,000",1957-07-23,,2A,Aerocivil,2.0,73,73067,2016
AUC,AUC,SANTIAGO PEREZ QUIROZ,Arauca,Arauca,Nacional,7.0689,-70.737,AEROCIVIL,AEROCIVIL,1016.0,19.0,,418.0,"  984,000",1987-02-02,,4C,Aerocivil,51148.0,81,81001,2014
AUC,AUC,SANTIAGO PEREZ QUIROZ,Arauca,Arauca,Nacional,7.0689,-70.737,AEROCIVIL,AEROCIVIL,452.0,9.0,,418.0,"  984,000",1987-02-02,,4C,Fumigación,99886.0,81,81001,2015
AUC,AUC,SANTIAGO PEREZ QUIROZ,Arauca,Arauca,Nacional,7.0689,-70.737,AEROCIVIL,AEROCIVIL,164.0,1.0,,418.0,"  984,000",1987-02-02,,4C,Público,103835.0,81,81001,2016
AUR,,EL CORAJE,Ariguaní,Magdalena,Aeródromo,10.0247,-74.067,CAMAGUEY S.A.,CAMAGUEY S.A.,555.0,6.0,4000.0,282.0," 7094,000",2013-12-19,,1A,Fumigación,37.0,47,47058,2014
AUR,,EL CORAJE,Ariguaní,Magdalena,Aeródromo,10.0247,-74.067,CAMAGUEY S.A.,CAMAGUEY S.A.,249.0,5.0,4000.0,282.0," 7094,000",2013-12-19,,1A,Privado,72.0,47,47058,2015
AUR,,EL CORAJE,Ariguaní,Magdalena,Aeródromo,10.0247,-74.067,CAMAGUEY S.A.,CAMAGUEY S.A.,117.0,5.0,4000.0,282.0," 7094,000",2013-12-19,,1A,Fumigación,118.0,47,47058,2016
BAL,,INGENIO RISARALDA,Balboa,Risaralda,Aeródromo,4.8948,-75.9044,INGENIO RISARALDA,ING.RISARALDA-ASOCAÑA,295.0,5.0,500.0,3034.0," 2954,000",2013-06-20,2015-08-05,1A,Fumigación,0.0,66,66075,2014
BAL,,INGENIO RISARALDA,Balboa,Risaralda,Aeródromo,4.8948,-75.9044,INGENIO RISARALDA,ING.RISARALDA-ASOCAÑA,465.0,0.0,500.0,3034.0," 2954,000",2013-06-20,2015-08-05,1A,Aerocivil,0.0,66,66075,2015
BAL,,INGENIO RISARALDA,Balboa,Risaralda,Aeródromo,4.8948,-75.9044,INGENIO RISARALDA,ING.RISARALDA-ASOCAÑA,794.0,0.0,500.0,3034.0," 2954,000",2013-06-20,2015-08-05,1A,Aerocivil,0.0,66,66075,2016
BAN,,BANCO LARGO,Nunchía,Casanare,Aeródromo,5.4631,-72.0631,JAVIER CHINCHILLA MUNAR,SFA- LTDA,1104.0,15.0,2000.0,692.0," 7056,000",2012-12-07,,1A,Aerocivil,0.0,85,85225,2014
BAN,,BANCO LARGO,Nunchía,Casanare,Aeródromo,5.4631,-72.0631,JAVIER CHINCHILLA MUNAR,SFA- LTDA,1180.0,16.0,2000.0,692.0," 7056,000",2012-12-07,,1A,Fumigación,0.0,85,85225,2015
BAN,,BANCO LARGO,Nunchía,Casanare,Aeródromo,5.4631,-72.0631,JAVIER CHINCHILLA MUNAR,SFA- LTDA,1638.0,23.0,2000.0,692.0," 7056,000",2012-12-07,,1A,Aerocivil,0.0,85,85225,2016
BAQ,BAQ,ERNESTO CORTISSOZ,Barranquilla,Atlántico,Internacional,10.8896,-74.7809,AEROCIVIL,GRUPO AEROPORTUARIO DEL CARIBE S.A.S.,3516.0,75.0,,98.0," 1152,000",2015-05-15,,4E,Privado,125956.0,8,8001,2015
BAQ,BAQ,ERNESTO CORTISSOZ,Barranquilla,Atlántico,Internacional,10.8896,-74.7809,AEROCIVIL,GRUPO AEROPORTUARIO DEL CARIBE S.A.S.,3842.0,144.0,,98.0," 1152,000",2015-05-15,,4E,Aerocivil,125956.0,8,8001,2016
BAR,,GUAICARAMO,Barranca de Upía,Meta,Aeródromo,4.4605,-72.9509,GUAICARAMO S.A.,GUAICARAMO S.A.,1078.0,20.0,5500.0,649.0," 7236,000",2013-12-27,,1A,Público,28.0,50,50110,2014
BAR,,GUAICARAMO,Barranca de Upía,Meta,Aeródromo,4.4605,-72.9509,GUAICARAMO S.A.,GUAICARAMO S.A.,2110.0,31.0,5500.0,649.0," 7236,000",2013-12-27,,1A,Privado,48.0,50,50110,2015
BAR,,GUAICARAMO,Barranca de Upía,Meta,Aeródromo,4.4605,-72.9509,GUAICARAMO S.A.,GUAICARAMO S.A.,4146.0,39.0,5500.0,649.0," 7236,000",2013-12-27,,1A,Privado,85.0,50,50110,2016
BBA,,PIZARRO,Bajo Baudó,Chocó,Aeródromo,4.9608,-77.3633,MUNICIPIO,MUNICIPIO,490.0,10.0,,10.0," 6365,000",2008-12-30,,1A,Privado,1421.0,27,27077,2014
BBA,,PIZARRO,Bajo Baudó,Chocó,Aeródromo,4.9608,-77.3633,MUNICIPIO,MUNICIPIO,240.0,10.0,,10.0," 6365,000",2008-12-30,,1A,Público,1347.0,27,27077,2015
BBA,,PIZARRO,Bajo Baudó,Chocó,Aeródromo,4.9608,-77.3633,MUNICIPIO,MUNICIPIO,11.0,3.0,,10.0," 6365,000",2008-12-30,,1A,Aerocivil,104.0,27,27077,2016
BEC,,BECERRIL,Becerril,Cesar,Aeródromo,9.6628,-73.2744,MUNICIPIO,FUMILLANOS,965.0,51.0,3500.0,320.0," 2989,000",2008-07-02,,3B,Aerocivil,70.0,20,20045,2014
BEC,,BECERRIL,Becerril,Cesar,Aeródromo,9.6628,-73.2744,MUNICIPIO,FUMILLANOS,52.0,91.0,3500.0,320.0," 2989,000",2008-07-02,,3B,Público,96.0,20,20045,2015
BEC,,BECERRIL,Becerril,Cesar,Aeródromo,9.6628,-73.2744,MUNICIPIO,FUMILLANOS,48.0,163.0,3500.0,320.0," 2989,000",2008-07-02,,3B,Público,140.0,20,20045,2016
BIC,,BERASTEGUI,Ciénaga de Oro,Córdoba,Aeródromo,8.8845,-75.6835,AEROCIVIL,AEROCIVIL,1422.0,38.0,2000.0,48.0,"  984,000",1987-02-02,,0B,Público,1.0,23,23189,2014
BIC,,BERASTEGUI,Ciénaga de Oro,Córdoba,Aeródromo,8.8845,-75.6835,AEROCIVIL,AEROCIVIL,1336.0,45.0,2000.0,48.0,"  984,000",1987-02-02,,0B,Fumigación,2.0,23,23189,2015
BIC,,BERASTEGUI,Ciénaga de Oro,Córdoba,Aeródromo,8.8845,-75.6835,AEROCIVIL,AEROCIVIL,353.0,58.0,2000.0,48.0,"  984,000",1987-02-02,,0B,Fumigación,4.0,23,23189,2016
BIZ,,BIZERTA,Nunchía,Casanare,Aeródromo,5.4225,-71.9936,CELMIRA BARRAGAN F.,FUMIVILLA LTDA,117.0,8.0,2000.0,639.0,"  151,000",2013-01-25,,1A,Privado,2.0,85,85225,2014
BIZ,,BIZERTA,Nunchía,Casanare,Aeródromo,5.4225,-71.9936,CELMIRA BARRAGAN F.,FUMIVILLA LTDA,100.0,2.0,2000.0,639.0,"  151,000",2013-01-25,,1A,Fumigación,3.0,85,85225,2015
BIZ,,BIZERTA,Nunchía,Casanare,Aeródromo,5.4225,-71.9936,CELMIRA BARRAGAN F.,FUMIVILLA LTDA,57.0,0.0,2000.0,639.0,"  151,000",2013-01-25,,1A,Privado,4.0,85,85225,2016
BMG,,BARRANCO MINAS,Barranco Minas,Guainía,Aeródromo,3.4907,-69.8097,GOBERNACION,DEPARTAMENTO,609.0,5.0,,125.0," 2477,000",1972-09-11,,1A,Aerocivil,708.0,94,94343,2014
BMG,,BARRANCO MINAS,Barranco Minas,Guainía,Aeródromo,3.4907,-69.8097,GOBERNACION,DEPARTAMENTO,104.0,2.0,,125.0," 2477,000",1972-09-11,,1A,Fumigación,667.0,94,94343,2015
BMG,,BARRANCO MINAS,Barranco Minas,Guainía,Aeródromo,3.4907,-69.8097,GOBERNACION,DEPARTAMENTO,33.0,0.0,,125.0," 2477,000",1972-09-11,,1A,Fumigación,298.0,94,94343,2016
BNI,,BOLUGA,Venadillo,Tolima,Aeródromo,4.6903,-74.8894,MARGOT URIBE DE SAMPER Y CIA,CRUZ VERDE,528.0,0.0,3000.0,1092.0," 2172,000",2012-04-30,,1A,Público,0.0,73,73861,2014
BNI,,BOLUGA,Venadillo,Tolima,Aeródromo,4.6903,-74.8894,MARGOT URIBE DE SAMPER Y CIA,CRUZ VERDE,390.0,0.0,3000.0,1092.0," 2172,000",2012-04-30,,1A,Aerocivil,0.0,73,73861,2015
BNI,,BOLUGA,Venadillo,Tolima,Aeródromo,4.6903,-74.8894,MARGOT URIBE DE SAMPER Y CIA,CRUZ VERDE,4.0,0.0,3000.0,1092.0," 2172,000",2012-04-30,,1A,Público,0.0,73,73861,2016
BNO,,BUENOS AIRES,Puerto Wilches,Santander,Aeródromo,7.462,-73.7464,AGRICOLA BUFALERA DE COLOMBIA,EL MISMO,1672.0,34.0,3500.0,229.0," 7239,000",2012-12-19,,1A,Fumigación,32.0,68,68575,2014
BNO,,BUENOS AIRES,Puerto Wilches,Santander,Aeródromo,7.462,-73.7464,AGRICOLA BUFALERA DE COLOMBIA,EL MISMO,2490.0,63.0,3500.0,229.0," 7239,000",2012-12-19,,1A,Público,52.0,68,68575,2015
BNO,,BUENOS AIRES,Puerto Wilches,Santander,Aeródromo,7.462,-73.7464,AGRICOLA BUFALERA DE COLOMBIA,EL MISMO,2510.0,123.0,3500.0,229.0," 7239,000",2012-12-19,,1A,Privado,87.0,68,68575,2016
BNP,,BUENOS AIRES -FADELCE,Pailitas,Cesar,Aeródromo,9.02,-73.6725,FADELCE LTDA,FADELCE LTDA,1587.0,28.0,2000.0,82.0,"   24,000",2009-01-07,2012-02-12,2A,Privado,4.0,20,20517,2014
BNP,,BUENOS AIRES -FADELCE,Pailitas,Cesar,Aeródromo,9.02,-73.6725,FADELCE LTDA,FADELCE LTDA,1706.0,30.0,2000.0,82.0,"   24,000",2009-01-07,2012-02-12,2A,Privado,4.0,20,20517,2015
BNP,,BUENOS AIRES -FADELCE,Pailitas,Cesar,Aeródromo,9.02,-73.6725,FADELCE LTDA,FADELCE LTDA,2313.0,58.0,2000.0,82.0,"   24,000",2009-01-07,2012-02-12,2A,Aerocivil,5.0,20,20517,2016
BOG,BOG,EL DORADO,"Bogotá, D.C.","Bogotá, D.C.",Internacional,4.7017,-74.1469,AEROCIVIL,EN CONCESION CODAD,4083.0,35.0,,8356.0,"  320,000",1959-12-04,,4E,Fumigación,1399777.0,11,11001,2014
BOG,BOG,EL DORADO,"Bogotá, D.C.","Bogotá, D.C.",Internacional,4.7017,-74.1469,AEROCIVIL,EN CONCESION CODAD,4572.0,33.0,,8356.0,"  320,000",1959-12-04,,4E,Fumigación,2574632.0,11,11001,2015
BOG,BOG,EL DORADO,"Bogotá, D.C.","Bogotá, D.C.",Internacional,4.7017,-74.1469,AEROCIVIL,EN CONCESION CODAD,5751.0,13.0,,8356.0,"  320,000",1959-12-04,,4E,Privado,5057074.0,11,11001,2016
BUN,BUN,BUENAVENTURA-GERARDO TOBAR LOPEZ,Buenaventura,Valle del Cauca,Nacional,3.8196,-76.9899,AEROCIVIL,AEROCIVIL,432.0,30.0,,44.0," 1026,000",1967-08-28,,2C,Público,7636.0,76,76109,2014
BUN,BUN,BUENAVENTURA-GERARDO TOBAR LOPEZ,Buenaventura,Valle del Cauca,Nacional,3.8196,-76.9899,AEROCIVIL,AEROCIVIL,158.0,26.0,,44.0," 1026,000",1967-08-28,,2C,Privado,14431.0,76,76109,2015
BUN,BUN,BUENAVENTURA-GERARDO TOBAR LOPEZ,Buenaventura,Valle del Cauca,Nacional,3.8196,-76.9899,AEROCIVIL,AEROCIVIL,111.0,24.0,,44.0," 1026,000",1967-08-28,,2C,Fumigación,24653.0,76,76109,2016
CAN,,CANARIAS,Nunchía,Casanare,Aeródromo,5.472,-72.1533,SERRANO HERRERA Y CIA,EL MISMO,1244.0,9.0,2500.0,735.0," 3940,000",2014-07-25,,1A,Fumigación,1.0,85,85225,2014
CAN,,CANARIAS,Nunchía,Casanare,Aeródromo,5.472,-72.1533,SERRANO HERRERA Y CIA,EL MISMO,2088.0,7.0,2500.0,735.0," 3940,000",2014-07-25,,1A,Privado,1.0,85,85225,2015
CAN,,CANARIAS,Nunchía,Casanare,Aeródromo,5.472,-72.1533,SERRANO HERRERA Y CIA,EL MISMO,3890.0,0.0,2500.0,735.0," 3940,000",2014-07-25,,1A,Fumigación,1.0,85,85225,2016
CAQ,,JUAN H.WHITE,Caucasia,Antioquia,Regional,7.968,-75.1982,AEROLINEA DE ANTIOQUIA,AEROLINEA DE ANTIOQ.,391.0,35.0,,207.0," 5052,000",2014-10-02,2017-10-03,2B,Aerocivil,15994.0,5,5154,2014
CAQ,,JUAN H.WHITE,Caucasia,Antioquia,Regional,7.968,-75.1982,AEROLINEA DE ANTIOQUIA,AEROLINEA DE ANTIOQ.,220.0,65.0,,207.0," 5052,000",2014-10-02,2017-10-03,2B,Fumigación,15994.0,5,5154,2015
CAQ,,JUAN H.WHITE,Caucasia,Antioquia,Regional,7.968,-75.1982,AEROLINEA DE ANTIOQUIA,AEROLINEA DE ANTIOQ.,17.0,92.0,,207.0," 5052,000",2014-10-02,2017-10-03,2B,Privado,15994.0,5,5154,2016
CIM,CIM,GUSTAVO ROJAS PINILLA,Cimitarra,Santander,Aeródromo,6.3674,-73.9706,AEROCIVIL,AEROCIVIL,196.0,9.0,12202.0,735.0,"  644,000",1967-06-05,,3C,Público,546.0,68,68190,2014
CIM,CIM,GUSTAVO ROJAS PINILLA,Cimitarra,Santander,Aeródromo,6.3674,-73.9706,AEROCIVIL,AEROCIVIL,145.0,5.0,12202.0,735.0,"  644,000",1967-06-05,,3C,Aerocivil,610.0,68,68190,2015
CIM,CIM,GUSTAVO ROJAS PINILLA,Cimitarra,Santander,Aeródromo,6.3674,-73.9706,AEROCIVIL,AEROCIVIL,32.0,5.0,12202.0,735.0,"  644,000",1967-06-05,,3C,Privado,1025.0,68,68190,2016
CLO,CLO,ALFONSO BONILLA ARAGON,Palmira,Valle del Cauca,Internacional,3.5431,-76.3817,AEROCIVIL,CONCESION AEROCALI S.A.,5118.0,31.0,,3174.0,"  984,000",1987-02-02,,4E,Público,143526.0,76,76520,2014
CLO,CLO,ALFONSO BONILLA ARAGON,Palmira,Valle del Cauca,Internacional,3.5431,-76.3817,AEROCIVIL,CONCESION AEROCALI S.A.,5263.0,20.0,,3174.0,"  984,000",1987-02-02,,4E,Privado,98005.0,76,76520,2015
CLO,CLO,ALFONSO BONILLA ARAGON,Palmira,Valle del Cauca,Internacional,3.5431,-76.3817,AEROCIVIL,CONCESION AEROCALI S.A.,8878.0,5.0,,3174.0,"  984,000",1987-02-02,,4E,Aerocivil,22630.0,76,76520,2016
COG,COG,CONDOTO MANDINGA,Condoto,Chocó,Regional,5.072,-76.6766,AEROCIVIL,AEROCIVIL,977.0,29.0,,166.0,"  984,000",1987-02-02,,2C,Aerocivil,1011.0,27,27205,2014
COG,COG,CONDOTO MANDINGA,Condoto,Chocó,Regional,5.072,-76.6766,AEROCIVIL,AEROCIVIL,196.0,50.0,,166.0,"  984,000",1987-02-02,,2C,Público,714.0,27,27205,2015
COG,COG,CONDOTO MANDINGA,Condoto,Chocó,Regional,5.072,-76.6766,AEROCIVIL,AEROCIVIL,131.0,71.0,,166.0,"  984,000",1987-02-02,,2C,Fumigación,199.0,27,27205,2016
CPL,CPL,NAVAS PARDO,Chaparral,Tolima,Aeródromo,3.7238,-75.4654,AEROCIVIL,AEROCIVIL,1696.0,2.0,,2729.0,"  499,000",1968-07-20,,2C,Aerocivil,1020.0,73,73168,2014
CPL,CPL,NAVAS PARDO,Chaparral,Tolima,Aeródromo,3.7238,-75.4654,AEROCIVIL,AEROCIVIL,3335.0,2.0,,2729.0,"  499,000",1968-07-20,,2C,Aerocivil,1565.0,73,73168,2015
CPL,CPL,NAVAS PARDO,Chaparral,Tolima,Aeródromo,3.7238,-75.4654,AEROCIVIL,AEROCIVIL,6144.0,0.0,,2729.0,"  499,000",1968-07-20,,2C,Fumigación,2286.0,73,73168,2016
CTG,CTG,RAFAEL NUÑEZ,Cartagena de Indias,Bolívar,Internacional,10.442,-75.5123,AEROCIVIL,CONCESION-SACSA,2202.0,6.0,,7.0," 4501,000",2012-08-16,,4D,Aerocivil,18982.0,13,13001,2014
CTG,CTG,RAFAEL NUÑEZ,Cartagena de Indias,Bolívar,Internacional,10.442,-75.5123,AEROCIVIL,CONCESION-SACSA,424.0,6.0,,7.0," 4501,000",2012-08-16,,4D,Fumigación,11412.0,13,13001,2015
CTG,CTG,RAFAEL NUÑEZ,Cartagena de Indias,Bolívar,Internacional,10.442,-75.5123,AEROCIVIL,CONCESION-SACSA,232.0,3.0,,7.0," 4501,000",2012-08-16,,4D,Público,3687.0,13,13001,2016
CUC,CUC,CAMILO DAZA,San José de Cúcuta,Norte de Santander,Internacional,7.9274,-72.5116,AEROCIVIL,AEROCIVIL -ORIENTE S.A.S.,2782.0,60.0,,1027.0,"  984,000",1987-02-02,,4D,Aerocivil,124815.0,54,54001,2014
CUC,CUC,CAMILO DAZA,San José de Cúcuta,Norte de Santander,Internacional,7.9274,-72.5116,AEROCIVIL,AEROCIVIL -ORIENTE S.A.S.,3484.0,120.0,,1027.0,"  984,000",1987-02-02,,4D,Público,160599.0,54,54001,2015
CUC,CUC,CAMILO DAZA,San José de Cúcuta,Norte de Santander,Internacional,7.9274,-72.5116,AEROCIVIL,AEROCIVIL -ORIENTE S.A.S.,5359.0,159.0,,1027.0,"  984,000",1987-02-02,,4D,Público,254999.0,54,54001,2016
CUC,CUC,CAMILO DAZA No.2,San José de Cúcuta,Norte de Santander,Internacional,7.9274,-72.5116,AEROCIVIL,AEROCIVIL -ORIENTE S.A.S.,1131.0,2.0,,1027.0,"  984,000",1987-02-02,,4A,Público,0.0,54,54001,2014
CUC,CUC,CAMILO DAZA No.2,San José de Cúcuta,Norte de Santander,Internacional,7.9274,-72.5116,AEROCIVIL,AEROCIVIL -ORIENTE S.A.S.,574.0,0.0,,1027.0,"  984,000",1987-02-02,,4A,Privado,0.0,54,54001,2015
CUC,CUC,CAMILO DAZA No.2,San José de Cúcuta,Norte de Santander,Internacional,7.9274,-72.5116,AEROCIVIL,AEROCIVIL -ORIENTE S.A.S.,129.0,0.0,,1027.0,"  984,000",1987-02-02,,4A,Privado,0.0,54,54001,2016
CZU,CZU,LAS BRUJAS,Corozal,Sucre,Regional,9.3325,-75.2853,AEROCIVIL,EN CONCESION-SOACN(Sociedad Operadora de Aeropuertos Centro Norte,2636.0,39.0,,519.0," 1862,000",1971-07-19,,3C,Aerocivil,20334.0,70,70215,2014
CZU,CZU,LAS BRUJAS,Corozal,Sucre,Regional,9.3325,-75.2853,AEROCIVIL,EN CONCESION-SOACN(Sociedad Operadora de Aeropuertos Centro Norte,3439.0,78.0,,519.0," 1862,000",1971-07-19,,3C,Público,30061.0,70,70215,2015
CZU,CZU,LAS BRUJAS,Corozal,Sucre,Regional,9.3325,-75.2853,AEROCIVIL,EN CONCESION-SOACN(Sociedad Operadora de Aeropuertos Centro Norte,4499.0,146.0,,519.0," 1862,000",1971-07-19,,3C,Fumigación,46817.0,70,70215,2016
EET,,EL ESCOBAL,Ibagué,Tolima,Aeródromo,4.3956,-75.0708,INVERSIONES AGROPECUARIAS DOIMA,SANIDAD VEGETAL CRUZ,622.0,22.0,2000.0,2450.0,"  401,000",2014-01-31,2017-03-07,1A,Fumigación,0.0,73,73001,2014
EET,,EL ESCOBAL,Ibagué,Tolima,Aeródromo,4.3956,-75.0708,INVERSIONES AGROPECUARIAS DOIMA,SANIDAD VEGETAL CRUZ,837.0,37.0,2000.0,2450.0,"  401,000",2014-01-31,2017-03-07,1A,Aerocivil,0.0,73,73001,2015
EET,,EL ESCOBAL,Ibagué,Tolima,Aeródromo,4.3956,-75.0708,INVERSIONES AGROPECUARIAS DOIMA,SANIDAD VEGETAL CRUZ,1181.0,45.0,2000.0,2450.0,"  401,000",2014-01-31,2017-03-07,1A,Fumigación,0.0,73,73001,2016
EJA,EJA,YARIGUIES,Barrancabermeja,Santander,Nacional,7.0244,-73.8068,AEROCIVIL,AEROCIVIL -ORIENTE S.A.S.,3086.0,75.0,61100.0,414.0,"  115,000",1965-09-02,,3C,Público,19942.0,68,68081,2014
EJA,EJA,YARIGUIES,Barrancabermeja,Santander,Nacional,7.0244,-73.8068,AEROCIVIL,AEROCIVIL -ORIENTE S.A.S.,5533.0,76.0,61100.0,414.0,"  115,000",1965-09-02,,3C,Público,3415.0,68,68081,2015
EJA,EJA,YARIGUIES,Barrancabermeja,Santander,Nacional,7.0244,-73.8068,AEROCIVIL,AEROCIVIL -ORIENTE S.A.S.,10172.0,151.0,61100.0,414.0,"  115,000",1965-09-02,,3C,Aerocivil,2827.0,68,68081,2016
EJU,,EL JUNCAL,Palermo,Huila,Aeródromo,2.8471,-75.3133,ASOJUNCAL,SANIDAD VEGETAL CRUZ VERDE,1178.0,5.0,2000.0,1509.0," 4949,000",2010-10-01,,1A,Privado,3.0,41,41524,2014
EJU,,EL JUNCAL,Palermo,Huila,Aeródromo,2.8471,-75.3133,ASOJUNCAL,SANIDAD VEGETAL CRUZ VERDE,1234.0,1.0,2000.0,1509.0," 4949,000",2010-10-01,,1A,Privado,5.0,41,41524,2015
EJU,,EL JUNCAL,Palermo,Huila,Aeródromo,2.8471,-75.3133,ASOJUNCAL,SANIDAD VEGETAL CRUZ VERDE,1981.0,1.0,2000.0,1509.0," 4949,000",2010-10-01,,1A,Público,8.0,41,41524,2016
ELB,ELB,LAS FLORES,El Banco,Magdalena,Aeródromo,9.0428,-73.9715,AEROCIVIL,AEROCIVIL,1083.0,5.0,19045.0,110.0," 1374,000",1978-04-06,,3B,Fumigación,525.0,47,47245,2014
ELB,ELB,LAS FLORES,El Banco,Magdalena,Aeródromo,9.0428,-73.9715,AEROCIVIL,AEROCIVIL,116.0,3.0,19045.0,110.0," 1374,000",1978-04-06,,3B,Privado,345.0,47,47245,2015
ELB,ELB,LAS FLORES,El Banco,Magdalena,Aeródromo,9.0428,-73.9715,AEROCIVIL,AEROCIVIL,35.0,2.0,19045.0,110.0," 1374,000",1978-04-06,,3B,Público,264.0,47,47245,2016
EYP,EYP,EL ALCARAVAN,Yopal,Casanare,Nacional,5.3191,-72.3842,AEROCIVIL,AEROCIVIL,680.0,25.0,,1016.0,"  984,000",1987-02-02,,3C,Público,30209.0,85,85001,2014
EYP,EYP,EL ALCARAVAN,Yopal,Casanare,Nacional,5.3191,-72.3842,AEROCIVIL,AEROCIVIL,273.0,24.0,,1016.0,"  984,000",1987-02-02,,3C,Público,29388.0,85,85001,2015
EYP,EYP,EL ALCARAVAN,Yopal,Casanare,Nacional,5.3191,-72.3842,AEROCIVIL,AEROCIVIL,161.0,10.0,,1016.0,"  984,000",1987-02-02,,3C,Aerocivil,16828.0,85,85001,2016
FLA,FLA,GUSTAVO ARTUNDUAGA PAREDES,Florencia,Caquetá,Nacional,1.589,-75.5643,AEROCIVIL,AEROCIVIL,2673.0,41.0,,803.0,"  984,000",1987-02-02,,3C,Aerocivil,14025.0,18,18001,2014
FLA,FLA,GUSTAVO ARTUNDUAGA PAREDES,Florencia,Caquetá,Nacional,1.589,-75.5643,AEROCIVIL,AEROCIVIL,4731.0,50.0,,803.0,"  984,000",1987-02-02,,3C,Aerocivil,9035.0,18,18001,2015
FLA,FLA,GUSTAVO ARTUNDUAGA PAREDES,Florencia,Caquetá,Nacional,1.589,-75.5643,AEROCIVIL,AEROCIVIL,8526.0,93.0,,803.0,"  984,000",1987-02-02,,3C,Aerocivil,7936.0,18,18001,2016
GPI,GPI,JUAN CASIANO,Guapí,Cauca,Regional,2.57,-77.898,AEROCIVIL,AEROCIVIL,2503.0,4.0,,164.0,"  245,000",1960-08-17,,3C,Privado,9598.0,19,19318,2014
GPI,GPI,JUAN CASIANO,Guapí,Cauca,Regional,2.57,-77.898,AEROCIVIL,AEROCIVIL,3263.0,0.0,,164.0,"  245,000",1960-08-17,,3C,Fumigación,14785.0,19,19318,2015
GPI,GPI,JUAN CASIANO,Guapí,Cauca,Regional,2.57,-77.898,AEROCIVIL,AEROCIVIL,4542.0,0.0,,164.0,"  245,000",1960-08-17,,3C,Público,29222.0,19,19318,2016
GYM,,FLAMINIO S. CAMACHO,Chía,Cundinamarca,Aeródromo,4.8125,-74.0651,AEROCIVIL,AEROCIVIL,3119.0,35.0,7000.0,8386.0,"  984,000",1987-02-02,,2B,Privado,6608.0,25,25175,2014
GYM,,FLAMINIO S. CAMACHO,Chía,Cundinamarca,Aeródromo,4.8125,-74.0651,AEROCIVIL,AEROCIVIL,4012.0,36.0,7000.0,8386.0,"  984,000",1987-02-02,,2B,Privado,8446.0,25,25175,2015
GYM,,FLAMINIO S. CAMACHO,Chía,Cundinamarca,Aeródromo,4.8125,-74.0651,AEROCIVIL,AEROCIVIL,4552.0,50.0,7000.0,8386.0,"  984,000",1987-02-02,,2B,Privado,10883.0,25,25175,2016
HTZ,HTZ,HATO COROZAL,Hato Corozal,Casanare,Aeródromo,6.1535,-71.7616,AEROCIVIL,AEROCIVIL,1180.0,3.0,12202.0,830.0,"  502,000",1967-05-05,,2C,Público,88.0,85,85125,2014
HTZ,HTZ,HATO COROZAL,Hato Corozal,Casanare,Aeródromo,6.1535,-71.7616,AEROCIVIL,AEROCIVIL,1395.0,1.0,12202.0,830.0,"  502,000",1967-05-05,,2C,Público,25.0,85,85125,2015
HTZ,HTZ,HATO COROZAL,Hato Corozal,Casanare,Aeródromo,6.1535,-71.7616,AEROCIVIL,AEROCIVIL,1833.0,1.0,12202.0,830.0,"  502,000",1967-05-05,,2C,Privado,19.0,85,85125,2016
IBE,IBE,PERALES,Ibagué,Tolima,Nacional,4.4217,-75.1336,AEROCIVIL,AEROCIVIL,3399.0,58.0,,3114.0,"  984,000",1987-02-02,,3C,Fumigación,49399.0,73,73001,2014
IBE,IBE,PERALES,Ibagué,Tolima,Nacional,4.4217,-75.1336,AEROCIVIL,AEROCIVIL,5904.0,92.0,,3114.0,"  984,000",1987-02-02,,3C,Fumigación,51603.0,73,73001,2015
IBE,IBE,PERALES,Ibagué,Tolima,Nacional,4.4217,-75.1336,AEROCIVIL,AEROCIVIL,7368.0,122.0,,3114.0,"  984,000",1987-02-02,,3C,Público,70368.0,73,73001,2016
IGO,IGO,JAIME ORTIZ BETANCUR,Chigorodó,Antioquia,Aeródromo,7.6772,-76.683,MUNICIPIO,MUNICIPIO,931.0,21.0,6400.0,170.0," 4545,000",2012-08-17,,1A,Público,217.0,5,5172,2014
IGO,IGO,JAIME ORTIZ BETANCUR,Chigorodó,Antioquia,Aeródromo,7.6772,-76.683,MUNICIPIO,MUNICIPIO,1115.0,37.0,6400.0,170.0," 4545,000",2012-08-17,,1A,Aerocivil,13.0,5,5172,2015
IGO,IGO,JAIME ORTIZ BETANCUR,Chigorodó,Antioquia,Aeródromo,7.6772,-76.683,MUNICIPIO,MUNICIPIO,1680.0,70.0,6400.0,170.0," 4545,000",2012-08-17,,1A,Público,2.0,5,5172,2016
IPI,IPI,SAN LUIS,Aldana,Nariño,Internacional,0.8619,-77.6718,AEROCIVIL,AEROCIVIL,636.0,49.0,,9740.0,"  455,000",1969-05-19,,3C,Aerocivil,4119.0,52,52022,2014
IPI,IPI,SAN LUIS,Aldana,Nariño,Internacional,0.8619,-77.6718,AEROCIVIL,AEROCIVIL,224.0,72.0,,9740.0,"  455,000",1969-05-19,,3C,Público,2165.0,52,52022,2015
IPI,IPI,SAN LUIS,Aldana,Nariño,Internacional,0.8619,-77.6718,AEROCIVIL,AEROCIVIL,0.0,84.0,,9740.0,"  455,000",1969-05-19,,3C,Privado,815.0,52,52022,2016
LJB,,EL BORREGO,La Jagua de Ibirico,Cesar,Aeródromo,9.5851,-73.4519,DRUMMOND LTD.,DRUMMOND LTD.,1647.0,31.0,,253.0," 5388,000",2014-10-28,,3C,Fumigación,1288.0,20,20400,2014
LJB,,EL BORREGO,La Jagua de Ibirico,Cesar,Aeródromo,9.5851,-73.4519,DRUMMOND LTD.,DRUMMOND LTD.,2134.0,36.0,,253.0," 5388,000",2014-10-28,,3C,Privado,1288.0,20,20400,2015
LJB,,EL BORREGO,La Jagua de Ibirico,Cesar,Aeródromo,9.5851,-73.4519,DRUMMOND LTD.,DRUMMOND LTD.,3238.0,62.0,,253.0," 5388,000",2014-10-28,,3C,Privado,1288.0,20,20400,2016
MFS,MFS,MIRAFLORES,Miraflores,Guaviare,Aeródromo,1.3377,-71.9507,MUNICIPIO,MUNICIPIO,2048.0,10.0,25000.0,730.0,"   21,000",1957-01-30,,3B,Aerocivil,7460.0,95,95200,2014
MFS,MFS,MIRAFLORES,Miraflores,Guaviare,Aeródromo,1.3377,-71.9507,MUNICIPIO,MUNICIPIO,3446.0,3.0,25000.0,730.0,"   21,000",1957-01-30,,3B,Privado,12923.0,95,95200,2015
MFS,MFS,MIRAFLORES,Miraflores,Guaviare,Aeródromo,1.3377,-71.9507,MUNICIPIO,MUNICIPIO,5720.0,0.0,25000.0,730.0,"   21,000",1957-01-30,,3B,Público,18983.0,95,95200,2016
MGN,MGN,BARACOA,Magangué,Bolívar,Aeródromo,9.2849,-74.8465,AEROCIVIL,AEROCIVIL,576.0,3.0,33112.0,195.0,"  352,000",1968-05-17,,2B,Aerocivil,388.0,13,13430,2014
MGN,MGN,BARACOA,Magangué,Bolívar,Aeródromo,9.2849,-74.8465,AEROCIVIL,AEROCIVIL,260.0,0.0,33112.0,195.0,"  352,000",1968-05-17,,2B,Público,342.0,13,13430,2015
MGN,MGN,BARACOA,Magangué,Bolívar,Aeródromo,9.2849,-74.8465,AEROCIVIL,AEROCIVIL,171.0,0.0,33112.0,195.0,"  352,000",1968-05-17,,2B,Aerocivil,131.0,13,13430,2016
MMP,MVP,SAN BERNARDO,Mompós,Bolívar,Aeródromo,9.2583,-74.4383,AEROCIVIL,AEROCIVIL,2303.0,22.0,16300.0,72.0,"  352,000",1968-05-17,,2A,Privado,1802.0,13,13468,2014
MMP,MVP,SAN BERNARDO,Mompós,Bolívar,Aeródromo,9.2583,-74.4383,AEROCIVIL,AEROCIVIL,3440.0,23.0,16300.0,72.0,"  352,000",1968-05-17,,2A,Público,2673.0,13,13468,2015
MMP,MVP,SAN BERNARDO,Mompós,Bolívar,Aeródromo,9.2583,-74.4383,AEROCIVIL,AEROCIVIL,3604.0,41.0,16300.0,72.0,"  352,000",1968-05-17,,2A,Aerocivil,4618.0,13,13468,2016
MQU,MQU,JOSE CELESTINO,San Sebastián de Mariquita,Tolima,Regional,5.2126,-74.8837,AEROCIVIL,AEROCIVIL,1478.0,40.0,,1531.0,"   51,000",1968-01-24,,2A,Público,881.0,73,73443,2014
MQU,MQU,JOSE CELESTINO,San Sebastián de Mariquita,Tolima,Regional,5.2126,-74.8837,AEROCIVIL,AEROCIVIL,611.0,0.0,,1531.0,"   51,000",1968-01-24,,2A,Privado,256.0,73,73443,2015
MQU,MQU,JOSE CELESTINO,San Sebastián de Mariquita,Tolima,Regional,5.2126,-74.8837,AEROCIVIL,AEROCIVIL,404.0,0.0,,1531.0,"   51,000",1968-01-24,,2A,Público,61.0,73,73443,2016
MTB,MTB,EL PINDO,Montelíbano,Córdoba,Regional,7.9733,-75.4413,AEROCIVIL,AEROCIVIL,1055.0,35.0,12202.0,160.0," 3107,000",1981-04-08,,2C,Aerocivil,1594.0,23,23466,2014
MTB,MTB,EL PINDO,Montelíbano,Córdoba,Regional,7.9733,-75.4413,AEROCIVIL,AEROCIVIL,581.0,40.0,12202.0,160.0," 3107,000",1981-04-08,,2C,Público,341.0,23,23466,2015
MTB,MTB,EL PINDO,Montelíbano,Córdoba,Regional,7.9733,-75.4413,AEROCIVIL,AEROCIVIL,432.0,51.0,12202.0,160.0," 3107,000",1981-04-08,,2C,Aerocivil,97.0,23,23466,2016
MTR,MTR,LOS GARZONES,Montería,Córdoba,Nacional,8.8239,-75.8261,AEROCIVIL,EN CONCESION-SOACN(Sociedad Operadora de Aeropuertos Centro Norte,954.0,12.0,,19.0,"  984,000",1987-02-02,,4C,Público,46469.0,23,23001,2014
MTR,MTR,LOS GARZONES,Montería,Córdoba,Nacional,8.8239,-75.8261,AEROCIVIL,EN CONCESION-SOACN(Sociedad Operadora de Aeropuertos Centro Norte,793.0,11.0,,19.0,"  984,000",1987-02-02,,4C,Público,4199.0,23,23001,2015
MTR,MTR,LOS GARZONES,Montería,Córdoba,Nacional,8.8239,-75.8261,AEROCIVIL,EN CONCESION-SOACN(Sociedad Operadora de Aeropuertos Centro Norte,464.0,8.0,,19.0,"  984,000",1987-02-02,,4C,Fumigación,2926.0,23,23001,2016
MVP,MVP,FABIO A. LEON BENTLEY,Mitú,Vaupés,Regional,1.2535,-70.2341,MUNICIPIO,AEROCIVIL,1930.0,53.0,,680.0,"   34,000",1958-02-19,,3C,Aerocivil,30462.0,97,97001,2014
MVP,MVP,FABIO A. LEON BENTLEY,Mitú,Vaupés,Regional,1.2535,-70.2341,MUNICIPIO,AEROCIVIL,3176.0,65.0,,680.0,"   34,000",1958-02-19,,3C,Fumigación,30085.0,97,97001,2015
MVP,MVP,FABIO A. LEON BENTLEY,Mitú,Vaupés,Regional,1.2535,-70.2341,MUNICIPIO,AEROCIVIL,3977.0,76.0,,680.0,"   34,000",1958-02-19,,3C,Aerocivil,7825.0,97,97001,2016
NQU,NQU,REYES MURILLO,Nuquí,Chocó,Regional,5.712,-77.2627,AEROCIVIL,AEROCIVIL,882.0,11.0,,13.0,"    2,279",1975-08-21,,1A,Privado,4008.0,27,27495,2014
NQU,NQU,REYES MURILLO,Nuquí,Chocó,Regional,5.712,-77.2627,AEROCIVIL,AEROCIVIL,833.0,14.0,,13.0,"    2,279",1975-08-21,,1A,Privado,1451.0,27,27495,2015
NQU,NQU,REYES MURILLO,Nuquí,Chocó,Regional,5.712,-77.2627,AEROCIVIL,AEROCIVIL,204.0,19.0,,13.0,"    2,279",1975-08-21,,1A,Público,897.0,27,27495,2016
NVA,NVA,BENITO SALAS,Neiva,Huila,Internacional,2.9499,-75.2941,AEROCIVIL,AEROCIVIL,2933.0,17.0,,1464.0,"   57,000",1958-02-28,,3C,Privado,88992.0,41,41001,2014
NVA,NVA,BENITO SALAS,Neiva,Huila,Internacional,2.9499,-75.2941,AEROCIVIL,AEROCIVIL,4717.0,3.0,,1464.0,"   57,000",1958-02-28,,3C,Fumigación,113782.0,41,41001,2015
NVA,NVA,BENITO SALAS,Neiva,Huila,Internacional,2.9499,-75.2941,AEROCIVIL,AEROCIVIL,6461.0,2.0,,1464.0,"   57,000",1958-02-28,,3C,Privado,212706.0,41,41001,2016
OCV,OCV,AGUAS CLARAS,Ocaña,Norte de Santander,Regional,8.3156,-73.3583,AEROCIVIL,AEROCIVIL,1957.0,6.0,19000.0,3850.0," 2363,000",1971-09-03,,2C,Aerocivil,1984.0,54,54498,2014
OCV,OCV,AGUAS CLARAS,Ocaña,Norte de Santander,Regional,8.3156,-73.3583,AEROCIVIL,AEROCIVIL,2571.0,3.0,19000.0,3850.0," 2363,000",1971-09-03,,2C,Aerocivil,1729.0,54,54498,2015
OCV,OCV,AGUAS CLARAS,Ocaña,Norte de Santander,Regional,8.3156,-73.3583,AEROCIVIL,AEROCIVIL,4487.0,1.0,19000.0,3850.0," 2363,000",1971-09-03,,2C,Privado,937.0,54,54498,2016
ORU,,EL MEDANO,Orocué,Casanare,Aeródromo,4.7621,-71.7184,ALBERTO MENDOZA Y OTRO,EL MISMO,1349.0,26.0,4950.0,485.0,"  828,000",2007-02-27,,1A,Público,8.0,85,85230,2014
ORU,,EL MEDANO,Orocué,Casanare,Aeródromo,4.7621,-71.7184,ALBERTO MENDOZA Y OTRO,EL MISMO,2464.0,34.0,4950.0,485.0,"  828,000",2007-02-27,,1A,Privado,12.0,85,85230,2015
ORU,,EL MEDANO,Orocué,Casanare,Aeródromo,4.7621,-71.7184,ALBERTO MENDOZA Y OTRO,EL MISMO,4419.0,62.0,4950.0,485.0,"  828,000",2007-02-27,,1A,Privado,19.0,85,85230,2016
OTU,OTU,REMEDIOS OTU,Remedios,Antioquia,Regional,7.0106,-74.7156,AEROCIVIL,AEROCIVIL,331.0,8.0,,2058.0,"  522,000",1968-07-03,,1A,Privado,3193.0,5,5604,2014
OTU,OTU,REMEDIOS OTU,Remedios,Antioquia,Regional,7.0106,-74.7156,AEROCIVIL,AEROCIVIL,45.0,1.0,,2058.0,"  522,000",1968-07-03,,1A,Privado,2941.0,5,5604,2015
OTU,OTU,REMEDIOS OTU,Remedios,Antioquia,Regional,7.0106,-74.7156,AEROCIVIL,AEROCIVIL,41.0,0.0,,2058.0,"  522,000",1968-07-03,,1A,Público,1716.0,5,5604,2016
PCR,PCR,GERMAN OLANO,Puerto Carreño,Vichada,Regional,6.185,-67.4925,MUNICIPIO,AEROCIVIL,920.0,2.0,,1915.0,"  551,000",1968-07-10,,3C,Fumigación,9357.0,99,99001,2014
PCR,PCR,GERMAN OLANO,Puerto Carreño,Vichada,Regional,6.185,-67.4925,MUNICIPIO,AEROCIVIL,204.0,0.0,,1915.0,"  551,000",1968-07-10,,3C,Fumigación,13613.0,99,99001,2015
PCR,PCR,GERMAN OLANO,Puerto Carreño,Vichada,Regional,6.185,-67.4925,MUNICIPIO,AEROCIVIL,77.0,0.0,,1915.0,"  551,000",1968-07-10,,3C,Fumigación,14167.0,99,99001,2016
PIP,RON,PAIPA JUAN JOSE RONDON,Paipa,Boyacá,Aeródromo,5.7644,-73.1057,AEROCIVIL,AEROCIVIL,1495.0,60.0,11400.0,8205.0,"  984,000",1987-02-02,,3C,Público,21.0,15,15516,2014
PIP,RON,PAIPA JUAN JOSE RONDON,Paipa,Boyacá,Aeródromo,5.7644,-73.1057,AEROCIVIL,AEROCIVIL,1169.0,84.0,11400.0,8205.0,"  984,000",1987-02-02,,3C,Privado,11.0,15,15516,2015
PIP,RON,PAIPA JUAN JOSE RONDON,Paipa,Boyacá,Aeródromo,5.7644,-73.1057,AEROCIVIL,AEROCIVIL,913.0,86.0,11400.0,8205.0,"  984,000",1987-02-02,,3C,Aerocivil,1.0,15,15516,2016
PLT,PLT,LAS FLORES,Plato,Magdalena,Aeródromo,9.7985,-74.7831,AEROCIVIL,AEROCIVIL,26.0,37.0,3500.0,86.0,"  876,000",1968-03-08,,2A,Fumigación,47.0,47,47555,2014
PLT,PLT,LAS FLORES,Plato,Magdalena,Aeródromo,9.7985,-74.7831,AEROCIVIL,AEROCIVIL,0.0,64.0,3500.0,86.0,"  876,000",1968-03-08,,2A,Público,18.0,47,47555,2015
PLT,PLT,LAS FLORES,Plato,Magdalena,Aeródromo,9.7985,-74.7831,AEROCIVIL,AEROCIVIL,0.0,110.0,3500.0,86.0,"  876,000",1968-03-08,,2A,Privado,2.0,47,47555,2016
PPN,PPN,GUILLERMO LEON VALENCIA,Popayán,Cauca,Nacional,2.4542,-76.6099,AEROCIVIL,AEROCIVIL,3583.0,19.0,,5669.0,"  455,000",1969-05-19,,4C,Fumigación,8650.0,19,19001,2014
PPN,PPN,GUILLERMO LEON VALENCIA,Popayán,Cauca,Nacional,2.4542,-76.6099,AEROCIVIL,AEROCIVIL,5301.0,17.0,,5669.0,"  455,000",1969-05-19,,4C,Aerocivil,6698.0,19,19001,2015
PPN,PPN,GUILLERMO LEON VALENCIA,Popayán,Cauca,Nacional,2.4542,-76.6099,AEROCIVIL,AEROCIVIL,9835.0,12.0,,5669.0,"  455,000",1969-05-19,,4C,Aerocivil,5749.0,19,19001,2016
PSO,PSO,ANTONIO NARIÑO,Pasto,Nariño,Nacional,1.3964,-77.291,AEROCIVIL,AEROCIVIL,1359.0,22.0,,5896.0,"   95,000",1957-04-24,,4C,Aerocivil,36617.0,52,52001,2014
PSO,PSO,ANTONIO NARIÑO,Pasto,Nariño,Nacional,1.3964,-77.291,AEROCIVIL,AEROCIVIL,566.0,12.0,,5896.0,"   95,000",1957-04-24,,4C,Privado,39326.0,52,52001,2015
PSO,PSO,ANTONIO NARIÑO,Pasto,Nariño,Nacional,1.3964,-77.291,AEROCIVIL,AEROCIVIL,368.0,3.0,,5896.0,"   95,000",1957-04-24,,4C,Fumigación,57428.0,52,52001,2016
PTL,PTX,CONTADOR,Pitalito,Huila,Regional,1.8573,-76.0856,AEROCIVIL,AEROCIVIL,936.0,17.0,,4221.0," 2090,000",1974-10-22,,2B,Fumigación,1768.0,41,41551,2014
PTL,PTX,CONTADOR,Pitalito,Huila,Regional,1.8573,-76.0856,AEROCIVIL,AEROCIVIL,886.0,11.0,,4221.0," 2090,000",1974-10-22,,2B,Público,3380.0,41,41551,2015
PTL,PTX,CONTADOR,Pitalito,Huila,Regional,1.8573,-76.0856,AEROCIVIL,AEROCIVIL,105.0,11.0,,4221.0," 2090,000",1974-10-22,,2B,Público,5739.0,41,41551,2016
PTW,,GEMELOS DORADOS,Puerto Wilches,Santander,Aeródromo,7.2466,-73.7723,MILTON A. SALAZAR REY,EL MISMO,1566.0,29.0,5670.0,314.0," 6473,000",2013-11-19,2017-01-09,1A,Aerocivil,419.0,68,68575,2014
PTW,,GEMELOS DORADOS,Puerto Wilches,Santander,Aeródromo,7.2466,-73.7723,MILTON A. SALAZAR REY,EL MISMO,3098.0,49.0,5670.0,314.0," 6473,000",2013-11-19,2017-01-09,1A,Aerocivil,505.0,68,68575,2015
PTW,,GEMELOS DORADOS,Puerto Wilches,Santander,Aeródromo,7.2466,-73.7723,MILTON A. SALAZAR REY,EL MISMO,6145.0,82.0,5670.0,314.0," 6473,000",2013-11-19,2017-01-09,1A,Fumigación,738.0,68,68575,2016
PUU,PUU,TRES DE MAYO,Puerto Asís,Putumayo,Nacional,0.5054,-76.5008,AEROCIVIL,AEROCIVIL,1978.0,48.0,33112.0,809.0,"  115,000",1965-09-02,,3C,Fumigación,19406.0,86,86568,2014
PUU,PUU,TRES DE MAYO,Puerto Asís,Putumayo,Nacional,0.5054,-76.5008,AEROCIVIL,AEROCIVIL,3194.0,62.0,33112.0,809.0,"  115,000",1965-09-02,,3C,Privado,28946.0,86,86568,2015
PUU,PUU,TRES DE MAYO,Puerto Asís,Putumayo,Nacional,0.5054,-76.5008,AEROCIVIL,AEROCIVIL,5475.0,112.0,33112.0,809.0,"  115,000",1965-09-02,,3C,Privado,31698.0,86,86568,2016
PVA,PVA,EL EMBRUJO,Providencia,San Andrés islas,Nacional,13.3572,-81.3579,AEROCIVIL,AEROCIVIL,987.0,18.0,,10.0,"  338,000",1969-04-23,,2B,Aerocivil,31619.0,88,88564,2014
PVA,PVA,EL EMBRUJO,Providencia,San Andrés islas,Nacional,13.3572,-81.3579,AEROCIVIL,AEROCIVIL,288.0,1.0,,10.0,"  338,000",1969-04-23,,2B,Privado,34842.0,88,88564,2015
PVA,PVA,EL EMBRUJO,Providencia,San Andrés islas,Nacional,13.3572,-81.3579,AEROCIVIL,AEROCIVIL,234.0,1.0,,10.0,"  338,000",1969-04-23,,2B,Público,53259.0,88,88564,2016
PZA,PZA,PAZ DE ARIPORO,Paz de Ariporo,Casanare,Aeródromo,5.8819,-71.883,AEROCIVIL,AEROCIVIL,912.0,38.0,29000.0,878.0," 1591,000",1972-06-06,,2B,Fumigación,1465.0,85,85250,2014
PZA,PZA,PAZ DE ARIPORO,Paz de Ariporo,Casanare,Aeródromo,5.8819,-71.883,AEROCIVIL,AEROCIVIL,459.0,59.0,29000.0,878.0," 1591,000",1972-06-06,,2B,Aerocivil,1659.0,85,85250,2015
PZA,PZA,PAZ DE ARIPORO,Paz de Ariporo,Casanare,Aeródromo,5.8819,-71.883,AEROCIVIL,AEROCIVIL,393.0,64.0,29000.0,878.0," 1591,000",1972-06-06,,2B,Público,2244.0,85,85250,2016
RAV,RAV,CRAVO NORTE,Cravo Norte,Arauca,Aeródromo,6.3167,-70.2111,AEROCIVIL,AEROCIVIL,1698.0,25.0,12202.0,336.0,"  343,000",1968-05-03,,3C,Privado,1667.0,81,81220,2014
RAV,RAV,CRAVO NORTE,Cravo Norte,Arauca,Aeródromo,6.3167,-70.2111,AEROCIVIL,AEROCIVIL,3354.0,42.0,12202.0,336.0,"  343,000",1968-05-03,,3C,Privado,758.0,81,81220,2015
RAV,RAV,CRAVO NORTE,Cravo Norte,Arauca,Aeródromo,6.3167,-70.2111,AEROCIVIL,AEROCIVIL,3651.0,53.0,12202.0,336.0,"  343,000",1968-05-03,,3C,Fumigación,728.0,81,81220,2016
RCH,RCH,ALMIRANTE PADILLA,Riohacha,La Guajira,Internacional,11.5262,-72.9267,MUNICIPIO,AEROCIVIL -ORIENTE S.A.S.,903.0,58.0,,43.0,"  187,000",1987-02-02,,4C,Fumigación,9712.0,44,44001,2014
RCH,RCH,ALMIRANTE PADILLA,Riohacha,La Guajira,Internacional,11.5262,-72.9267,MUNICIPIO,AEROCIVIL -ORIENTE S.A.S.,807.0,73.0,,43.0,"  187,000",1987-02-02,,4C,Fumigación,15503.0,44,44001,2015
RCH,RCH,ALMIRANTE PADILLA,Riohacha,La Guajira,Internacional,11.5262,-72.9267,MUNICIPIO,AEROCIVIL -ORIENTE S.A.S.,249.0,116.0,,43.0,"  187,000",1987-02-02,,4C,Privado,20605.0,44,44001,2016
RVE,RVE,COLONIZADORES,Arauca,Arauca,Regional,6.9504,-71.8562,ECOPETROL,AEROCIVIL,1281.0,51.0,,678.0," 4158,000",1983-09-25,,3C,Aerocivil,4272.0,81,81001,2014
RVE,RVE,COLONIZADORES,Arauca,Arauca,Regional,6.9504,-71.8562,ECOPETROL,AEROCIVIL,1846.0,74.0,,678.0," 4158,000",1983-09-25,,3C,Público,2430.0,81,81001,2015
RVE,RVE,COLONIZADORES,Arauca,Arauca,Regional,6.9504,-71.8562,ECOPETROL,AEROCIVIL,3159.0,126.0,,678.0," 4158,000",1983-09-25,,3C,Fumigación,607.0,81,81001,2016
SMR,SMR,SIMON BOLIVAR,Santa Marta,Magdalena,Internacional,11.1197,-74.2473,AEROCIVIL,AEROCIVIL -ORIENTE S.A.S.,851.0,54.0,,22.0,"  352,000",1968-05-17,,3C,Privado,37841.0,47,47001,2014
SMR,SMR,SIMON BOLIVAR,Santa Marta,Magdalena,Internacional,11.1197,-74.2473,AEROCIVIL,AEROCIVIL -ORIENTE S.A.S.,795.0,62.0,,22.0,"  352,000",1968-05-17,,3C,Privado,11583.0,47,47001,2015
SMR,SMR,SIMON BOLIVAR,Santa Marta,Magdalena,Internacional,11.1197,-74.2473,AEROCIVIL,AEROCIVIL -ORIENTE S.A.S.,144.0,87.0,,22.0,"  352,000",1968-05-17,,3C,Público,8373.0,47,47001,2016
SNR,,SAN MARTIN,San Martín,Meta,Regional,3.7023,-73.6881,AEROCIVIL,AEROCIVIL,230.0,22.0,3000.0,1380.0,"  644,000",1967-06-05,,1A,Aerocivil,190.0,50,50689,2014
SNR,,SAN MARTIN,San Martín,Meta,Regional,3.7023,-73.6881,AEROCIVIL,AEROCIVIL,146.0,27.0,3000.0,1380.0,"  644,000",1967-06-05,,1A,Aerocivil,307.0,50,50689,2015
SNR,,SAN MARTIN,San Martín,Meta,Regional,3.7023,-73.6881,AEROCIVIL,AEROCIVIL,102.0,37.0,3000.0,1380.0,"  644,000",1967-06-05,,1A,Público,522.0,50,50689,2016
SVI,SVI,EDUARDO FALLA SOLANO,San Vicente del Caguán,Caquetá,Regional,2.1522,-74.7663,AEROCIVIL,AEROCIVIL,1246.0,1.0,,875.0,"  141,000",1987-02-02,,3C,Aerocivil,1638.0,18,18753,2014
SVI,SVI,EDUARDO FALLA SOLANO,San Vicente del Caguán,Caquetá,Regional,2.1522,-74.7663,AEROCIVIL,AEROCIVIL,272.0,1.0,,875.0,"  141,000",1987-02-02,,3C,Aerocivil,826.0,18,18753,2015
SVI,SVI,EDUARDO FALLA SOLANO,San Vicente del Caguán,Caquetá,Regional,2.1522,-74.7663,AEROCIVIL,AEROCIVIL,48.0,1.0,,875.0,"  141,000",1987-02-02,,3C,Público,54.0,18,18753,2016
TCO,,LA FLORIDA,San Andrés de Tumaco,Nariño,Nacional,1.8144,-78.749,AEROCIVIL,AEROCIVIL,1915.0,40.0,,10.0,"  455,000",1969-05-19,,3C,Privado,17708.0,52,52835,2014
TCO,,LA FLORIDA,San Andrés de Tumaco,Nariño,Nacional,1.8144,-78.749,AEROCIVIL,AEROCIVIL,3660.0,65.0,,10.0,"  455,000",1969-05-19,,3C,Aerocivil,18869.0,52,52835,2015
TCO,,LA FLORIDA,San Andrés de Tumaco,Nariño,Nacional,1.8144,-78.749,AEROCIVIL,AEROCIVIL,6363.0,125.0,,10.0,"  455,000",1969-05-19,,3C,Aerocivil,23246.0,52,52835,2016
TDA,TDA,TRINIDAD,Trinidad,Casanare,Aeródromo,5.4349,-71.6584,AEROCIVIL,AEROCIVIL,1660.0,14.0,12202.0,560.0,"  644,000",1967-06-05,,2A,Privado,7202.0,85,85430,2014
TDA,TDA,TRINIDAD,Trinidad,Casanare,Aeródromo,5.4349,-71.6584,AEROCIVIL,AEROCIVIL,3166.0,15.0,12202.0,560.0,"  644,000",1967-06-05,,2A,Público,11619.0,85,85430,2015
TDA,TDA,TRINIDAD,Trinidad,Casanare,Aeródromo,5.4349,-71.6584,AEROCIVIL,AEROCIVIL,3172.0,26.0,12202.0,560.0,"  644,000",1967-06-05,,2A,Aerocivil,16393.0,85,85430,2016
TLU,TLU,TOLU,Tolú Viejo,Sucre,Regional,9.5095,-75.5859,AEROCIVIL,AEROCIVIL,1164.0,2.0,12202.0,15.0,"  455,000",1969-05-19,,2A,Aerocivil,3455.0,70,70823,2014
TLU,TLU,TOLU,Tolú Viejo,Sucre,Regional,9.5095,-75.5859,AEROCIVIL,AEROCIVIL,833.0,2.0,12202.0,15.0,"  455,000",1969-05-19,,2A,Público,4368.0,70,70823,2015
TLU,TLU,TOLU,Tolú Viejo,Sucre,Regional,9.5095,-75.5859,AEROCIVIL,AEROCIVIL,325.0,0.0,12202.0,15.0,"  455,000",1969-05-19,,2A,Aerocivil,7791.0,70,70823,2016
TME,TME,GUSTAVO VARGAS,Tame,Arauca,Regional,6.451,-71.7601,AEROCIVIL,AEROCIVIL,3475.0,46.0,33112.0,1199.0,"  343,000",1968-05-03,,4C,Privado,508.0,81,81794,2014
TME,TME,GUSTAVO VARGAS,Tame,Arauca,Regional,6.451,-71.7601,AEROCIVIL,AEROCIVIL,6098.0,73.0,33112.0,1199.0,"  343,000",1968-05-03,,4C,Fumigación,450.0,81,81794,2015
TME,TME,GUSTAVO VARGAS,Tame,Arauca,Regional,6.451,-71.7601,AEROCIVIL,AEROCIVIL,8767.0,139.0,33112.0,1199.0,"  343,000",1968-05-03,,4C,Público,318.0,81,81794,2016
TTM,TTM,TABLON DE TAMARA,Támara,Casanare,Aeródromo,5.7267,-72.1006,AEROCIVIL,AEROCIVIL,1374.0,3.0,12202.0,1650.0,"  644,000",1967-06-05,,2C,Público,18.0,85,85400,2014
TTM,TTM,TABLON DE TAMARA,Támara,Casanare,Aeródromo,5.7267,-72.1006,AEROCIVIL,AEROCIVIL,2578.0,1.0,12202.0,1650.0,"  644,000",1967-06-05,,2C,Aerocivil,27.0,85,85400,2015
TTM,TTM,TABLON DE TAMARA,Támara,Casanare,Aeródromo,5.7267,-72.1006,AEROCIVIL,AEROCIVIL,4101.0,1.0,12202.0,1650.0,"  644,000",1967-06-05,,2C,Privado,51.0,85,85400,2016
UIB,UIB,EL CARAÑO,Quibdó,Chocó,Nacional,5.6908,-76.6412,AEROCIVIL,EN CONCESION-SOACN(Sociedad Operadora de Aeropuertos Centro Norte,2178.0,34.0,63196.0,192.0,"  522,000",1968-07-03,,3C,Aerocivil,9141.0,27,27001,2014
UIB,UIB,EL CARAÑO,Quibdó,Chocó,Nacional,5.6908,-76.6412,AEROCIVIL,EN CONCESION-SOACN(Sociedad Operadora de Aeropuertos Centro Norte,2850.0,46.0,63196.0,192.0,"  522,000",1968-07-03,,3C,Fumigación,6540.0,27,27001,2015
UIB,UIB,EL CARAÑO,Quibdó,Chocó,Nacional,5.6908,-76.6412,AEROCIVIL,EN CONCESION-SOACN(Sociedad Operadora de Aeropuertos Centro Norte,3107.0,76.0,63196.0,192.0,"  522,000",1968-07-03,,3C,Privado,250.0,27,27001,2016
URR,URR,ALI PIEDRAHITA,Urrao,Antioquia,Regional,6.3273,-76.1409,AEROCIVIL,AEROCIVIL,1607.0,20.0,,6104.0,"  551,000",1968-07-10,,2A,Público,5832.0,5,5847,2014
URR,URR,ALI PIEDRAHITA,Urrao,Antioquia,Regional,6.3273,-76.1409,AEROCIVIL,AEROCIVIL,2004.0,32.0,,6104.0,"  551,000",1968-07-10,,2A,Público,11081.0,5,5847,2015
URR,URR,ALI PIEDRAHITA,Urrao,Antioquia,Regional,6.3273,-76.1409,AEROCIVIL,AEROCIVIL,2141.0,51.0,,6104.0,"  551,000",1968-07-10,,2A,Privado,15970.0,5,5847,2016
VGP,VGZ,CANANGUCHAL,Villagarzón,Putumayo,Regional,0.9785,-76.6064,AEROCIVIL,AEROCIVIL,907.0,26.0,,397.0," 1270,000",1972-05-09,,3B,Fumigación,2409.0,86,86885,2014
VGP,VGZ,CANANGUCHAL,Villagarzón,Putumayo,Regional,0.9785,-76.6064,AEROCIVIL,AEROCIVIL,36.0,30.0,,397.0," 1270,000",1972-05-09,,3B,Público,2285.0,86,86885,2015
VGP,VGZ,CANANGUCHAL,Villagarzón,Putumayo,Regional,0.9785,-76.6064,AEROCIVIL,AEROCIVIL,34.0,57.0,,397.0," 1270,000",1972-05-09,,3B,Público,111.0,86,86885,2016
VUP,VUP,ALFONSO LOPEZ PUMAREJO,Valledupar,Cesar,Nacional,10.4351,-73.2494,AEROCIVIL,AEROCIVIL -ORIENTE S.A.S.,2775.0,17.0,,450.0,"  352,000",1968-05-17,,4C,Privado,7787.0,20,20001,2014
VUP,VUP,ALFONSO LOPEZ PUMAREJO,Valledupar,Cesar,Nacional,10.4351,-73.2494,AEROCIVIL,AEROCIVIL -ORIENTE S.A.S.,5510.0,7.0,,450.0,"  352,000",1968-05-17,,4C,Fumigación,4620.0,20,20001,2015
VUP,VUP,ALFONSO LOPEZ PUMAREJO,Valledupar,Cesar,Nacional,10.4351,-73.2494,AEROCIVIL,AEROCIVIL -ORIENTE S.A.S.,8800.0,0.0,,450.0,"  352,000",1968-05-17,,4C,Público,4098.0,20,20001,2016
VVC,VVC,VANGUARDIA,Villavicencio,Meta,Nacional,4.1684,-73.6147,AEROCIVIL,AEROCIVIL,3677.0,40.0,,1366.0,"  499,000",1968-06-12,,3C,Privado,145368.0,50,50001,2014
VVC,VVC,VANGUARDIA,Villavicencio,Meta,Nacional,4.1684,-73.6147,AEROCIVIL,AEROCIVIL,3916.0,69.0,,1366.0,"  499,000",1968-06-12,,3C,Aerocivil,171576.0,50,50001,2015
VVC,VVC,VANGUARDIA,Villavicencio,Meta,Nacional,4.1684,-73.6147,AEROCIVIL,AEROCIVIL,7266.0,112.0,,1366.0,"  499,000",1968-06-12,,3C,Público,258273.0,50,50001,2016
VVU,,SANTA ISABEL,Villavicencio,Meta,Aeródromo,3.9873,-73.2091,EFA LTDA.,EFA LTDA.,502.0,14.0,2000.0,689.0," 2634,000",2012-05-24,,1A,Fumigación,1.0,50,50001,2014
VVU,,SANTA ISABEL,Villavicencio,Meta,Aeródromo,3.9873,-73.2091,EFA LTDA.,EFA LTDA.,214.0,27.0,2000.0,689.0," 2634,000",2012-05-24,,1A,Fumigación,1.0,50,50001,2015
VVU,,SANTA ISABEL,Villavicencio,Meta,Aeródromo,3.9873,-73.2091,EFA LTDA.,EFA LTDA.,29.0,50.0,2000.0,689.0," 2634,000",2012-05-24,,1A,Público,2.0,50,50001,2016
YAP,,YAPIMA,Mitú,Vaupés,Aeródromo,1.0825,-69.4914,RESGUARDO INDIGENA,GOBERNACION DEL VAUPES,550.0,17.0,2300.0,600.0," 3423,000",1997-09-16,,1A,Fumigación,2.0,97,97001,2014
YAP,,YAPIMA,Mitú,Vaupés,Aeródromo,1.0825,-69.4914,RESGUARDO INDIGENA,GOBERNACION DEL VAUPES,930.0,27.0,2300.0,600.0," 3423,000",1997-09-16,,1A,Aerocivil,2.0,97,97001,2015
YAP,,YAPIMA,Mitú,Vaupés,Aeródromo,1.0825,-69.4914,RESGUARDO INDIGENA,GOBERNACION DEL VAUPES,1196.0,50.0,2300.0,600.0," 3423,000",1997-09-16,,1A,Fumigación,4.0,97,97001,2016
YOP,,TROMPILLOS,Yopal,Casanare,Aeródromo,5.0932,-72.1807,ALEXANDER RIVERA,CELTA LTDA.,779.0,18.0,2000.0,623.0," 4736,000",2013-09-06,,1A,Fumigación,1.0,85,85001,2014
YOP,,TROMPILLOS,Yopal,Casanare,Aeródromo,5.0932,-72.1807,ALEXANDER RIVERA,CELTA LTDA.,567.0,20.0,2000.0,623.0," 4736,000",2013-09-06,,1A,Privado,1.0,85,85001,2015
YOP,,TROMPILLOS,Yopal,Casanare,Aeródromo,5.0932,-72.1807,ALEXANDER RIVERA,CELTA LTDA.,55.0,24.0,2000.0,623.0," 4736,000",2013-09-06,,1A,Fumigación,1.0,85,85001,2016
YPL,,CIENAGA,Yopal,Casanare,Aeródromo,5.2481,-72.8686,ALVARO MALAVER,SER.FUM.AER.CAS-SFA,953.0,10.0,2000.0,609.0," 4216,000",2014-08-06,2017-09-04,1A,Público,39.0,85,85001,2014
YPL,,CIENAGA,Yopal,Casanare,Aeródromo,5.2481,-72.8686,ALVARO MALAVER,SER.FUM.AER.CAS-SFA,1576.0,12.0,2000.0,609.0," 4216,000",2014-08-06,2017-09-04,1A,Público,39.0,85,85001,2015
YPL,,CIENAGA,Yopal,Casanare,Aeródromo,5.2481,-72.8686,ALVARO MALAVER,SER.FUM.AER.CAS-SFA,2454.0,16.0,2000.0,609.0," 4216,000",2014-08-06,2017-09-04,1A,Público,39.0,85,85001,2016
YPP,,GERMAN ALBERTO,Yopal,Casanare,Aeródromo,5.1875,-72.3191,JOSE NELSON PEREZ R.,CELTA LTDA.,747.0,10.0,2000.0,735.0," 4511,000",2012-08-16,2015-09-07,1A,Público,22.0,85,85001,2014
YPP,,GERMAN ALBERTO,Yopal,Casanare,Aeródromo,5.1875,-72.3191,JOSE NELSON PEREZ R.,CELTA LTDA.,455.0,8.0,2000.0,735.0," 4511,000",2012-08-16,2015-09-07,1A,Público,27.0,85,85001,2015
YPP,,GERMAN ALBERTO,Yopal,Casanare,Aeródromo,5.1875,-72.3191,JOSE NELSON PEREZ R.,CELTA LTDA.,218.0,8.0,2000.0,735.0," 4511,000",2012-08-16,2015-09-07,1A,Fumigación,46.0,85,85001,2016
ZPS,AZT,GUILLERMO GOMEZ ORTIZ,Zapatoca,Santander,Aeródromo,6.7674,-73.2846,MUNICIPIO,MUNICIPIO,902.0,28.0,2300.0,5918.0,"   11,000",1968-01-09,,1A,Aerocivil,39.0,68,68895,2014
ZPS,AZT,GUILLERMO GOMEZ ORTIZ,Zapatoca,Santander,Aeródromo,6.7674,-73.2846,MUNICIPIO,MUNICIPIO,1465.0,48.0,2300.0,5918.0,"   11,000",1968-01-09,,1A,Fumigación,54.0,68,68895,2015
ZPS,AZT,GUILLERMO GOMEZ ORTIZ,Zapatoca,Santander,Aeródromo,6.7674,-73.2846,MUNICIPIO,MUNICIPIO,2150.0,66.0,2300.0,5918.0,"   11,000",1968-01-09,,1A,Fumigación,97.0,68,68895,2016
